urn,district_code,district_name,school_name,website,town,postcode,region,has_email_collected
139837,202,Camden,Abacus Belsize Primary School,http://www.abacus-cfbt.org,London,N1C 4PF,London,no
100008,202,Camden,Argyle Primary School,http://www.argyle.camden.sch.uk/,London,WC1H 9EG,London,no
100007,202,Camden,Camden Primary Pupil Referral Unit,http://www.robsonhouse.org.uk/main/,London,NW1 3EX,London,no
100060,202,Camden,Children's Hospital School at Gt Ormond Street and UCH,https://www.goshschool.org/,London,WC1N 3JH,London,no
100029,202,Camden,Christ Church School,http://www.cchurchnw1.camden.sch.uk,London,NW1 4BD,London,no
130342,202,Camden,Christopher Hatton Primary School,http://www.chrishatton.camden.sch.uk/,London,EC1R 4PQ,London,no
100013,202,Camden,Edith Neville Primary School,http://www.edithneville.camden.sch.uk/,London,NW1 1HQ,London,no
100030,202,Camden,Emmanuel Church of England Primary School,http://www.emmanuel.camden.sch.uk/,London,NW6 1TF,London,no
100026,202,Camden,Fitzjohn's Primary School,http://www.fitzjohns.camden.sch.uk/,London,NW3 6NP,London,no
100091,202,Camden,Frank Barnes School for Deaf Children,https://www.fbarnes.camden.sch.uk,London,N1C 4BT,London,no
100025,202,Camden,Gospel Oak Primary School,www.gospeloak.camden.sch.uk,London,NW3 2JB,London,no
100031,202,Camden,Hampstead Parochial Church of England Primary School,http://www.hampsteadprim.camden.sch.uk/,London,NW3 6TX,London,no
140686,202,Camden,Kings Cross Academy,kingscrossacademy.org.uk,London,N1C 4BT,London,no
132245,202,Camden,Kingsgate Primary School,www.kingsgateprimaryschool.org.uk,London,NW6 4LB,London,no
100055,202,Camden,Maria Fidelis Catholic School FCJ,http://www.mariafidelis.camden.sch.uk/,London,NW1 1LY,London,no
100094,202,Camden,Royal Free Hospital Children's School,http://www.royalfree.camden.sch.uk/,London,NW3 2QG,London,no
136807,202,Camden,St Luke's Church of England School,www.stlukesschool.org.uk,London,NW3 7SU,London,no
141164,202,Camden,The ArtsXchange,https://www.beckmeadtrust.org/artsxchange,London,EC1V 1JX,London,no
100054,202,Camden,The Camden School for Girls,http://www.camdengirls.camden.sch.uk,London,NW5 2DB,London,no
137181,202,Camden,The UCL Academy,http://www.uclacademy.co.uk,Camden,NW3 3AQ,London,no
100005,202,Camden,Thomas Coram Centre,http://www.thomascoram.camden.sch.uk/,London,WC1N 2NY,London,no
100053,202,Camden,Acland Burghley School,http://www.aclandburghley.camden.sch.uk/,London,NW5 1UJ,London,yes
100010,202,Camden,Brecknock Primary School,http://www.brecknock.camden.sch.uk/,London,NW1 9AL,London,yes
100011,202,Camden,Brookfield Primary School,http://www.brookfield.camden.sch.uk/,London,N19 5DH,London,yes
100028,202,Camden,"Christ Church Primary School, Hampstead",http://www.christchurchschool.co.uk/,London,NW3 1JH,London,yes
100027,202,Camden,Eleanor Palmer Primary School,http://www.eleanorpalmer.camden.sch.uk/,London,NW5 2JA,London,yes
100014,202,Camden,Fleet Primary School,http://www.fleet.camden.sch.uk/,London,NW3 2QT,London,yes
100052,202,Camden,Hampstead School,http://www.hampsteadschool.org.uk/,London,NW2 3RT,London,yes
100092,202,Camden,Harmood School,http://harmood.h3federation.org.uk/,London,NW1 8DP,London,yes
100049,202,Camden,Haverstock School,http://www.haverstock.camden.sch.uk/,London,NW3 2BQ,London,yes
100015,202,Camden,Hawley Primary School,http://www.hawley.camden.sch.uk/,London,NW1 8RP,London,yes
100006,202,Camden,Heath School,http://heath.h3federation.org.uk/,London,NW3 2NY,London,yes
100032,202,Camden,"Holy Trinity CofE Primary School, NW3",https://www.holytrinitynw3.co.uk,London,NW3 5SQ,London,yes
100033,202,Camden,"Holy Trinity and Saint Silas CofE Primary School, NW1",http://www.holytrinitynw1.camden.sch.uk/,London,NW1 8DE,London,yes
100034,202,Camden,Kentish Town Church of England Primary School,http://www.kentishtown.camden.sch.uk/,London,NW5 2TU,London,yes
100059,202,Camden,La Sainte Union Catholic Secondary School,http://www.lasainteunion.org.uk/,London,NW5 1RP,London,yes
100018,202,Camden,Netley Primary School & Centre for Autism,https://www.netley.camden.sch.uk/,London,NW1 3EX,London,yes
100019,202,Camden,New End Primary School,http://www.newend.camden.sch.uk/,London,NW3 1HU,London,yes
100048,202,Camden,Our Lady Roman Catholic Primary School,https://www.ourladys.camden.sch.uk/,London,NW1 0DP,London,yes
100050,202,Camden,Parliament Hill School,http://www.parliamenthill.camden.sch.uk/,London,NW5 1RL,London,yes
100020,202,Camden,Primrose Hill School,https://www.primrosehill.camden.sch.uk,London,NW1 8JL,London,yes
100051,202,Camden,Regent High School,http://www.regenthighschool.org.uk/,London,NW1 1RX,London,yes
100021,202,Camden,Rhyl Community Primary School,https://www.rhylprim.camden.sch.uk/,London,NW5 3HB,London,yes
100022,202,Camden,Richard Cobden Primary School,http://www.rcobden.camden.sch.uk/,London,NW1 0LL,London,yes
100035,202,Camden,Rosary Catholic Primary School,http://www.rosary.camden.sch.uk/,London,NW3 2AE,London,yes
100036,202,Camden,St Alban's Church of England Primary School,https://www.stalbanscamden.co.uk,London,EC1N 7SD,London,yes
100047,202,Camden,St Eugene de Mazenod Roman Catholic Primary School,http://www.steugene.camden.sch.uk/,London,NW6 4LS,London,yes
100040,202,Camden,St George the Martyr Church of England Primary School,http://www.stgeorge.camden.sch.uk/,London,WC1N 2NX,London,yes
100041,202,Camden,St Josephs Catholic Primary School,http://www.stjosephs.camden.sch.uk,London,WC2B 5NA,London,yes
100043,202,Camden,St Mary and St Pancras Church of England Primary School,https://www.stmp.camden.sch.uk,London,NW1 1QP,London,yes
100042,202,Camden,St Mary's Kilburn Church of England Primary School,http://www.stmarykilburn.camden.sch.uk/,London,NW6 4PG,London,yes
100045,202,Camden,St Patrick's Catholic Primary School,http://www.stpatricks.camden.sch.uk/,London,NW5 3AH,London,yes
100046,202,Camden,St Paul's Church of England Primary School,http://www.stpauls.camden.sch.uk,London,NW3 3DS,London,yes
100096,202,Camden,Swiss Cottage School - Development & Research Centre,https://www.swisscottage.camden.sch.uk,London,NW8 6HX,London,yes
100023,202,Camden,Torriano Primary School,http://www.torriano.camden.sch.uk/,London,NW5 2SJ,London,yes
100009,202,Camden,West Hampstead Primary School,http://www.westhampstead.camden.sch.uk/,London,NW6 1QL,London,yes
100056,202,Camden,William Ellis School,http://www.williamellis.camden.sch.uk/,London,NW5 1RN,London,yes
