urn,district_code,district_name,school_name,website,town,postcode,region,has_email_collected
143601,203,Greenwich,Alderwood Primary School,http://www.alderwood.compassps.uk,London,SE9 2JH,London,no
138245,203,Greenwich,Ark Greenwich Free School,http://www.arkgreenwichfreeschool.org/,London,SE18 4LH,London,no
150068,203,Greenwich,Bannockburn Primary School,www.bannockburnprimaryschool.com/,London,SE18 1HE,London,no
100181,203,Greenwich,Bishop John Robinson Church of England Primary School,https://www.bishopjohnrobinsonprimary.co.uk/,London,SE28 8LW,London,no
149684,203,Greenwich,Boxgrove Primary School,https://www.boxgrove.compassps.uk,Greenwich,SE2 9JP,London,no
143210,203,Greenwich,Brooklands Primary School,http://www.brooklandsschool.org.uk/,London,SE3 9AB,London,no
100155,203,Greenwich,Cardwell Primary School,https://www.cardwellschool.co.uk,London,SE18 5LP,London,no
138547,203,Greenwich,Charlton Park Academy,www.charltonparkacademy.com,London,SE7 8HX,London,no
132800,203,Greenwich,Conway Primary School,www.conwayprimaryschool.co.uk/,London,SE18 1QY,London,no
143599,203,Greenwich,Deansfield Primary School,https://www.deansfield.compassps.uk/,London,SE9 1XP,London,no
131109,203,Greenwich,Discovery Primary School,www.discovery.greenwich.sch.uk/,London,SE28 0JN,London,no
132827,203,Greenwich,Eglinton Primary School,www.eglinton-royalgreenwich.co.uk,London,SE18 3PY,London,no
143592,203,Greenwich,Foxfield Primary School,www.foxfield.org.uk/,London,SE18 7EX,London,no
100126,203,Greenwich,Gallions Mount Primary School,www.gallionsmount.greenwich.sch.uk,London,SE18 1JR,London,no
100127,203,Greenwich,Gordon Primary School,https://www.gordonprimary.co.uk,London,SE9 1QG,London,no
145210,203,Greenwich,Greenacres Primary School and Language Impairment Unit,www.greenacres.org.uk/,London,SE9 3JN,London,no
100129,203,Greenwich,Haimo Primary School,http://www.haimoprimaryschool.co.uk,London,SE9 6DY,London,no
143597,203,Greenwich,Halstow Primary School,www.halstow.compassps.uk,London,SE10 0LD,London,no
138449,203,Greenwich,Harris Academy Greenwich,http://www.harrisgreenwich.org.uk/,London,SE9 5EQ,London,no
148614,203,Greenwich,Hawksmoor School,www.hawksmoor.org.uk,London,SE28 8AS,London,no
143598,203,Greenwich,Horn Park Primary School,www.hornpark.compassps.uk,London,SE12 9BT,London,no
131246,203,Greenwich,James Wolfe Primary School and Centre for the Deaf,http://www.jameswolfe.greenwich.sch.uk,London,SE10 8RZ,London,no
149683,203,Greenwich,Kidbrooke Park Primary School,https://kidbrookepark.compassps.uk,London,SE3 8JG,London,no
100204,203,Greenwich,King's Oak School,https://www.kingsoakschool.co.uk,London,SE9 5LX,London,no
145895,203,Greenwich,Leigh Academy Blackheath,https://leighacademyblackheath.org.uk/,London,SE3 8SY,London,no
145315,203,Greenwich,Leigh Academy Halley,www.thehalleyacademy.org.uk,London,SE3 8EP,London,no
141309,203,Greenwich,Leigh Stationers' Academy,www.scwa.org.uk,London,SE9 2PT,London,no
143211,203,Greenwich,Millennium Primary School,http://millenniumprimary.org.uk/,London,SE10 0BG,London,no
100163,203,Greenwich,Mulgrave Primary School,https://www.mulgraveprimary.org.uk,London,SE18 5DL,London,no
145215,203,Greenwich,Nightingale Primary School,http://www.nightingaleprimary.org.uk/,London,SE18 7JJ,London,no
143593,203,Greenwich,Rockliffe Manor Primary School,www.rockliffemanor.co.uk,London,SE18 2NP,London,no
143927,203,Greenwich,Royal Greenwich Trust School,http://www.rgtrustschool.net,London,SE7 8LJ,London,no
138966,203,Greenwich,Shooters Hill Sixth Form College,http://www.shc.ac.uk,London,SE18 4LD,London,no
143596,203,Greenwich,South Rise Primary School,http://www.southrise.compassps.uk,London,SE18 7PX,London,no
144091,203,Greenwich,St Mary's Catholic Primary School,www.stmaryrc.org.uk/,London,SE9 1UF,London,no
147439,203,Greenwich,The John Roan School,http://www.thejohnroanschool.org.uk,London,SE3 7QR,London,no
100142,203,Greenwich,Thorntree Primary School,https://www.thorntree.greenwich.sch.uk/,London,SE7 8AE,London,no
143209,203,Greenwich,Timbercroft Primary School,http://www.timbercroft.greenwich.sch.uk/,London,SE18 2SG,London,no
133401,203,Greenwich,Waterside School,http://www.watersideschool.co.uk/,London,SE18 7NB,London,no
143595,203,Greenwich,Willow Dene School,www.willowdene.compassps.uk,Plumstead,SE18 2JD,London,no
151311,203,Greenwich,Windrush Charlton Primary School,,London,SE7 8FE,London,no
143079,203,Greenwich,Windrush Thamesmead Primary School,https://www.windrushthamesmead.org.uk,London,SE28 8AR,London,no
148615,203,Greenwich,Wingfield Primary School,www.wingfield.compassps.uk,London,SE3 9GJ,London,no
143594,203,Greenwich,Woodhill Primary School,www.woodhillschool.co.uk/,London,SE18 5JE,London,no
141163,203,Greenwich,Woolwich Polytechnic School,http://woolwichpoly.co.uk/,London,SE28 8AT,London,no
143686,203,Greenwich,Woolwich Polytechnic School for Girls,www.woolwichpolygirls.co.uk,Thamesmead,SE28 8RF,London,no
100099,203,Greenwich,Abbey Wood Nursery School,http://abbeywoodnurseryschool.co.uk/,London,SE2 0SX,London,yes
131841,203,Greenwich,Alexander McLeod Primary School,www.alexmcleod.org.uk/,London,SE2 0QS,London,yes
100164,203,Greenwich,Charlton Manor Primary School,https://www.charltonmanorprimary.co.uk/,London,SE7 7EF,London,yes
100115,203,Greenwich,Cherry Orchard Primary School,https://www.cherryorchardschool.org.uk,London,SE7 7DG,London,yes
100165,203,Greenwich,Christ Church Church of England Primary School,https://www.koinoniafederation.com,London,SE10 0DZ,London,yes
100166,203,Greenwich,"Christ Church Church of England Primary School, Shooters Hill",https://www.ccshprimary.org.uk,London,SE18 3RS,London,yes
100152,203,Greenwich,De Lucy Primary School,https://www.delucyprimaryschool.co.uk/,London,SE2 9PD,London,yes
100120,203,Greenwich,Ealdham Primary School,https://www.ealdhamprimary.org.uk,London,SE9 6BP,London,yes
100167,203,Greenwich,Eltham Church of England Primary School,http://www.elthamcoeschool.co.uk/,London,SE9 1TR,London,yes
100182,203,Greenwich,Eltham Hill School,http://elthamhill.com,London,SE9 5EE,London,yes
100125,203,Greenwich,Fossdene Primary School,http://www.fossdene.greenwich.sch.uk,London,SE7 7NQ,London,yes
100162,203,Greenwich,Greenslade Primary School,https://www.greensladeprimary.org.uk/,London,SE18 2QQ,London,yes
100131,203,Greenwich,Henwick Primary School,http://www.henwickprimary.co.uk,London,SE9 6NZ,London,yes
100158,203,Greenwich,Heronsgate Primary School,https://www.heronsgate.greenwich.sch.uk,London,SE28 0EA,London,yes
100134,203,Greenwich,Invicta Primary School,https://www.invictaprimaryschool.org.uk/,London,SE3 7HE,London,yes
100159,203,Greenwich,Linton Mead Primary School,https://www.lintonmead.org.uk,London,SE28 8DT,London,yes
100137,203,Greenwich,Meridian Primary School,https://www.meridian.greenwich.sch.uk,London,SE10 9NY,London,yes
130921,203,Greenwich,Middle Park Primary School,www.middlepark.co.uk,London,SE9 5RX,London,yes
100149,203,Greenwich,Montbelle Primary School,https://www.montbelle.org.uk/,London,SE9 3EY,London,yes
100114,203,Greenwich,Morden Mount Primary School,https://www.mordenmount.greenwich.sch.uk/,London,SE13 7QP,London,yes
100103,203,Greenwich,Newhaven Pupil Referral Unit,https://www.newhavenschool.co.uk,London,SE9 6HR,London,yes
100179,203,Greenwich,Notre Dame Catholic Primary School,https://www.notredame.greenwich.sch.uk,London,SE18 3SJ,London,yes
100168,203,Greenwich,Our Lady of Grace Catholic Primary School,https://www.ourladyofgracecatholicprimaryschool.co.uk,London,SE7 7HR,London,yes
100140,203,Greenwich,Plumcroft Primary School,https://www.plumcroftprimary.co.uk,London,SE18 3HW,London,yes
100183,203,Greenwich,Plumstead Manor School,http://www.plumsteadmanor.com,London,SE18 1QF,London,yes
100098,203,Greenwich,Pound Park Nursery School,http://www.poundparknursery.co.uk/,London,SE7 8AF,London,yes
100097,203,Greenwich,Rachel McMillan Nursery School and Children's Centre,https://www.rachelmcmillannursery.co.uk,London,SE8 3EH,London,yes
100102,203,Greenwich,Robert Owen Nursery School,https://www.robertowenearlyyears.org.uk,London,SE10 0EA,London,yes
100171,203,Greenwich,Saint Mary Magdalene Church of England All Through School,https://www.koinoniafederation.com,London,SE18 5PW,London,yes
100141,203,Greenwich,Sherington Primary School,https://www.sheringtonprimary.co.uk,London,SE7 7JP,London,yes
100174,203,Greenwich,St Alfege with St Peter's Church of England Primary School,http://www.stalfegeschool.org.uk,London,SE10 9RB,London,yes
100169,203,Greenwich,St Joseph's Catholic Primary School,https://www.stjosephs.greenwich.sch.uk/,London,SE10 9AN,London,yes
100180,203,Greenwich,St Margaret Clitherow Catholic Primary School,http://www.lgfl.net/lgfl/leas/greenwich/schools/stmargaretclitherow/,London,SE28 8GB,London,yes
100170,203,Greenwich,St Margaret's Church of England Primary School,http://www.stmargaretce.greenwich.sch.uk,London,SE18 7RL,London,yes
100173,203,Greenwich,St Patrick's Catholic Primary School,http://www.lgfl.net/lgfl/leas/greenwich/schools/stpatricks/,London,SE18 7QG,London,yes
105135,203,Greenwich,St Paul's Academy,http://www.stpaulsacademy.org.uk/,London,SE2 9PX,London,yes
100175,203,Greenwich,St Peter's Catholic Primary School,https://www.stpeters.greenwich.sch.uk,London,SE18 7BN,London,yes
100177,203,Greenwich,St Thomas A Becket Roman Catholic Primary School,https://www.stthomasabecketsch.org.uk/,London,SE2 9LY,London,yes
141716,203,Greenwich,St Thomas More Catholic Comprehensive School,http://www.stmcomprehensive.org/,London,SE9 2SU,London,yes
100176,203,Greenwich,St Thomas More Catholic Primary School,https://www.stmprimary.org,London,SE9 6NS,London,yes
100193,203,Greenwich,St Ursula's Convent School,https://www.stursulas.com,London,SE10 8HN,London,yes
100190,203,Greenwich,Thomas Tallis School,https://www.thomastallisschool.com,London,SE3 9PX,London,yes
100146,203,Greenwich,Wyborne Primary School,https://www.wyborne.greenwich.sch.uk/,London,SE9 2EH,London,yes
