urn,district_code,district_name,school_name,website,town,postcode,region,has_email_collected
100321,205,Hammersmith and Fulham,Addison Primary School,https://www.addisonprimary.org/,London,W14 0DT,London,no
138680,205,Hammersmith and Fulham,Ark Bentworth Primary Academy,www.arkbentworth.org,London,W12 7AJ,London,no
131752,205,Hammersmith and Fulham,Ark Burlington Danes Academy,http://burlingtondanes.org/,London,W12 0HR,London,no
137331,205,Hammersmith and Fulham,Ark Conway Primary Academy,www.arkconway.org,London,W12 0QT,London,no
139820,205,Hammersmith and Fulham,Ark White City Primary Academy,www.arkwhitecity.org,London,W12 7PT,London,no
100322,205,Hammersmith and Fulham,Avonmore Primary School,https://www.avonmoreprimary.co.uk,London,W14 8SH,London,no
100382,205,Hammersmith and Fulham,Cambridge School,https://www.cambridge.lbhf.sch.uk,London,W12 0SP,London,no
140811,205,Hammersmith and Fulham,Earl's Court Free School Primary,www.wlfs-earlscourt.org,London,W6 0LB,London,no
100328,205,Hammersmith and Fulham,Flora Gardens Primary School,https://www.floragardens.lbhf.sch.uk,London,W6 7PZ,London,no
139364,205,Hammersmith and Fulham,Fulham Cross Academy,www.fulhamcrossacademy.co.uk/,London,SW6 6SN,London,no
139365,205,Hammersmith and Fulham,Fulham Cross Girls' School and Language College,http://www.fulhamcross.net/,London,SW6 6BP,London,no
143213,205,Hammersmith and Fulham,Fulham Primary School,https://www.fulhamprimaryschool.org.uk/,London,SW6 1JU,London,no
100354,205,Hammersmith and Fulham,Good Shepherd RC Primary School,https://www.goodshepherdrc.lbhf.sch.uk/,London,W12 9BY,London,no
141902,205,Hammersmith and Fulham,Greenside Primary School,www.greensideschool.org/,London,W12 9PT,London,no
136172,205,Hammersmith and Fulham,Hammersmith Academy,http://hammersmithacademy.org,London,W12 9JD,London,no
100345,205,Hammersmith and Fulham,Holy Cross RC School,http://www.holycrossfulham.org.uk/,London,SW6 4BL,London,no
100381,205,Hammersmith and Fulham,Jack Tizard School,https://www.jacktizard.lbhf.sch.uk,London,W12 7PA,London,no
138607,205,Hammersmith and Fulham,Lady Margaret School,http://www.ladymargaret.lbhf.sch.uk,London,SW6 4UN,London,no
141685,205,Hammersmith and Fulham,Langford Primary School,www.langfordprimary.org.uk,London,SW6 2LG,London,no
134009,205,Hammersmith and Fulham,Larmenier & Sacred Heart Catholic Primary School,www.larshrc.lbhf.sch.uk,London,W6 7BL,London,no
100326,205,Hammersmith and Fulham,Miles Coverdale Primary School,https://www.milescoverdaleprimary.co.uk/,London,W12 8JJ,London,no
134273,205,Hammersmith and Fulham,Normand Croft Community School for Early Years and Primary Education,www.normandcroftschool.co.uk/,London,W14 9PA,London,no
100335,205,Hammersmith and Fulham,Old Oak Primary School,https://www.oldoakprimary.co.uk/,London,W12 0AS,London,no
139509,205,Hammersmith and Fulham,Ormiston Bridge Academy,https://ormistonbridgeacademy.co.uk/,London,SW6 6HB,London,no
147793,205,Hammersmith and Fulham,Ormiston Queensmill Academy,https://oqma.co.uk,London,W12 0NW,London,no
143129,205,Hammersmith and Fulham,Phoenix Academy,www.phoenix.futureacademies.org,London,W12 0RQ,London,no
143212,205,Hammersmith and Fulham,Queen's Manor School and Special Needs Unit,https://www.queensmanorprimary.org.uk/,London,SW6 6ND,London,no
137935,205,Hammersmith and Fulham,Sacred Heart High School,www.sacredhearthigh.org.uk,London,W6 7DG,London,no
100338,205,Hammersmith and Fulham,Sir John Lillie Primary School,https://www.sirjohnlillieprimary.co.uk/,Fulham,SW6 7LN,London,no
150082,205,Hammersmith and Fulham,St Augustine's RC Primary School,www.staugustinesrc.lbhf.sch.uk,London,W6 8QE,London,no
149641,205,Hammersmith and Fulham,St John XXIII Catholic Primary School,www.stjohnxxiii.lbhf.sch.uk,London,W12 7QT,London,no
100350,205,Hammersmith and Fulham,St Mary's Catholic Primary School,https://www.stmarysrc.lbhf.sch.uk,London,W14 0LT,London,no
143214,205,Hammersmith and Fulham,Sulivan Primary School,www.sulivanprimaryschool.org.uk,London,SW6 3BN,London,no
141135,205,Hammersmith and Fulham,The Fulham Boys School,http://www.fulhamboysschool.org/,London,SW6 5BD,London,no
141617,205,Hammersmith and Fulham,The Hurlingham Academy,www.thehurlinghamacademy.org.uk,London,SW6 3ED,London,no
137157,205,Hammersmith and Fulham,The London Oratory School,http://www.london-oratory.org,London,SW6 1RX,London,no
142256,205,Hammersmith and Fulham,Thomas's Academy,https://www.academy.thomas-s.co.uk/,London,SW6 4LY,London,no
136750,205,Hammersmith and Fulham,West London Free School,http://www.wlfs.org/,London,W6 9LP,London,no
139546,205,Hammersmith and Fulham,West London Free School Primary,www.wlfs-primary.org/,London,W6 0LB,London,no
140201,205,Hammersmith and Fulham,Westside School,www.westsideschool.org.uk,London,W6 0LT,London,no
100344,205,Hammersmith and Fulham,All Saints CofE Primary School,https://www.allsaintsce.lbhf.sch.uk,London,SW6 6ED,London,yes
100318,205,Hammersmith and Fulham,Bayonne Nursery School,https://www.bayonne.lbhf.sch.uk,London,W6 8PF,London,yes
100324,205,Hammersmith and Fulham,Brackenbury Primary School,https://www.brackenbury.lbhf.sch.uk,London,W6 0BA,London,yes
100317,205,Hammersmith and Fulham,James Lee Nursery School,https://www.jameslee.lbhf.sch.uk,London,W14 9BH,London,yes
100346,205,Hammersmith and Fulham,John Betts Primary School,https://www.johnbetts.lbhf.sch.uk,London,W6 0UA,London,yes
100331,205,Hammersmith and Fulham,Kenmont Primary School,https://www.kenmont.lbhf.sch.uk,London,NW10 6AL,London,yes
100334,205,Hammersmith and Fulham,Melcombe Primary School,https://www.melcombe.lbhf.sch.uk,London,W6 9ER,London,yes
100315,205,Hammersmith and Fulham,Randolph Beresford Early Years Centre,https://www.randolphberesfordeyc.org.uk,London,W12 7PH,London,yes
100349,205,Hammersmith and Fulham,St John's Walham Green Church of England Primary School,https://www.stjohnsce.lbhf.sch.uk,London,SW6 6AS,London,yes
100351,205,Hammersmith and Fulham,St Paul's CofE Primary School,https://www.stpaulsprimary.org/,London,W6 9BP,London,yes
100352,205,Hammersmith and Fulham,St Peter's Primary School,https://www.stpetersce.lbhf.sch.uk/,London,W6 9BA,London,yes
100353,205,Hammersmith and Fulham,St Stephen's CofE Primary School,https://www.ststephensce.lbhf.sch.uk/,London,W12 8LH,London,yes
100357,205,Hammersmith and Fulham,St Thomas of Canterbury Catholic Primary School,https://www.stthomasrc.lbhf.sch.uk,London,SW6 7HB,London,yes
100316,205,Hammersmith and Fulham,Vanessa Nursery School,https://www.vanessanurseryschool.org.uk,London,W12 9JA,London,yes
100340,205,Hammersmith and Fulham,Wendell Park Primary School,https://www.wendellpark.lbhf.sch.uk,London,W12 9LB,London,yes
133545,205,Hammersmith and Fulham,William Morris Sixth Form,http://www.wmsf.ac.uk,London,W6 8RB,London,yes
100379,205,Hammersmith and Fulham,Woodlane High School,https://www.woodlane.lbhf.sch.uk,London,W12 0TN,London,yes
100341,205,Hammersmith and Fulham,Wormholt Park Primary School,http://www.wormholtparkprimary.co.uk/,London,W12 0SR,London,yes
