urn,district_code,district_name,school_name,website,town,postcode,region,has_email_collected
135389,208,Lambeth,Ark Evelyn Grace Academy,http://evelyngraceacademy.org/,London,SE24 0QN,London,no
100556,208,Lambeth,Ashmole Primary School,https://www.ashmoleprimaryschool.org.uk,London,SW8 1NT,London,no
131247,208,Lambeth,Bonneville Primary School,www.bonneville-primary.lambeth.sch.uk,London,SW4 9LB,London,no
145614,208,Lambeth,"Christ Church, Streatham Church of England Primary School",,London,SW2 3NF,London,no
137954,208,Lambeth,City Heights E-ACT Academy,https://cityheightsacademy.e-act.org.uk/,London,SW2 3PW,London,no
100560,208,Lambeth,Clapham Manor Primary School,https://www.claphammanor.lambeth.sch.uk,London,SW4 0BZ,London,no
137295,208,Lambeth,Corpus Christi Catholic Primary School,www.corpuschristischool.co.uk,London,SW2 5BL,London,no
137093,208,Lambeth,Dunraven School,http://www.dunraven.org.uk/,LONDON,SW16 2QB,London,no
100551,208,Lambeth,Effra Nursery School and Children's Centre,https://effra.lambeth.sch.uk/,London,SW2 1PL,London,no
100597,208,Lambeth,Elm Wood School,https://elmwoodprimary.co.uk,London,SE27 9RR,London,no
100552,208,Lambeth,Ethelred Nursery School and Children's Centre,https://www.ethelrednursery.org.uk,London,SE11 6BG,London,no
149450,208,Lambeth,Evolve Academy,https://evolveacademy.org.uk/,London,SE11 4AX,London,no
100595,208,Lambeth,Fenstanton Primary School,https://www.fenstantonprimary.co.uk/,London,SW2 3PW,London,no
100601,208,Lambeth,Glenbrook Primary School,https://www.glenbrookprimary.co.uk,London,SW4 8LD,London,no
100564,208,Lambeth,Granton Primary School,https://www.grantonprimary.org.uk/,London,SW16 5AN,London,no
147543,208,Lambeth,Harris Academy Clapham,www.harrisclapham.org.uk,London,SW4 8LD,London,no
148555,208,Lambeth,Harris Clapham Sixth Form,https://www.harrisclaphamsixthform.org.uk/,London,SW4 8DX,London,no
100566,208,Lambeth,Heathbrook Primary School,https://www.heathbrook.org/,London,SW8 3EH,London,no
100567,208,Lambeth,Henry Cavendish Primary School,http://www.henrycavendish.co.uk,London,SW12 0JA,London,no
131874,208,Lambeth,Henry Fawcett Primary School,www.henryfawcett.org.uk/,London,SE11 5BZ,London,no
149331,208,Lambeth,Heron Academy,,London,SE24 0HZ,London,no
131340,208,Lambeth,Hill Mead Primary School,www.hillmead.org,London,SW9 8UE,London,no
100554,208,Lambeth,Holmewood Nursery School,,London,SW2 2RW,London,no
100622,208,Lambeth,Holy Trinity Church of England Primary School,https://www.holytrinityceprimary.org.uk,London,SW2 2RL,London,no
135614,208,Lambeth,Iqra Primary School,www.iqra.lambeth.sch.uk/,London,SW4 9PA,London,no
100572,208,Lambeth,Jessop Primary School,https://www.jessop.lambeth.sch.uk/,London,SE24 0BJ,London,no
133662,208,Lambeth,Jubilee Primary School,www.jubilee.lambeth.sch.uk,London,SW2 2JE,London,no
140564,208,Lambeth,King's College London Maths School,www.kingsmathsschool.com,London,SE11 6NJ,London,no
133315,208,Lambeth,Kings Avenue School,www.kingsavenueschool.co.uk,London,SW4 8BQ,London,no
100574,208,Lambeth,Kingswood Primary School,https://www.ghf.london,London,SE27 9RD,London,no
100576,208,Lambeth,Larkhall Primary Campus,www.larkhallprimary.co.uk,London,SW4 6PH,London,no
100625,208,Lambeth,Lilian Baylis Technology School,http://www.lilianbaylis.com/,London,SE11 5QY,London,no
150889,208,Lambeth,"London Nautical, City of London Academy",https://www.lns.org.uk/,London,SE1 9NA,London,no
150830,208,Lambeth,Loughborough Primary School,www.loughboroughprimarylambeth.org.uk/,London,SW9 7UA,London,no
100553,208,Lambeth,Maytree Nursery School,https://www.maytree-nursery.lambeth.sch.uk,London,SW4 8EG,London,no
137430,208,Lambeth,Oasis Academy Johanna,www.oasisacademyjohanna.org/,London,SE1 7RH,London,no
139659,208,Lambeth,Oasis Academy South Bank,http://www.oasisacademysouthbank.org/,London,SE1 7HS,London,no
100577,208,Lambeth,Paxton Primary School,https://www.paxtonprimary.co.uk/,London,SE19 1PA,London,no
136450,208,Lambeth,Platanos College,http://www.platanoscollege.com/,London,SW9 0AL,London,no
100634,208,Lambeth,Reay Primary School,http://www.reay.lambeth.sch.uk/,LONDON,SW9 0EN,London,no
100578,208,Lambeth,Richard Atkins Primary School,https://www.richardatkins.org,London,SW2 4JP,London,no
144308,208,Lambeth,Rosendale Primary School,www.rosendale.cc/,London,SE21 8LR,London,no
100627,208,Lambeth,Saint Gabriel's College,http://www.saintgabrielscollege.org/,London,SW9 6UL,London,no
150380,208,Lambeth,South Bank University Sixth Form,http://www.sbusixth.ac.uk/,London,SW2 1QS,London,no
100628,208,Lambeth,St Bernadette Catholic Junior School,https://www.fedstbb.org.uk,London,SW12 0AB,London,no
100623,208,Lambeth,St Helen's Catholic Primary School,https://www.st-helens.lambeth.sch.uk/contact-us/,London,SW9 0TQ,London,no
100616,208,Lambeth,St Jude's Church of England Primary School,www.st-judes.lambeth.sch.uk/,London,SE24 0EL,London,no
145615,208,Lambeth,St Leonard's Church of England Primary School,http://www.st-leonards.lambeth.sch.uk/,London,SW16 6NP,London,no
145616,208,Lambeth,St Luke's Church of England Primary School,www.st-lukes-primary.lambeth.sch.uk,London,SE27 0DZ,London,no
100619,208,Lambeth,St Mark's Church of England Primary School,https://www.stmarkscofeprimarylambeth.co.uk,London,SE11 5SL,London,no
100636,208,Lambeth,St Mary's Roman Catholic Primary School,www.stmarys-lambeth.co.uk/,London,SW4 9QJ,London,no
100620,208,Lambeth,St Saviour's Church of England Primary School,https://www.stsaviourslambeth.co.uk,London,SE24 0AY,London,no
100621,208,Lambeth,St Stephen's Church of England Primary School,https://www.st-stephens.lambeth.sch.uk/,London,SW8 1EJ,London,no
149556,208,Lambeth,Streatham Wells Primary,www.streathamwells.lambeth.sch.uk,London,SW2 3NJ,London,no
144309,208,Lambeth,The Elmgreen School,http://www.the-elmgreen-school.org.uk/,London,SE27 9BZ,London,no
100624,208,Lambeth,The Norwood School,http://www.thenorwoodschool.org/,London,SE19 3NY,London,no
100550,208,Lambeth,Triangle Nursery School,https://www.trianglenursery.org,London,SW2 1PL,London,no
140966,208,Lambeth,Trinity Academy,https://www.trinity.futureacademies.org/,London,SW2 1QS,London,no
146368,208,Lambeth,Van Gogh Primary,www.vangoghprimary.org.uk,London,SW9 6HF,London,no
142928,208,Lambeth,Vanguard School,https://www.vanguardschool.org.uk/,London,SE11 6QH,London,no
100598,208,Lambeth,Allen Edwards Primary School,http://www.allenedwards.co.uk,London,SW4 6RP,London,yes
100609,208,Lambeth,Archbishop Sumner Church of England Primary School,https://www.archbishop-sumners-primary.lambeth.sch.uk,London,SE11 4PH,London,yes
100638,208,Lambeth,Bishop Thomas Grant Catholic Secondary School,http://www.btg.ac/,London,SW16 2HY,London,yes
100610,208,Lambeth,Christ Church Primary SW9,https://www.christchurchschool.cc,London,SW9 6HN,London,yes
100593,208,Lambeth,Crown Lane Primary School,https://www.crownlane.lambeth.sch.uk/,London,SW16 3HX,London,yes
100659,208,Lambeth,Elm Court School,https://www.elmcourt.lambeth.sch.uk,London,SW2 2EF,London,yes
100604,208,Lambeth,Herbert Morrison Primary School,https://www.herbertmorrisonprimaryschool.co.uk,London,SW8 2HP,London,yes
131824,208,Lambeth,Hitherfield Primary School,www.hitherfield.co.uk,London,SW16 2JQ,London,yes
100633,208,Lambeth,Immanuel and St Andrew Church of England Primary School,http://www.immanuelschoollambeth.org/,London,SW16 5SL,London,yes
100602,208,Lambeth,Julian's School,https://www.juliansprimary.org.uk/,London,SE27 0JF,London,yes
100637,208,Lambeth,La Retraite Roman Catholic Girls' School,https://laretraite.co.uk,London,SW12 0AB,London,yes
100654,208,Lambeth,Lansdowne School,https://www.lansdowneturneyfederation.co.uk/page/?title=Lansdowne+School&pid=26,London,SW9 9QD,London,yes
100612,208,Lambeth,Macaulay Church of England Primary School,http://www.macaulaycofeschool.co.uk,,SW4 0NU,London,yes
100632,208,Lambeth,St Andrew's Catholic Primary School,https://www.st-andrewsrc.lambeth.sch.uk/,London,SW16 2ET,London,yes
100613,208,Lambeth,St Andrew's Church of England Primary School,https://www.standrewsprimaryschoolstockwell.org,London,SW9 9DE,London,yes
100629,208,Lambeth,St Anne's Catholic Primary School,https://www.st-annes.lambeth.sch.uk/,London,SE11 5JA,London,yes
100631,208,Lambeth,St Bede's Catholic Infant School,https://www.st-bedes.lambeth.sch.uk,London,SW12 0LF,London,yes
100614,208,Lambeth,St John the Divine Church of England Primary School,https://www.sjtdprimary.org.uk,London,SE5 0SX,London,yes
100615,208,Lambeth,St John's Angell Town Church of England Primary School,https://www.st-johns.lambeth.sch.uk,London,SW9 7HH,London,yes
100582,208,Lambeth,Stockwell Primary School,http://www.stockwell-pri.lambeth.sch.uk,London,SW9 9TG,London,yes
100584,208,Lambeth,Sudbourne Primary School,http://www.sudbourne.com,London,SW2 5EF,London,yes
100585,208,Lambeth,Sunnyhill Primary School,https://www.sunnyhillprimary.com,London,SW16 2UW,London,yes
100586,208,Lambeth,Telferscot Primary School,http://www.telferscot.co.uk,London,SW12 0HW,London,yes
134815,208,Lambeth,The Elms Academy,www.theelmsacademy.org.uk,London,SW4 9ET,London,yes
133440,208,Lambeth,The Livity School,http://www.thelivityschool.co.uk,London,SW16 2PW,London,yes
134507,208,Lambeth,The Orchard School,www.orchardprimaryschool.com,London,SW2 3ES,London,yes
100643,208,Lambeth,Turney Primary and Secondary Special School,https://www.lansdowneturneyfederation.co.uk,London,SE21 8LX,London,yes
100588,208,Lambeth,Vauxhall Primary School,https://www.vauxhallprimary.org.uk/,London,SE11 5LG,London,yes
100589,208,Lambeth,Walnut Tree Walk Primary School,https://www.wtwschool.co.uk,London,SE11 6DS,London,yes
100590,208,Lambeth,Woodmansterne School,https://www.woodmansterne.london,London,SW16 5UQ,London,yes
100591,208,Lambeth,"Wyvil Primary School and Resource Bases for Speech, Language and Communication Needs, and Autism",https://www.wyvilschool.org.uk/,London,SW8 2TJ,London,yes
