urn,district_code,district_name,school_name,website,town,postcode,region,has_email_collected
130856,209,Lewisham,Abbey Manor College,www.abbeymanorcollege.com,London,SE12 8JP,London,no
100748,209,Lewisham,Addey and Stanhope School,http://www.as.lewisham.sch.uk,London,SE14 6TJ,London,no
100716,209,Lewisham,Ashmead Primary School,www.ashmeadprimary.wordpress.com/,London,SE8 4DX,London,no
150605,209,Lewisham,Bonus Pastor Catholic College,http://www.bonuspastor.co.uk/,Bromley,BR1 5PZ,London,no
100760,209,Lewisham,Brent Knoll School,https://www.brentknollschool.co.uk,London,SE23 2QU,London,no
100687,209,Lewisham,Brindishe Green School,https://www.brindisheschools.org,London,SE13 6EH,London,no
100717,209,Lewisham,Brindishe Lee School,https://www.brindisheschools.org/,London,SE12 8NA,London,no
100693,209,Lewisham,Brindishe Manor School,https://www.brindishemanor.lewisham.sch.uk,London,SE13 5LS,London,no
100668,209,Lewisham,Chelwood Nursery School,https://www.chelwood.lewisham.sch.uk,London,SE4 2QQ,London,no
146221,209,Lewisham,Childeric Primary School,www.childericprimary.co.uk,London,SE14 6DG,London,no
150691,209,Lewisham,Conisborough College,www.conisboroughcollege.co.uk,London,SE6 2SE,London,no
100676,209,Lewisham,Cooper's Lane Primary School,https://www.cooperslane.lewisham.sch.uk/,London,SE12 0LF,London,no
100677,209,Lewisham,Dalmain Primary School,http://www.dalmain.lewisham.sch.uk/,London,SE23 1AS,London,no
100678,209,Lewisham,Deptford Park Primary School,http://www.deptfordpark.lewisham.sch.uk,London,SE8 5RJ,London,no
136423,209,Lewisham,Drumbeat School and ASD Service,http://www.drumbeatasd.org/,London,BR1 5LE,London,no
100680,209,Lewisham,Edmund Waller Primary School,https://www.edmundwaller.lewisham.sch.uk/,London,SE14 5LY,London,no
100681,209,Lewisham,Elfrida Primary School,https://www.lewisham.gov.uk/,London,SE6 3EN,London,no
100711,209,Lewisham,Eliot Bank Primary School,https://www.eliotbank.lewisham.sch.uk/,London,SE26 4BU,London,no
100710,209,Lewisham,Fairlawn Primary School,https://www.fairlawn.lewisham.sch.uk,London,SE23 3SB,London,no
100745,209,Lewisham,Forest Hill School,http://www.foresthillschool.co.uk/,London,SE23 2XN,London,no
100684,209,Lewisham,Gordonbrock Primary School,http://www.gordonbrock.lewisham.sch.uk/,Brockley,SE4 1HQ,London,no
100765,209,Lewisham,Greenvale School,www.greenvaleschool.co.uk,London,SE6 1UF,London,no
135073,209,Lewisham,Haberdashers' Hatcham College,www.habshatcham.org.uk,London,SE14 5SF,London,no
139672,209,Lewisham,Haberdashers' Hatcham Free School,www.habshatchamfree.org.uk,London,SE14 5SF,London,no
147355,209,Lewisham,Haberdashers' Hatcham Primary,www.habshatchamprimary.org.uk,London,SE14 5RD,London,no
135070,209,Lewisham,Haberdashers' Knights Academy,https://www.habsknights.org.uk/,Bromley,BR1 5EB,London,no
147363,209,Lewisham,Haberdashers' Knights Primary,www.habsknightsprimary.org.uk,Bromley,BR1 5LW,London,no
100686,209,Lewisham,Haseltine Primary School,www.haseltineprimary.co.uk/,London,SE26 5AD,London,no
100688,209,Lewisham,Holbeach Primary School,https://www.holbeach.lewisham.sch.uk/,London,SE6 4TP,London,no
100739,209,Lewisham,Holy Cross Catholic Primary School,https://www.holycross.lewisham.sch.uk/,London,SE6 2LD,London,no
100714,209,Lewisham,Horniman Primary School,https://www.hornimanprimary.com,London,SE23 3BP,London,no
100709,209,Lewisham,John Ball Primary School,https://www.johnball.lewisham.sch.uk,London,SE3 0TP,London,no
100689,209,Lewisham,John Stainer Community Primary School,https://www.johnstainer.lewisham.sch.uk/,London,SE4 2DY,London,no
100690,209,Lewisham,Kelvin Grove Primary School,https://www.kelvingrove.lewisham.sch.uk/,London,SE26 6BB,London,no
100691,209,Lewisham,Kender Primary School,http://www.kender.lewisham.sch.uk/,London,SE14 5JA,London,no
100692,209,Lewisham,Launcelot Primary School and Nursery,https://www.launcelot.lewisham.sch.uk/,Bromley,BR1 5EA,London,no
100695,209,Lewisham,Lucas Vale Primary School,http://www.lucasvale.lewisham.sch.uk,London,SE8 4QB,London,no
100696,209,Lewisham,Marvels Lane Primary School,https://www.marvelslane.lewisham.sch.uk,London,SE12 9RA,London,no
100713,209,Lewisham,Myatt Garden Primary School,http://www.myattgarden.lewisham.sch.uk/,London,SE4 1DF,London,no
150552,209,Lewisham,Our Lady and St Philip Neri Catholic Primary School,www.olspn.lewisham.sch.uk,London,SE26 5SE,London,no
100715,209,Lewisham,Perrymount Primary School,https://www.perrymount.lewisham.sch.uk/,London,SE23 2PX,London,no
150318,209,Lewisham,Prendergast Ladywell School,http://www.prendergast-ladywell.com,Lewisham,SE4 1SA,London,no
150319,209,Lewisham,Prendergast School,http://www.prendergast-school.com/,London,SE4 1LE,London,no
150351,209,Lewisham,Prendergast Vale School,www.prendergast-vale.com,London,SE13 7BN,London,no
100699,209,Lewisham,Rangefield Primary School,http://www.rangefield.co.uk/,Bromley,BR1 4RP,London,no
100700,209,Lewisham,Rathfern Primary School,http://www.rathfern.lewisham.sch.uk,London,SE6 4NL,London,no
100701,209,Lewisham,Rushey Green Primary School,https://www.rusheygreen.lewisham.sch.uk/,London,SE6 2LA,London,no
100703,209,Lewisham,Sandhurst Primary School,https://www.sandhurstprimary.lewisham.sch.uk/,London,SE6 1NW,London,no
148003,209,Lewisham,Sedgehill Academy,www.sedgehillschool.co.uk,London,SE6 3QW,London,no
100725,209,Lewisham,St Augustine's Catholic Primary School and Nursery,http://www.staugustines.lewisham.sch.uk,London,SE6 3RD,London,no
145621,209,Lewisham,St George's CofE Primary School,www.stgeorges.lewisham.sch.uk/,London,SE23 2NE,London,no
151009,209,Lewisham,St James's Hatcham Church of England Primary School,www.st-jameshatcham.lewisham.sch.uk,London,SE14 6AD,London,no
135264,209,Lewisham,St Matthew Academy,,London,SE3 0XX,London,no
151010,209,Lewisham,St Michael's Church of England Primary School,www.stmichaels1871.org.uk,London,SE26 4HH,London,no
151011,209,Lewisham,St Stephen's CofE Primary School,www.ststephensce.co.uk/,London,SE8 4ED,London,no
142456,209,Lewisham,St Winifred's RC Primary School,http://www.swcps.lewisham.sch.uk,London,SE12 0SJ,London,no
100705,209,Lewisham,Stillness Infant School,https://www.stillness-inf.lewisham.sch.uk,London,SE23 1NH,London,no
100704,209,Lewisham,Stillness Junior School,https://www.stillnessjs.lewisham.sch.uk/,London,SE23 1NH,London,no
137441,209,Lewisham,Tidemill Academy,www.tidemillacademy.org,London,SE8 4RJ,London,no
100708,209,Lewisham,Torridon Primary School,https://www.torridonprimary.lewisham.sch.uk/,London,SE6 1TG,London,no
100749,209,Lewisham,"Trinity Church of England School, Lewisham",https://www.trinitylewisham.org,London,SE12 8PD,London,no
146100,209,Lewisham,Turnham Academy,https://turnhamacademy.org/,London,SE4 2HH,London,no
100712,209,Lewisham,Twin Oaks Primary School,https://www.twinoaks.lewisham.sch.uk,London,SE8 5AE,London,no
100766,209,Lewisham,Watergate School,http://www.watergate.lewisham.sch.uk/,London,SE6 3WG,London,no
100671,209,Lewisham,Adamsrill Primary School,https://www.adamsrill.lewisham.sch.uk,London,SE26 4AQ,London,yes
100719,209,Lewisham,All Saints' Church of England Primary School Blackheath,https://www.allsaints.lewisham.sch.uk/,London,SE3 0TX,London,yes
100672,209,Lewisham,Athelney Primary School,https://www.athelneyprimary.org.uk,London,SE6 3LD,London,yes
100673,209,Lewisham,Baring Primary School,https://www.baring.lewisham.sch.uk/,London,SE12 0NB,London,yes
100674,209,Lewisham,Beecroft Garden Primary,https://www.beecroftgarden.lewisham.sch.uk/,London,SE4 2BS,London,yes
100667,209,Lewisham,Clyde Nursery School.,http://www.clydenurseryschool.co.uk,London,SE8 5NH,London,yes
100740,209,Lewisham,Deptford Green School,http://www.deptfordgreen.lewisham.sch.uk/,London,SE14 6AN,London,yes
100679,209,Lewisham,Downderry Primary School,https://www.downderryprimaryschool.com,Bromley,BR1 5QL,London,yes
100683,209,Lewisham,Forster Park Primary School,https://www.forsterpark.co.uk/,Lewisham,SE6 1PQ,London,yes
100722,209,Lewisham,Good Shepherd RC School,http://www.goodshepherd.lewisham.sch.uk/,Bromley,BR1 5EP,London,yes
100685,209,Lewisham,Grinling Gibbons Primary School,http://www.ggibbons.lewisham.sch.uk,London,SE8 5LW,London,yes
100723,209,Lewisham,Holy Trinity Church of England Primary School,https://www.holytrinity.lewisham.sch.uk/,London,SE23 3HZ,London,yes
100718,209,Lewisham,Kilmorie Primary School,https://www.kilmorieschool.co.uk,London,SE23 2SP,London,yes
100763,209,Lewisham,New Woodlands School,https://www.newwoodlands.lewisham.sch.uk,Bromley,BR1 5PD,London,yes
100726,209,Lewisham,St Bartholomews's Church of England Primary School,https://www.st-bartholomews.lewisham.sch.uk/,London,SE26 4LJ,London,yes
100728,209,Lewisham,St John Baptist Southend Church of England Primary School,https://www.sjb.lewisham.sch.uk,Bromley,BR1 5RL,London,yes
100729,209,Lewisham,St Joseph's Catholic Primary School,https://www.stjps.lewisham.sch.uk/,London,SE8 3PH,London,yes
100724,209,Lewisham,St Margaret's Lee CofE Primary School,https://www.sml.london,London,SE13 5SG,London,yes
100730,209,Lewisham,St Mary's Lewisham Church of England Primary School,https://www.st-marys.lewisham.sch.uk/,London,SE13 6NX,London,yes
100733,209,Lewisham,St Saviour's Catholic Primary School,https://www.stsaviours.lewisham.sch.uk,London,SE13 6AL,London,yes
100737,209,Lewisham,St William of York Catholic Primary School,https://www.swoy.lewisham.sch.uk,London,SE23 1PS,London,yes
100741,209,Lewisham,Sydenham School,http://www.sydenham.lewisham.sch.uk/,London,SE26 4RD,London,yes
