urn,district_code,district_name,school_name,website,town,postcode,region,has_email_collected
100774,210,Southwark,Albion Primary School,https://www.albionprimaryschool.co.uk/,London,SE16 7JD,London,no
141666,210,Southwark,Angel Oak Academy,https://angeloakacademy.org/,London,SE15 6FL,London,no
139718,210,Southwark,Ark All Saints Academy,http://arkallsaintsacademy.org/,London,SE5 0UB,London,no
135584,210,Southwark,Ark Globe Academy,https://arkglobe.org/,London,SE1 6AG,London,no
145313,210,Southwark,Bacon's College,www.baconscollege.co.uk,London,SE16 6AT,London,no
100775,210,Southwark,Bellenden Primary School,www.bellenden.southwark.sch.uk/,London,SE15 4JP,London,no
100822,210,Southwark,Boutcher Church of England Primary School,https://www.boutcher.southwark.sch.uk/,London,SE1 3BW,London,no
148012,210,Southwark,Charles Dickens Primary School,www.charlesdickens.southwark.sch.uk/,London,SE1 1AF,London,no
100816,210,Southwark,Charlotte Sharman Primary School,http://www.charlottesharman.co.uk,London,SE11 4SN,London,no
134222,210,Southwark,City of London Academy (Southwark),http://www.cityacademy.co.uk/,London,SE1 5LA,London,no
100785,210,Southwark,Crawford Primary School,https://www.crawfordprimary.co.uk,London,SE5 9NF,London,no
149604,210,Southwark,Dog Kennel Hill School,www.dkh.org.uk/,London,SE22 8AB,London,no
136665,210,Southwark,Dulwich Hamlet Junior School,www.dulwichhamletjuniorschool.org.uk/,London,SE21 7AL,London,no
100769,210,Southwark,Dulwich Wood Nursery School,https://www.dulwichwood.com,London,SE21 8QS,London,no
100801,210,Southwark,Dulwich Wood Primary School,https://www.dulwichwood.com/,London,SE21 8NS,London,no
100855,210,Southwark,Friars Primary Foundation School,https://friarsprimaryschool.com/,London,SE1 0RF,London,no
142875,210,Southwark,"Galleywall Primary, City of London Academy",www.galleywall.co.uk,London,SE16 3PB,London,no
145130,210,Southwark,Goose Green Primary and Nursery School,goosegreenprimaryschool.org,London,SE22 8HG,London,no
147073,210,Southwark,Haberdashers' Borough Academy,www.habsborough.org.uk,London,SE1 0EX,London,no
131747,210,Southwark,Harris Academy Bermondsey,http://www.harrisbermondsey.org.uk/,London,SE16 3TZ,London,no
134225,210,Southwark,Harris Academy Peckham,http://www.harrispeckham.org.uk/,London,SE15 5DZ,London,no
132711,210,Southwark,Harris Girls' Academy East Dulwich,http://www.harrisdulwichgirls.org.uk/,London,SE22 0NR,London,no
140937,210,Southwark,Harris Primary Academy East Dulwich,www.harrisprimaryeastdulwich.org.uk,London,SE22 8HA,London,no
137413,210,Southwark,Harris Primary Academy Peckham Park,www.harrisprimarypeckhampark.org.uk,London,SE15 5TD,London,no
100872,210,Southwark,Highshore School,www.highshore.southwark.sch.uk,London,SE5 0TW,London,no
100794,210,Southwark,Hollydale Primary School,www.hollydale.southwark.sch.uk/,London,SE15 2AR,London,no
140507,210,Southwark,John Donne Primary School,www.jdacademy.org.uk,London,SE15 2SW,London,no
145888,210,Southwark,John Keats Primary School,www.jkacademy.org.uk,London,SE16 3FN,London,no
139907,210,Southwark,Judith Kerr Primary School,www.judithkerr.anthemtrust.uk,London,SE24 9JE,London,no
136309,210,Southwark,Kingsdale Foundation School,http://www.kingsdalefoundationschool.org.uk/,London,SE21 8SQ,London,no
100767,210,Southwark,Kintore Way Nursery School and Children's Centre,http://www.kintoreway.com/,London,SE1 3BW,London,no
148574,210,Southwark,Lyndhurst Primary School,https://lyndhurstprimaryschool.com/,London,SE5 8SN,London,no
100770,210,Southwark,Nell Gwynn Nursery School,http://nellgwynn.southwark.sch.uk/,London,SE15 2TT,London,no
140138,210,Southwark,Newlands Academy,www.newlandsacademy.org,London,SE15 3AZ,London,no
149369,210,Southwark,Notre Dame Catholic Girls' School,http://www.notredame.southwark.sch.uk/,London,SE1 6EX,London,no
100821,210,Southwark,Oliver Goldsmith Primary School,https://www.olivergoldsmith.southwark.sch.uk,London,SE5 8UH,London,no
100837,210,Southwark,Peter Hills with St Mary's and St Paul's CofE Primary School,https://www.peterhillsschool.co.uk,London,SE16 5ED,London,no
100817,210,Southwark,Phoenix Primary School,https://www.mayflowerfederation.org.uk,London,SE1 5JT,London,no
100818,210,Southwark,Pilgrims' Way Primary School,www.pilgrimsway.southwark.sch.uk,London,SE15 1EF,London,no
137648,210,Southwark,"Redriff Primary, City of London Academy",https://www.redriff.co.uk,London,SE16 5LQ,London,no
149605,210,Southwark,Rotherhithe Primary School,http://riverhillfederation.co.uk/,London,SE16 2PE,London,no
138960,210,Southwark,Sacred Heart Catholic School,www.sacredheart.southwark.sch.uk,London,SE5 0RP,London,no
140221,210,Southwark,South Bank University Academy,www.southbankua.org.uk,London,SE17 2TP,London,no
135260,210,Southwark,Southwark Inclusive Learning Service (Sils),www.silsschools.org,London,SE15 6LF,London,no
143745,210,Southwark,Spa School Camberwell,www.spa-education.org,London,SE5 7EW,London,no
146190,210,Southwark,"Spa School, Bermondsey",www.spa-education.org,London,SE1 5RN,London,no
150551,210,Southwark,St Anthony's Catholic Primary School,www.stanthonysprimary.co.uk/,London,SE22 0LA,London,no
151500,210,Southwark,St George's Cathedral Catholic Primary School,www.stgcs.southwark.sch.uk,London,SE1 6HR,London,no
100841,210,Southwark,St John's Roman Catholic Primary School,https://www.stjohnsrotherhithe.co.uk/,London,SE16 6SD,London,no
100854,210,Southwark,St Joseph's Catholic Infants School,https://www.stjosephs.southwark.sch.uk/,London,SE5 0TS,London,no
100853,210,Southwark,St Joseph's Catholic Junior School,http://www.stjosephs.southwark.sch.uk,London,SE5 0TS,London,no
149346,210,Southwark,St Joseph's Catholic Primary School,http://stjosephsgeorgerow.org/,London,SE16 4UP,London,no
151012,210,Southwark,St Joseph's Catholic Primary School,www.stjosephsprimary.org.uk,London,SE16 2TY,London,no
100836,210,Southwark,St Mary Magdalene Church of England Primary School,www.smmprimary.co.uk,London,SE15 3RA,London,no
150937,210,Southwark,St Michael's Catholic College,https://www.stmichaelscollege.org.uk/,London,SE16 4UN,London,no
146669,210,Southwark,St Paul's Church of England Primary School,http://st-paulsprimaryschool.co.uk/,London,SE17 3DT,London,no
100839,210,Southwark,St Peter's Church of England Primary School,https://www.stpeterswalworth.co.uk,London,SE17 2HH,London,no
100849,210,Southwark,St Saviour's and St Olave's Church of England School,https://www.ssso.southwark.sch.uk,London,SE1 4AN,London,no
146117,210,Southwark,Surrey Square Primary School,www.surreysquareprimary.co.uk/,London,SE17 2JY,London,no
142090,210,Southwark,The Belham Primary School,www.thebelhamprimaryschool.org.uk,London,SE15 4DG,London,no
100840,210,Southwark,The Cathedral School of St Saviour and St Mary Overie,http://www.cathedralprimaryschool.com,LONDON,SE1 1HG,London,no
139587,210,Southwark,The Charter School Bermondsey,http://www.charterbermondsey.org.uk,London,SE16 4EE,London,no
142178,210,Southwark,The Charter School East Dulwich,www.chartereastdulwich.org.uk,London,SE22 8RB,London,no
136298,210,Southwark,The Charter School North Dulwich,www.charternorthdulwich.org.uk,London,SE24 9JH,London,no
100771,210,Southwark,The Grove Nursery School,,London,SE15 6BY,London,no
100857,210,Southwark,The St Thomas the Apostle College,http://www.stac.uk.com/,London,SE15 2EB,London,no
100815,210,Southwark,Victory Primary School,https://www.victory.southwark.sch.uk/,London,SE17 1PT,London,no
100819,210,Southwark,Alfred Salter Primary School,https://www.alfredsalter.com,London,SE16 7LP,London,yes
135315,210,Southwark,Ark Walworth Academy,http://walworthacademy.org/,London,SE1 5UJ,London,yes
100879,210,Southwark,Beormund Primary School,https://www.beormundschool.co.uk,London,SE1 3PS,London,yes
130918,210,Southwark,Bessemer Grange Primary School,www.thegemfederation.co.uk/bessemer-primary,London,SE5 8HP,London,yes
100780,210,Southwark,Bird In Bush School,https://www.birdinbushprimary.co.uk/,Peckham,SE15 1QP,London,yes
131843,210,Southwark,Brunswick Park Primary School,www.brunswickparkprimary.co.uk/,London,SE5 7QH,London,yes
100881,210,Southwark,Cherry Garden School,https://www.cherrygardenschool.co.uk/,London,SE15 5BB,London,yes
100784,210,Southwark,Crampton Primary,https://www.cramptonprimary.co.uk/,London,SE17 3LE,London,yes
100823,210,Southwark,Dulwich Village Church of England Infants' School,https://www.dulwichvillageinfants.co.uk,London,SE21 7BU,London,yes
100824,210,Southwark,English Martyrs' Roman Catholic Primary School,https://www.englishmartyrsprimary.school,London,SE17 1RB,London,yes
100875,210,Southwark,Evelina Hospital School,https://www.evelina.southwark.sch.uk,London,SE1 7EH,London,yes
100790,210,Southwark,Goodrich Community Primary School,https://www.goodrich.org.uk/,London,SE22 0EP,London,yes
100791,210,Southwark,Grange Primary School,https://www.grange.southwark.sch.uk,London,SE1 4RP,London,yes
135816,210,Southwark,Harris Boys' Academy East Dulwich,http://www.harrisdulwichboys.org.uk/,London,SE22 0AT,London,yes
100878,210,Southwark,Haymerle School,https://www.haymerle.southwark.sch.uk,London,SE15 6SY,London,yes
100793,210,Southwark,Heber Primary School,https://www.heberprimaryschool.com/,London,SE22 9LA,London,yes
100795,210,Southwark,Ilderton Primary School,https://www.mayflowerfederation.org.uk/,London,SE16 3LA,London,yes
100796,210,Southwark,Ivydale Primary School,https://www.ivydaleschool.co.uk,London,SE15 3BU,London,yes
100798,210,Southwark,John Ruskin Primary School and Language Classes,https://www.johnruskin.southwark.sch.uk,London,SE5 0PQ,London,yes
100800,210,Southwark,Keyworth Primary School,https://www.thegemfederation.co.uk/keyworth-primary,London,SE17 3TR,London,yes
100876,210,Southwark,Maudsley and Bethlem Hospital School,https://maudsley-bethlemhospital.southwark.sch.uk/,London,SE5 8AZ,London,yes
100803,210,Southwark,Michael Faraday School,https://www.michaelfaradayschool.co.uk/,London,SE17 2HR,London,yes
100808,210,Southwark,Riverside Primary School,https://www.riverside.southwark.sch.uk/,London,SE16 4PS,London,yes
100809,210,Southwark,Robert Browning Primary School,https://www.thebridgesfederation.org.uk,London,SE17 1DQ,London,yes
134903,210,Southwark,Rye Oak Primary School,www.ryeoak.southwark.sch.uk/,London,SE15 3PD,London,yes
100834,210,Southwark,"Saint Joseph's Catholic Primary School, the Borough",https://www.saintjosephsborough.co.uk,London,SE1 1NJ,London,yes
100811,210,Southwark,Snowsfields Primary School,https://www.thebridgesfederation.org.uk,London,SE1 3TD,London,yes
100812,210,Southwark,Southwark Park Primary School,https://www.southwarkparkschool.co.uk,London,SE16 2JH,London,yes
100826,210,Southwark,St Francis RC Primary School,https://www.stfrancispeckham.co.uk,London,SE15 1RQ,London,yes
100827,210,Southwark,St George's Church of England Primary School,https://www.stgeorgesprimary.school,London,SE5 7TF,London,yes
100825,210,Southwark,St James the Great Roman Catholic Primary School,https://www.stjamesthegreat.southwark.sch.uk,London,SE15 5LP,London,yes
100829,210,Southwark,St James' Church of England Primary School,https://www.stjamesschoolbermondsey.com,London,SE16 4SU,London,yes
100830,210,Southwark,St John's and St Clement's Church of England Primary School,https://www.stjohnsandstclements.org,London,SE15 4DY,London,yes
100835,210,Southwark,St Jude's Church of England Primary School,http://www.stjudessouthwark.co.uk,London,SE1 6HA,London,yes
100813,210,Southwark,Tower Bridge Primary School,https://www.thebridgesfederation.org.uk,London,SE1 2AE,London,yes
100880,210,Southwark,Tuke School,http://www.tukeschool.co.uk/,London,SE15 6ER,London,yes
