urn,district_code,district_name,school_name,website,town,postcode,region,has_email_collected
100887,211,Tower Hamlets,Alice Model Nursery School,,London,E1 4NQ,London,no
130352,211,Tower Hamlets,Arnhem Wharf Primary School,www.arnhemwharfprimaryschool.com/,London,E14 3RP,London,no
100989,211,Tower Hamlets,Beatrice Tate School,www.beatricetate.towerhamlets.sch.uk,London,E3 4PX,London,no
100939,211,Tower Hamlets,Bigland Green Primary School,https://www.biglandgreen.towerhamlets.sch.uk/,London,E1 2ND,London,no
150606,211,Tower Hamlets,Bishop Challoner Catholic School,www.bishopchallonerfederation.towerhamlets.sch.uk,London,E1 0LB,London,no
100895,211,Tower Hamlets,Blue Gate Fields Junior School,https://www.bluegatefields-jun.towerhamlets.sch.uk/,London,E1 0EH,London,no
100986,211,Tower Hamlets,Bowden House School,https://bowdenhouse.school,Seaford,BN25 2JB,London,no
144236,211,Tower Hamlets,Bygrove Primary School,www.bygrove.towerhamlets.sch.uk/,London,E14 6DN,London,no
142879,211,Tower Hamlets,Canary Wharf College Crossharbour,www.canarywharfcollege.co.uk,London,E14 9GL,London,no
137016,211,Tower Hamlets,"Canary Wharf College, East Ferry",www.canarywharfcollege.co.uk/,London,E14 3BA,London,no
141039,211,Tower Hamlets,"Canary Wharf College, Glenworth",www.canarywharfcollege.co.uk/,London,E14 3EB,London,no
100975,211,Tower Hamlets,Central Foundation Girls' School,http://www.central.towerhamlets.sch.uk/,London,E3 2AE,London,no
100884,211,Tower Hamlets,Columbia Market Nursery School,https://www.columbiamarket.towerhamlets.sch.uk,London,E2 7PG,London,no
150662,211,Tower Hamlets,Columbia Primary School,www.columbiaprimaryschool.org,London,E2 7RG,London,no
140064,211,Tower Hamlets,Culloden Primary - A Paradigm Academy,http://cullodenacademy.paradigmtrust.org/,London,E14 0PT,London,no
148681,211,Tower Hamlets,Cyril Jackson Primary School,www.cyriljackson.towerhamlets.sch.uk/,London,E14 8AQ,London,no
141095,211,Tower Hamlets,East London Arts & Music,http://elam.co.uk/,London,E3 3TA,London,no
100908,211,Tower Hamlets,Elizabeth Selby Infants' School,www.elizabethselbyschool.co.uk,London,E2 6PP,London,no
151013,211,Tower Hamlets,Hermitage Primary School,www.hermitage.towerhamlets.sch.uk/,London,E1W 2PT,London,no
143630,211,Tower Hamlets,Ian Mikardo School,https://www.beckmeadtrust.org/ianmikardo,London,E3 3LF,London,no
100966,211,Tower Hamlets,Langdon Park Community School,http://www.langdonparkschool.co.uk/,London,E14 0RZ,London,no
133574,211,Tower Hamlets,Lansbury Lawrence Primary School,www.lansburylawrence.towerhamlets.sch.uk,London,E14 6DZ,London,no
100889,211,Tower Hamlets,London East Alternative Provision,http://www.londoneastap.org.uk,London,E1 4EE,London,no
141133,211,Tower Hamlets,London Enterprise Academy,http://www.londonenterpriseacademy.org/,London,E1 1RD,London,no
134160,211,Tower Hamlets,Malmesbury Primary School,www.malmesbury.towerhamlets.sch.uk/,London,E3 2AB,London,no
143716,211,Tower Hamlets,Mulberry Academy London Dock,https://www.mulberrylondondock.org/,London,E1W 2AD,London,no
137789,211,Tower Hamlets,Mulberry Academy Shoreditch,www.mulberryacademyshoreditch.org,London,E2 6NW,London,no
148769,211,Tower Hamlets,Mulberry Canon Barnett Primary Academy,www.canonbarnett.towerhamlets.sch.uk,London,E1 7RQ,London,no
143629,211,Tower Hamlets,Mulberry School for Girls,http://www.mulberryschoolforgirls.org/,London,E1 2JP,London,no
144700,211,Tower Hamlets,Mulberry Stepney Green Mathematics and Computing College,https://www.mulberrystepneygreen.org/,London,E1 4SD,London,no
144756,211,Tower Hamlets,Mulberry UTC,www.mulberryutc.org,London,E3 2RU,London,no
149084,211,Tower Hamlets,Mulberry Wood Wharf Primary School,https://www.mulberrywoodwharf.org/,London,E14 9ZR,London,no
140096,211,Tower Hamlets,Old Ford Primary - A Paradigm Academy,www.oldfordacademy.paradigmtrust.org,London,E3 5LD,London,no
100892,211,Tower Hamlets,Old Palace Primary School,http://www.oldpalaceprimary.co.uk,London,E3 3BT,London,no
139423,211,Tower Hamlets,Our Lady and St Joseph Catholic Primary School,http://www.olsj.towerhamlets.sch.uk/,London,E14 0DE,London,no
100987,211,Tower Hamlets,Phoenix School,https://www.phoenix.towerhamlets.sch.uk,London,E3 2AD,London,no
100886,211,Tower Hamlets,Rachel Keeling Nursery School,https://www.rachelkeeling.towerhamlets.sch.uk,London,E2 0PS,London,no
100931,211,Tower Hamlets,Seven Mills Primary School,https://www.sevenmills.towerhamlets.sch.uk/,London,E14 8LY,London,no
137682,211,Tower Hamlets,Sir William Burrough Primary School,https://sirwilliamburrough.info/,London,E14 7PQ,London,no
138276,211,Tower Hamlets,Solebay Primary - A Paradigm Academy,www.solebayacademy.paradigmtrust.org/,London,E1 4PW,London,no
150554,211,Tower Hamlets,St Anne's and Guardian Angels Catholic Primary School,www.stannesgaprimary.com,London,E1 5AW,London,no
133288,211,Tower Hamlets,St Elizabeth Catholic Primary School,www.st-elizabeth.uk,London,E2 9JY,London,no
131936,211,Tower Hamlets,St Mary and St Michael Primary School,https://st-marymichael.towerhamlets.sch.uk/,London,E1 0BD,London,no
143379,211,Tower Hamlets,St Paul's Way Trust School,www.spwt.net,London,E3 4FT,London,no
144235,211,Tower Hamlets,Stebon Primary School,http://www.stebon.org.uk,London,E14 7AD,London,no
131023,211,Tower Hamlets,Stephen Hawking School,www.stephenhawking.towerhamlets.sch.uk,London,E14 7LL,London,no
100977,211,Tower Hamlets,Stepney All Saints Church of England Secondary School,https://www.stepneyallsaints.school,London,E1 0RH,London,no
100917,211,Tower Hamlets,Stepney Park Primary School,https://www.stepneypark.towerhamlets.sch.uk,London,E1 3BW,London,no
144699,211,Tower Hamlets,The Clara Grant Primary School,www.claragrant.towerhamlets.sch.uk/,London,E3 4BU,London,no
100926,211,Tower Hamlets,Virginia Primary School,https://www.virginia.towerhamlets.sch.uk,London,E2 7NQ,London,no
138202,211,Tower Hamlets,Wapping High School,www.wappinghigh.org,London,E1 2DA,London,no
100937,211,Tower Hamlets,Bangabandhu Primary School,https://www.bangabandhu.towerhamlets.sch.uk,London,E2 0LB,London,yes
100890,211,Tower Hamlets,Ben Jonson Primary School,https://www.benjonson.towerhamlets.sch.uk,London,E1 4PZ,London,yes
100915,211,Tower Hamlets,Blue Gate Fields Infants' School,https://www.bluegatefieldsinfant.co.uk/,London,E1 0EH,London,yes
100891,211,Tower Hamlets,Bonner Primary School,https://www.bonner.towerhamlets.sch.uk/,London,E2 0NF,London,yes
100965,211,Tower Hamlets,Bow School,http://www.bow-school.org.uk,London,E3 3QW,London,yes
100894,211,Tower Hamlets,Cayley Primary School,https://www.cayley.towerhamlets.sch.uk/,London,E14 7NG,London,yes
100882,211,Tower Hamlets,Childrens House Nursery School,https://www.childrenshouse.towerhamlets.sch.uk,London,E3 3HL,London,yes
100896,211,Tower Hamlets,Chisenhale Primary School,https://www.chisenhale.towerhamlets.sch.uk/,London,E3 5QY,London,yes
100944,211,Tower Hamlets,Christ Church CofE School,https://www.christchurchprimarybricklane.org,London,E1 6PU,London,yes
100898,211,Tower Hamlets,Cubitt Town Primary School,https://www.ctpschool.org/,London,E14 3NE,London,yes
100962,211,Tower Hamlets,English Martyrs Roman Catholic Primary School,https://www.englishmartyrs.towerhamlets.sch.uk,London,E1 8DJ,London,yes
100974,211,Tower Hamlets,George Green's School,http://www.georgegreens.com/,London,E14 3DW,London,yes
100902,211,Tower Hamlets,Globe Primary School,https://www.globeschool.org.uk,London,E2 0JH,London,yes
100903,211,Tower Hamlets,Hague Primary School,https://shhfederation.org,London,E2 0BP,London,yes
100938,211,Tower Hamlets,Halley Primary School,https://www.halley.towerhamlets.sch.uk/,London,E14 7SS,London,yes
100904,211,Tower Hamlets,Harbinger Primary School,https://www.harbinger.org.uk,London,E14 3QP,London,yes
131737,211,Tower Hamlets,Harry Gosling Primary School,www.harrygoslingprimary.co.uk,London,E1 1NT,London,yes
100906,211,Tower Hamlets,John Scurr Primary School,https://www.johnscurr.towerhamlets.sch.uk,London,E1 4AX,London,yes
100940,211,Tower Hamlets,Kobi Nazrul Primary School,https://www.kobinazrul.towerhamlets.sch.uk,London,E1 1JP,London,yes
100907,211,Tower Hamlets,Lawdale Junior School,https://lawdalejuniorschool.co.uk/,London,E2 6LS,London,yes
100920,211,Tower Hamlets,Manorfield Primary School,https://www.manorfield.towerhamlets.sch.uk/,London,E14 6QD,London,yes
100911,211,Tower Hamlets,Marion Richardson Primary School,https://www.marionrichardson.towerhamlets.sch.uk/,London,E1 0QF,London,yes
100912,211,Tower Hamlets,Marner Primary School,http://www.marnerprimary.com,London,E3 3LL,London,yes
100913,211,Tower Hamlets,Mayflower Primary School,https://www.mayflower.towerhamlets.sch.uk/,London,E14 6DU,London,yes
100967,211,Tower Hamlets,Morpeth School,http://www.morpethschool.org.uk/,London,E2 0PX,London,yes
100914,211,Tower Hamlets,Mowlem Primary School,https://www.mowlem.towerhamlets.sch.uk,London,E2 9HE,London,yes
100972,211,Tower Hamlets,Oaklands School,http://oaklands.towerhamlets.sch.uk/,London,E2 6PR,London,yes
100916,211,Tower Hamlets,Olga Primary School,https://www.olga.towerhamlets.sch.uk/,London,E3 5DN,London,yes
100934,211,Tower Hamlets,Osmani Primary School,https://www.osmani.towerhamlets.sch.uk/,London,E1 5AD,London,yes
100949,211,Tower Hamlets,St Agnes RC Primary School,https://www.st-agnes.towerhamlets.sch.uk/,London,E3 3ER,London,yes
100951,211,Tower Hamlets,St Edmund's Catholic School,https://www.st-edmunds-school.org,London,E14 3RS,London,yes
100953,211,Tower Hamlets,St John's Church of England Primary School,http://www.st-johns.towerhamlets.sch.uk/,London,E2 9LR,London,yes
100954,211,Tower Hamlets,St Luke's Church of England Primary School,https://www.st-lukes.towerhamlets.sch.uk/,London,E14 3EB,London,yes
100958,211,Tower Hamlets,St Paul With St Luke CofE Primary Federation,https://www.spsl.towerhamlets.sch.uk/,London,E3 4LA,London,yes
100959,211,Tower Hamlets,St Paul's Whitechapel Church of England Primary School,https://www.st-pauls.towerhamlets.sch.uk/,London,E1 8HY,London,yes
100960,211,Tower Hamlets,St Peter's London Docks CofE Primary School,https://www.splds.org.uk,London,E1W 3QT,London,yes
100961,211,Tower Hamlets,St Saviour's Church of England Primary School,https://www.stsavioursschool.org.uk,London,E14 6BB,London,yes
100946,211,Tower Hamlets,Stepney Greencoat Church of England Primary School,https://www.stepneygreencoat.towerhamlets.sch.uk/,London,E14 7TF,London,yes
100923,211,Tower Hamlets,Stewart Headlam Primary School,https://shhfederation.org,London,E1 5RE,London,yes
100973,211,Tower Hamlets,Swanlea School,https://www.swanlea.co.uk,London,E1 5DJ,London,yes
100930,211,Tower Hamlets,Thomas Buxton Primary School,https://www.thomasbuxton.towerhamlets.sch.uk,London,E1 5AR,London,yes
100927,211,Tower Hamlets,Wellington Primary School,https://www.wellington.towerhamlets.sch.uk,London,E3 4NE,London,yes
100943,211,Tower Hamlets,William Davis Primary School,https://www.williamdavis.org.uk/,London,E2 6ET,London,yes
100928,211,Tower Hamlets,Woolmore Primary School,https://www.woolmore.towerhamlets.sch.uk/,London,E14 0EW,London,yes
