urn,district_code,district_name,school_name,website,town,postcode,region,has_email_collected
146214,212,Wandsworth,ARK John Archer Primary Academy,www.arkjohnarcher.org,London,SW11 2AA,London,no
101032,212,Wandsworth,Albemarle Primary School,https://www.albemarle.wandsworth.sch.uk,London,SW19 6JP,London,no
143739,212,Wandsworth,Anglo Portuguese School of London,https://angloportugueseschool.org/en/,London,SW18 4QG,London,no
138267,212,Wandsworth,Ark Bolingbroke Academy,http://arkbolingbrokeacademy.org/,London,SW11 6BF,London,no
138681,212,Wandsworth,Ark Putney Academy,http://arkputney.org/,London,SW15 3DG,London,no
100990,212,Wandsworth,Balham Nursery School,https://www.balham-nursery.wandsworth.sch.uk,London,SW12 8JL,London,no
137563,212,Wandsworth,Belleville Primary School,www.belleville-school.org.uk/,London,SW11 6PR,London,no
144621,212,Wandsworth,Belleville Wix Academy,www.bellevillewix.org.uk,London,SW4 0AJ,London,no
139842,212,Wandsworth,Burntwood School,http://www.burntwoodschool.com/,London,SW17 0AQ,London,no
145280,212,Wandsworth,Chesterton Primary School,www.chesterton.wandsworth.sch.uk/,London,SW11 5DT,London,no
136883,212,Wandsworth,Chestnut Grove Academy,https://www.chestnutgrove.org.uk/,London,SW12 8JZ,London,no
100991,212,Wandsworth,Eastwood Nursery School,https://www.eastwood.wandsworth.sch.uk,London,SW15 4EU,London,no
149543,212,Wandsworth,Ernest Bevin Academy,http://www.ernestbevinacademy.org.uk,London,SW17 7DF,London,no
140423,212,Wandsworth,Floreat Wandsworth Primary School,www.floreatwandsworth.org.uk,London,SW18 4EQ,London,no
100994,212,Wandsworth,Francis Barber Pupil Referral Unit,,London,SW17 0EA,London,no
146191,212,Wandsworth,Franciscan Primary School,www.franciscan.wandsworth.sch.uk,London,SW17 8HQ,London,no
101009,212,Wandsworth,Furzedown Primary School,https://www.furzedownschool.co.uk,London,SW17 9TJ,London,no
146549,212,Wandsworth,Goldfinch Primary School,https://www.goldfinchprimary.org.uk/,London,SW16 6DS,London,no
137005,212,Wandsworth,Graveney School,http://www.graveney.org/,London,SW17 9BU,London,no
101099,212,Wandsworth,Greenmead School,https://www.greenmead.wandsworth.sch.uk,London,SW19 6RY,London,no
145060,212,Wandsworth,Griffin Primary School,www.griffinprimary.co.uk,London,SW8 4JB,London,no
140985,212,Wandsworth,Harris Academy Battersea,http://www.harrisbattersea.org.uk/,London,SW11 5AP,London,no
145709,212,Wandsworth,Linden Lodge School,www.lindenlodge.wandsworth.sch.uk,London,SW19 6JB,London,no
139687,212,Wandsworth,Mosaic Jewish Primary School,www.mjps.org.uk/,London,SW15 4EU,London,no
143175,212,Wandsworth,Nightingale Community Academy,www.nightingaleca.org,London,SW17 7DF,London,no
140222,212,Wandsworth,Oasis Academy Putney,www.oasisacademyputney.org,London,SW15 1LY,London,no
101102,212,Wandsworth,Paddock School,paddock.wandsworth.sch.uk,London,SW15 5RT,London,no
147327,212,Wandsworth,Ravenstone Primary School,www.ravenstoneschool.co.uk/,London,SW12 9SS,London,no
101018,212,Wandsworth,Riversdale Primary School,https://www.riversdaleprimaryschool.org.uk,London,SW18 5JP,London,no
139775,212,Wandsworth,Rutherford House School,www.rutherfordhouseschool.co.uk/,London,SW17 7BS,London,no
131520,212,Wandsworth,"Sacred Heart Catholic Primary School, Battersea",www.sacredheartschoolbattersea.co.uk/,London,SW11 2TD,London,no
141808,212,Wandsworth,Saint Cecilia's Church of England School,www.saintcecilias.london,London,SW18 5JR,London,no
101026,212,Wandsworth,Sheringdale Primary School,http://www.sheringdale.org/,London,SW18 5TR,London,no
100992,212,Wandsworth,Somerset Nursery School and Children's Centre,www.somerset.wandsworth.sch.uk,London,SW11 3ND,London,no
138682,212,Wandsworth,Southfields Academy,http://www.southfieldsacademy.com/,London,SW18 5JU,London,no
101041,212,Wandsworth,St Anne's CofE Primary School,www.st-annes.wandsworth.sch.uk,London,SW18 2RU,London,no
101042,212,Wandsworth,St Boniface RC Primary School,https://www.stboniface.wandsworth.sch.uk/,London,SW17 8PP,London,no
101043,212,Wandsworth,St Faith's CofE Primary School,https://www.stfaiths.wandsworth.sch.uk,London,SW18 1AE,London,no
101044,212,Wandsworth,St George's CofE Primary School,https://www.st-georges.wandsworth.sch.uk,London,SW8 4JS,London,no
101045,212,Wandsworth,St Joseph's Catholic Primary and Nursery School,https://www.stjosephs.wandsworth.sch.uk,London,SW15 2QD,London,no
101046,212,Wandsworth,St Mary's CofE Primary School,https://www.stmarysschoolputney.co.uk/,London,SW15 1BA,London,no
101048,212,Wandsworth,St Mary's RC Voluntary Aided Primary School,https://www.stmarysschoolbattersea.co.uk,London,SW8 4EN,London,no
145030,212,Wandsworth,The Alton School,www.thealton-q1e.org.uk,London,SW15 4PD,London,no
139592,212,Wandsworth,Tooting Primary School,www.tootingprimary.org.uk,London,SW17 8HE,London,no
101047,212,Wandsworth,Trinity St Mary's CofE Primary School,https://www.tsm.wandsworth.sch.uk,London,SW12 8DR,London,no
132077,212,Wandsworth,Victoria Drive Primary Pupil Referral Unit,https://www.victoriapru.wandsworth.sch.uk/,London,SW19 6HR,London,no
108892,212,Wandsworth,Wandsworth Hospital and Home Tuition Service,www.hhts.wandsworth.sch.uk,London,SW17 0YG,London,no
140682,212,Wandsworth,Westbridge Academy,https://westbridgestepacademy.org/,London,SW11 3NE,London,no
100995,212,Wandsworth,Alderbrook Primary School,https://www.alderbrookprimaryschool.co.uk,London,SW12 8PP,London,yes
101034,212,Wandsworth,"All Saints' CofE Primary School, Putney",https://www.allsaintsputney.org.uk,London,SW15 1HL,London,yes
100996,212,Wandsworth,Allfarthing Primary School,https://www.allfarthing.org.uk,London,SW18 2LR,London,yes
135316,212,Wandsworth,Ashcroft Technology Academy,http://www.atacademy.org.uk/,London,SW15 2UT,London,yes
100997,212,Wandsworth,Beatrix Potter Primary School,https://www.beatrixpotterschool.com,London,SW18 3ER,London,yes
101095,212,Wandsworth,Bradstow School,http://www.bradstow.wandsworth.sch.uk,Broadstairs,CT10 1BY,London,yes
101001,212,Wandsworth,Brandlehow Primary School,https://www.brandlehowschool.org.uk,London,SW15 2ED,London,yes
101005,212,Wandsworth,Earlsfield Primary School,https://www.earlsfield.wandsworth.sch.uk,London,SW18 3QQ,London,yes
101006,212,Wandsworth,Falconbrook Primary School,https://www.falconbrook.wandsworth.sch.uk/,London,SW11 2LX,London,yes
101007,212,Wandsworth,Fircroft Primary School,https://www.fircroft.family,London,SW17 7PP,London,yes
101103,212,Wandsworth,Garratt Park School,http://www.garrattpark.wandsworth.sch.uk/,London,SW18 3TB,London,yes
134041,212,Wandsworth,Gatton (VA) Primary School,www.gatton.wandsworth.sch.uk,London,SW17 0DS,London,yes
101028,212,Wandsworth,Granard Primary School,http://www.granardprimary.co.uk/,London,SW15 6XA,London,yes
101029,212,Wandsworth,Heathmere Primary School,https://www.heathmereprimary.org/,London,SW15 4LJ,London,yes
101057,212,Wandsworth,Hillbrook School,https://www.hillbrookschool.org.uk/,London,SW17 8SG,London,yes
101036,212,Wandsworth,Holy Ghost Catholic Primary School,https://www.holyghost.wandsworth.sch.uk/,London,SW12 8QJ,London,yes
101012,212,Wandsworth,Honeywell Infant School,https://www.honeywellschools.org,London,SW11 6EF,London,yes
101011,212,Wandsworth,Honeywell Junior School,https://www.honeywellschools.org,London,SW11 6EF,London,yes
101013,212,Wandsworth,Hotham Primary School,https://www.hothamprimaryschool.org.uk/,London,SW15 1PN,London,yes
101014,212,Wandsworth,John Burns Primary School,https://www.johnburns.wandsworth.sch.uk/,London,SW11 5QR,London,yes
101094,212,Wandsworth,Oak Lodge School,https://www.oaklodge.wandsworth.sch.uk,London,SW12 8NA,London,yes
101051,212,Wandsworth,Our Lady Queen of Heaven RC School,https://www.ourladyqueenofheaven.wandsworth.sch.uk/,London,SW19 6AD,London,yes
101037,212,Wandsworth,Our Lady of Victories Catholic Primary School,https://www.ourladyofvictories.wandsworth.sch.uk/,London,SW15 1AW,London,yes
101016,212,Wandsworth,Penwortham Primary School,https://www.penwortham.wandsworth.sch.uk,London,SW16 6RJ,London,yes
101038,212,Wandsworth,Roehampton Church Forest Primary School,https://www.roehampton.wandsworth.sch.uk,London,SW15 4AA,London,yes
101031,212,Wandsworth,Ronald Ross Primary School,https://www.ronaldross.org.uk,,SW19 6RY,London,yes
101050,212,Wandsworth,"Sacred Heart Catholic Primary School, Roehampton",https://www.sacredheart-roe.wandsworth.sch.uk/,London,SW15 5NX,London,yes
135762,212,Wandsworth,Saint John Bosco College,http://www.sjbc.wandsworth.sch.uk/,London,SW11 3DQ,London,yes
101019,212,Wandsworth,Sellincourt Primary School,https://www.sellincourt.wandsworth.sch.uk,London,SW17 9SA,London,yes
101020,212,Wandsworth,Shaftesbury Park Primary School,https://www.shaftesburypark.wandsworth.sch.uk/,London,SW11 5UW,London,yes
101021,212,Wandsworth,Smallwood Primary School and Language Unit,https://www.smallwood.wandsworth.sch.uk/,London,SW17 0TW,London,yes
101027,212,Wandsworth,Southmead Primary School,https://www.southmeadschool.co.uk/,London,SW19 6QT,London,yes
101052,212,Wandsworth,St Anselm's Catholic Primary School,https://www.stanselms.wandsworth.sch.uk/,London,SW17 8RW,London,yes
101049,212,Wandsworth,St Michael's CofE Primary School,https://www.stmichaels.wandsworth.sch.uk/,London,SW18 5SQ,London,yes
101022,212,Wandsworth,Swaffield School,https://www.swaffield.wandsworth.sch.uk,London,SW18 2SA,London,yes
101024,212,Wandsworth,West Hill Primary School,https://www.westhill.wandsworth.sch.uk,London,SW18 5ST,London,yes
