urn,district_code,district_name,school_name,website,town,postcode,region,has_email_collected
144406,303,Bexley,Aspire Academy,http://aspirebexley.org.uk/aspire,Welling,DA16 1JB,London,no
140320,303,Bexley,Barnehurst Infant School,www.barnehurstfederation.co.uk,Erith,DA8 3NL,London,no
140321,303,Bexley,Barnehurst Junior School,www.barnehurstfederation.co.uk,Erith,DA8 3NL,London,no
143868,303,Bexley,Barrington Primary School,www.barrington.bexley.sch.uk,Bexleyheath,DA7 4UN,London,no
143866,303,Bexley,Bedonwell Infant and Nursery School,www.bedonwell-inf.bexley.sch.uk/,Belvedere,DA17 5PF,London,no
143867,303,Bexley,Bedonwell Junior School,https://www.bedonwell-jun.bexley.sch.uk,Belvedere,DA17 5PF,London,no
146870,303,Bexley,Belmont Academy,www.belmont.bexley.sch.uk/,Erith,DA8 1LE,London,no
147332,303,Bexley,Belvedere Infant School,https://belvedere-inf.bexley.sch.uk/bexley/primary/belvedere-inf,Belvedere,DA17 6AA,London,no
139115,303,Bexley,Belvedere Junior School,www.belvederejuniorschool.co.uk/,Belvedere,DA17 6AA,London,no
136334,303,Bexley,Beths Grammar School,http://www.beths.bexley.sch.uk,Bexley,DA5 1NE,London,no
136369,303,Bexley,Bexley Grammar School,http://www.bexleygs.co.uk/,Welling,DA16 2BL,London,no
137138,303,Bexley,Bexleyheath Academy,http://www.bexleyheathacademy.org/,Bexleyheath,DA6 7DA,London,no
134780,303,Bexley,Bishop Ridley Church of England VA Primary School,www.bishopridleyschool.org.uk/,Welling,DA16 2QE,London,no
137965,303,Bexley,Blackfen School for Girls,www.blackfenschoolforgirls.co.uk,Sidcup,DA15 9NU,London,no
141047,303,Bexley,Brampton Primary Academy,www.bramptonacademy.org,Bexleyheath,DA7 4SL,London,no
141976,303,Bexley,Burnt Oak Junior School,www.burntoak-bexley.secure-dbprimary.com,Sidcup,DA15 9DA,London,no
140443,303,Bexley,Bursted Wood Primary School,www.burstedwoodprimary.org.uk/,Bexleyheath,DA7 5BS,London,no
146892,303,Bexley,Castilion Primary School,www.castilion.bexley.sch.uk,London,SE28 8QA,London,no
143085,303,Bexley,Chatsworth Infant School,https://chatsworth.bexley.sch.uk/,Sidcup,DA15 9DD,London,no
137423,303,Bexley,Chislehurst and Sidcup Grammar School,http://www.csgrammar.com/,Sidcup,DA15 9AG,London,no
139212,303,Bexley,Christ Church (Erith) CofE Primary School,www.christchurch.bexley.sch.uk,Erith,DA8 3DG,London,no
147071,303,Bexley,Cleeve Meadow School,www.cleevemeadow-tkat.org,Sidcup,DA14 4JN,London,no
138686,303,Bexley,Cleeve Park School,www.cleevepark-tkat.org,Sidcup,DA14 4JN,London,no
148582,303,Bexley,Cornerstone School,https://www.cornerstone.bexley.sch.uk/,Belvedere,DA17 6DW,London,no
140710,303,Bexley,Days Lane Primary School,www.dayslaneprimary.co.uk,Sidcup,DA15 8JU,London,no
136599,303,Bexley,East Wickham Primary Academy,https://www.eastwickham-tkat.org,Welling,DA16 3BP,London,no
144405,303,Bexley,Endeavour Academy Bexley,http://endeavour.lseat.org.uk,Bexleyheath,DA7 6LB,London,no
141889,303,Bexley,Fairford Academy Barnehurst,https://www.fairfordacademy.org/,Bexleyheath,DA7 6QP,London,no
145208,303,Bexley,Gravel Hill Primary School,http://www.gravelhillschool.co.uk,Bexleyheath,DA6 7QJ,London,no
147358,303,Bexley,Haberdashers' Crayford Primary,https://www.habscrayfordprimary.org.uk/,Dartford,DA1 4RS,London,no
147356,303,Bexley,Haberdashers' Slade Green Primary,www.habssladegreenprimary.org.uk,Erith,DA8 2EL,London,no
135677,303,Bexley,Harris Academy Falconwood,http://www.harrisfalconwood.org.uk/,Welling,DA16 2PE,London,no
145140,303,Bexley,Harris Garrard Academy,www.Harrisgarrard.org.uk,Erith,DA18 4DW,London,no
142295,303,Bexley,Hillsgrove Primary School,,Welling,DA16 1DR,London,no
142229,303,Bexley,Holy Trinity Lamorbey Church of England School,www.htl.bexley.sch.uk,Sidcup,DA15 9DB,London,no
147240,303,Bexley,Hook Lane Primary School,www.hooklaneprimary.co.uk/,Welling,DA16 2ET,London,no
139561,303,Bexley,Hope Community School,www.hopecommunityschool.org/,Sidcup,DA14 5BU,London,no
144407,303,Bexley,Horizons Academy Bexley,http://horizonsbexley.org.uk/horizons,Abbey Wood,SE2 9TA,London,no
140243,303,Bexley,Hurst Primary School,www.hurst.bexley.sch.uk,Bexley,DA5 3AJ,London,no
151382,303,Bexley,Hurstmere School,,Sidcup,DA15 9AW,London,no
145071,303,Bexley,Jubilee Primary School,www.jubilee.bexley.sch.uk,London,SE28 8JB,London,no
149898,303,Bexley,Leigh Academy Bexley,,Erith,DA8 3BN,London,no
142586,303,Bexley,Leigh Stationers' Primary Academy,www.leighstationersprimaryacademy.org.uk,Welling,DA16 2ST,London,no
141866,303,Bexley,Lessness Heath Primary School,www.lessnessheath-bexley.co.uk/,Belvedere,DA17 6HB,London,no
143922,303,Bexley,Lime Wood Primary School,https://www.limewoodprimaryschool.co.uk/,Erith,DA8 1FJ,London,no
141114,303,Bexley,Mayplace Primary School,www.mayplace.bexley.sch.uk/,Barnehurst,DA7 6EQ,London,no
137380,303,Bexley,Northumberland Heath Primary School,www.northumberlandheathprimaryschool.co.uk,Erith,DA8 1JE,London,no
144540,303,Bexley,Northwood Primary School,www.northwood.bexley.sch.uk,Erith,DA18 4HN,London,no
142228,303,Bexley,Old Bexley Church of England School,www.oldbexley.apat.org.uk,Bexley,DA5 3JR,London,no
137417,303,Bexley,Peareswood Primary School,www.peareswoodprimaryschool.co.uk,Erith,DA8 3PR,London,no
139494,303,Bexley,Pelham Primary School,www.pelhamprimary.co.uk,Bexleyheath,DA7 4HL,London,no
142723,303,Bexley,Royal Park Primary Academy,http://www.royalpark-tkat.org,Sidcup,DA14 4PX,London,no
144041,303,Bexley,Shenstone School,www.shenstone-tkat.org,Crayford,DA1 4DZ,London,no
140532,303,Bexley,Sherwood Park Primary School,www.sherwoodparkprimary.co.uk/,Sidcup,DA15 9JQ,London,no
139213,303,Bexley,St Augustine of Canterbury CofE Primary School,www.st-augustine.bexley.sch.uk,Belvedere,DA17 5HP,London,no
137681,303,Bexley,St Catherine's Catholic School,www.stccg.co.uk,Bexleyheath,DA6 7QJ,London,no
138650,303,Bexley,St Columba's Catholic Boys' School,http://st-columbas.bexley.sch.uk/,Bexleyheath,DA6 7QB,London,no
144889,303,Bexley,St Michael's East Wickham Church of England Primary School,www.stmichaels-eastwickham-ce-school.co.uk,Welling,DA16 1LS,London,no
142294,303,Bexley,St Paulinus Church of England Primary School,http://www.st-paulinus.bexley.sch.uk,Dartford,DA1 4RW,London,no
149048,303,Bexley,St Peter Chanel Catholic Primary School,www.st-peterchanel.bexley.sch.uk,Sidcup,DA14 5ED,London,no
149373,303,Bexley,St Thomas More Catholic Primary School,https://www.stm.bexley.sch.uk,Bexleyheath,DA7 4PH,London,no
145011,303,Bexley,St. Paul's (Slade Green) Church of England Primary School,www.st-pauls.bexley.sch.uk,ERITH,DA8 2HX,London,no
137769,303,Bexley,Townley Grammar School,www.townleygrammar.org.uk,Bexleyheath,DA6 7AB,London,no
136538,303,Bexley,"Trinity Church of England School, Belvedere",http://www.trinity.bexley.sch.uk/,Belvedere,DA17 6HT,London,no
143432,303,Bexley,Upland Primary School,www.upland.bexley.sch.uk/,Bexleyheath,DA7 4DG,London,no
136720,303,Bexley,Welling School,http://www.wellingschool-tkat.org/,Welling,DA16 1LB,London,no
136932,303,Bexley,Willow Bank Primary School,www.willowbankprimaryschool.co.uk,London,SE2 9XB,London,no
146885,303,Bexley,Woodside Academy,https://www.woodside.bexley.sch.uk/,Erith,DA8 3PB,London,no
101426,303,Bexley,Birkbeck Primary School,https://www.birkbeck.bexley.sch.uk,Sidcup,DA14 4ED,London,yes
101402,303,Bexley,Crook Log Primary School,https://www.crooklog.bexley.sch.uk,Bexleyheath,DA6 8EQ,London,yes
101403,303,Bexley,Danson Primary School,https://www.danson.bexley.sch.uk/,Welling,DA16 2BH,London,yes
101434,303,Bexley,Dulverton Primary School,https://www.dulverton.education,London,SE9 3RH,London,yes
101451,303,Bexley,Foster's Primary School,https://www.fosters.bexley.sch.uk/,Welling,DA16 1PN,London,yes
135951,303,Bexley,Haberdashers' Crayford Academy,https://www.habscrayford.org.uk/,Dartford,DA1 4RS,London,yes
101429,303,Bexley,Longlands Primary School,https://www.longlands.bexley.sch.uk,Sidcup,DA15 7JG,London,yes
101487,303,Bexley,Marlborough School,https://www.marlborough.bexley.sch.uk,Sidcup,DA15 9DP,London,yes
134185,303,Bexley,Orchard Primary School,www.orchardprimary.co.uk/,Sidcup,DA14 6LW,London,yes
101456,303,Bexley,Our Lady of the Rosary Catholic Primary School,http://www.ourlady.bexley.sch.uk,Sidcup,DA15 8QW,London,yes
101437,303,Bexley,Parkway Primary School,https://www.parkway.bexley.sch.uk,Erith,DA18 4DP,London,yes
101458,303,Bexley,St Fidelis Catholic Primary School,http://www.st-fidelis.bexley.sch.uk,Erith,DA8 3HQ,London,yes
101460,303,Bexley,St John Fisher Catholic Primary School,https://www.sjf.bexley.sch.uk,Erith,DA18 4BA,London,yes
101457,303,Bexley,St Joseph's Catholic Primary School,http://www.st-josephs.bexley.sch.uk,Dartford,DA1 4DZ,London,yes
101455,303,Bexley,St Stephen's Catholic Primary School,https://www.st-stephens.bexley.sch.uk/,Welling,DA16 3QG,London,yes
101413,303,Bexley,Upton Primary School,https://www.upton.bexley.sch.uk,Bexley,DA5 1HH,London,yes
