urn,district_code,district_name,school_name,website,town,postcode,region,has_email_collected
140451,305,Bromley,Alexandra Infant School,www.alexandra-infants.org.uk/,Beckenham,BR3 1JG,London,no
140080,305,Bromley,Alexandra Junior School,www.alexandra-jun.bromley.sch.uk,London,SE26 5DS,London,no
137216,305,Bromley,Balgowan Primary School,http://www.balgowan.bromley.sch.uk/,Beckenham,BR3 4HJ,London,no
145585,305,Bromley,Bickley Primary School,www.bickley.bromley.sch.uk,Bromley,BR1 2SQ,London,no
137244,305,Bromley,Biggin Hill Primary School,www.bigginhillprimary.com,Westerham,TN16 3LY,London,no
136466,305,Bromley,Bishop Justus CofE School,www.bishopjustus.bromley.sch.uk,Bromley,BR2 8HZ,London,no
145073,305,Bromley,Blenheim Primary School,www.blenheimprimary.com/,Orpington,BR6 9BH,London,no
141989,305,Bromley,Bromley Beacon Academy,http://bromleybeaconacademy-bromley.org.uk/,Orpington,BR6 9BD,London,no
141116,305,Bromley,Bromley Trust Alternative Provision Academy,www.bromleytrustacademy.org.uk,Bromley,BR2 9EA,London,no
136709,305,Bromley,Bullers Wood School,www.bwsgirls.org,Chislehurst,BR7 5LJ,London,no
145868,305,Bromley,Bullers Wood School for Boys,www.bwsboys.org,Bromley,BR1 2NW,London,no
142584,305,Bromley,Burnt Ash Primary School,www.burntash.bromley.sch.uk,Bromley,BR1 4QX,London,no
136545,305,Bromley,Charles Darwin School,http://www.cdarwin.com,Westerham,TN16 3AU,London,no
142694,305,Bromley,Chelsfield Primary School,www.chelsfield.bromley.sch.uk/,Orpington,BR6 6EP,London,no
136467,305,Bromley,Chislehurst School for Girls,http://www.chislehurstschoolforgirls.co.uk/,Chislehurst,BR7 6HE,London,no
145204,305,Bromley,Churchfields Primary School,www.churchfields-q1e.org.uk,Beckenham,BR3 4QY,London,no
143033,305,Bromley,Clare House Primary School,http://www.clarehouseprimaryschool.co.uk/,Beckenham,BR3 6PY,London,no
136464,305,Bromley,Coopers School,http://www.coopersschool.com/,Chislehurst,BR7 5PS,London,no
138611,305,Bromley,Crofton Infant School,https://www.croftoninfantschool.co.uk/,Orpington,BR5 1EL,London,no
137683,305,Bromley,Crofton Junior School,https://www.croftonjuniorschool.co.uk/,Orpington,BR5 1EL,London,no
141896,305,Bromley,Cudham Church of England Primary School,www.cudham.bromley.sch.uk,Westerham,TN16 3AX,London,no
137032,305,Bromley,Darrick Wood Infant & Nursery School,www.darrickwoodinfant.co.uk,Orpington,BR6 8ER,London,no
142697,305,Bromley,Darrick Wood Junior School,www.dwjs.co.uk,Orpington,BR6 8ER,London,no
136355,305,Bromley,Darrick Wood School,www.darrickwood.bromley.sch.uk,Orpington,BR6 8ER,London,no
149534,305,Bromley,Downe Primary School,www.downe.bromley.sch.uk,Orpington,BR6 7JN,London,no
140533,305,Bromley,Elmstead Wood Primary School,www.elmsteadwoodprimary.co.uk,London,SE9 4AT,London,no
140449,305,Bromley,Farnborough Primary School,www.farnboroughprimary.co.uk/,Orpington,BR6 7EQ,London,no
144893,305,Bromley,Glebe School,www.glebe.bromley.sch.uk,West Wickham,BR4 9AE,London,no
139639,305,Bromley,Gray's Farm Primary Academy,www.graysfarm-tkat.org/,Orpington,BR5 3AD,London,no
144504,305,Bromley,Green Street Green Primary School,www.greenstreetgreenprimary.co.uk,Orpington,BR6 6DT,London,no
137121,305,Bromley,Harris Academy Beckenham,http://www.harrisbeckenham.org.uk/,Beckenham,BR3 3SJ,London,no
143427,305,Bromley,Harris Academy Orpington,http://www.harrisorpington.org.uk,,BR5 4LG,London,no
137379,305,Bromley,Harris Girls Academy Bromley,http://www.harrisbromley.org.uk,Beckenham,BR3 1QR,London,no
140934,305,Bromley,Harris Primary Academy Beckenham,www.harrisprimarybeckenham.org.uk,Beckenham,BR3 3SJ,London,no
144287,305,Bromley,Harris Primary Academy Beckenham Green,www.harrisbeckenhamgreen.org.uk,Beckenham,BR3 5JG,London,no
139966,305,Bromley,Harris Primary Academy Crystal Palace,www.harrisprimarycrystalpalace.org.uk/,London,SE20 8RH,London,no
139678,305,Bromley,Harris Primary Academy Kent House,www.harrisprimarykenthouse.org.uk,London,SE20 7QR,London,no
143426,305,Bromley,Harris Primary Academy Orpington,www.harrisprimaryorpington.org.uk,Orpington,BR5 4LZ,London,no
140936,305,Bromley,Harris Primary Academy Shortlands,www.harrisprimaryshortlands.org.uk,Bromley,BR2 0HG,London,no
141784,305,Bromley,Hawes Down Primary School,http://www.hdps.org.uk/,West Wickham,BR4 0BA,London,no
136920,305,Bromley,Hayes Primary School,http://www.hayes-pri.bromley.sch.uk/,Bromley,BR2 7LQ,London,no
136644,305,Bromley,Hayes School,http://www.hayes.bromley.sch.uk/,Bromley,BR2 7DB,London,no
140082,305,Bromley,Highfield Infants' School,http://www.highfield-inf.bromley.sch.uk,Bromley,BR2 0RX,London,no
140257,305,Bromley,Highfield Junior School,www.highfield-jun.bromley.sch.uk/,Bromley,BR2 0RL,London,no
141907,305,Bromley,Holy Innocents Catholic Primary School,www.holyinnocents.bromley.sch.uk,Orpington,BR6 9JT,London,no
143774,305,Bromley,James Dixon Primary School,https://www.jamesdixon.org.uk/,London,SE20 8BW,London,no
136281,305,Bromley,Kemnal Technology College,http://www.ktc-tkat.org,Sidcup,DA14 5AA,London,no
140729,305,Bromley,Keston Church of England Primary School,http://www.keston.bromley.sch.uk,Keston,BR2 6BN,London,no
140999,305,Bromley,La Fontaine Academy,https://lafontaineacademy.org/,Bromley,BR1 2SQ,London,no
142897,305,Bromley,Langley Park Primary School,www.langleyparkprimary.org.uk,Beckenham,BR3 3FG,London,no
136586,305,Bromley,Langley Park School for Boys,http://www.lpsb.org.uk,Beckenham,BR3 3BP,London,no
137006,305,Bromley,Langley Park School for Girls,http://www.lpgs.bromley.sch.uk,Beckenham,BR3 3BE,London,no
141291,305,Bromley,Leesons Primary School,www.leesons.bromley.sch.uk/,Orpington,BR5 2GA,London,no
140450,305,Bromley,Manor Oak Primary School,www.manoroakprimaryschool.co.uk/,Orpington,BR5 3PE,London,no
142299,305,Bromley,Marian Vian Primary School,https://www.marianvianprimaryschool.org,Beckenham,BR3 4AZ,London,no
151016,305,Bromley,Marjorie McClure School,www.marjoriemcclure.org.uk,Chislehurst,BR7 6FG,London,no
142033,305,Bromley,Mead Road Infant School,www.meadroadinfantschool.co.uk,Chislehurst,BR7 6AD,London,no
141613,305,Bromley,Midfield Primary School,www.midfield.bromley.sch.uk,Orpington,BR5 3EG,London,no
136551,305,Bromley,Newstead Wood School,http://www.newsteadwood.co.uk/,Orpington,BR6 9SA,London,no
142298,305,Bromley,Oak Lodge Primary School,oaklodgeprimaryschool.org,West Wickham,BR4 0LJ,London,no
142234,305,Bromley,Oaklands Primary Academy,https://oaklandsprimary.com/,Westerham,TN16 3DN,London,no
144465,305,Bromley,Orion Eden Park,www.edenparkhigh.com,Beckenham,BR3 3RD,London,no
139984,305,Bromley,Parish Church of England Primary School,www.parishceschool.com,Bromley,BR1 4HF,London,no
140448,305,Bromley,Perry Hall Primary School,http://www.perryhall.bromley.sch.uk,Orpington,BR6 0EF,London,no
137070,305,Bromley,Pickhurst Academy,www.pickhurst.com,West Wickham,BR4 0HL,London,no
137069,305,Bromley,Pickhurst Infant Academy,http://www.pickhurst-inf.bromley.sch.uk,West Wickham,BR4 0HL,London,no
142721,305,Bromley,Pratts Bottom Primary School,http://www.prattsbottomprimary.co.uk/,Orpington,BR6 7NX,London,no
140088,305,Bromley,Raglan Primary School,http://raglanprimaryschool.co.uk,Bromley,BR2 9NL,London,no
136517,305,Bromley,Ravens Wood School,http://www.ravenswood.bromley.sch.uk,Bromley,BR2 8HP,London,no
142233,305,Bromley,Ravensworth Primary School,www.ravensworthprimary.co.uk,London,SE9 4LW,London,no
143110,305,Bromley,Red Hill Primary School,www.redhill.bromley.sch.uk,Chislehurst,BR7 6DA,London,no
135232,305,Bromley,Riverside School,,Orpington,BR5 3HS,London,no
140752,305,Bromley,Scotts Park Primary School,www.scottsparkprimary.co.uk,Bromley,BR1 2PR,London,no
144549,305,Bromley,St Anthony's Catholic Primary School,www.st-anthonys.bromley.sch.uk,London,SE20 8ES,London,no
143097,305,Bromley,"St George's, Bickley, Church of England Primary School",www.stgeorgescebromley.school,Bromley,BR1 2RL,London,no
137958,305,Bromley,St James' Roman Catholic Primary School,www.st-james.bromley.sch.uk/,Orpington,BR5 1BL,London,no
140648,305,Bromley,St John's Church of England Primary School,www.st-johns.bromley.sch.uk,London,SE20 8HU,London,no
141566,305,Bromley,St Joseph's Catholic Primary School,www.st-josephs.bromley.sch.uk,Bromley,BR1 3JQ,London,no
141567,305,Bromley,St Mark's Church of England Primary School,www.st-marks.bromley.sch.uk,Bromley,BR2 0QR,London,no
141535,305,Bromley,St Mary's Catholic Primary School,www.st-marys-catholic.bromley.sch.uk,Beckenham,BR3 5DE,London,no
141529,305,Bromley,St Nicholas Church of England Primary,www.stnicholasceprimary.co.uk/,Chislehurst,BR7 5PQ,London,no
146842,305,Bromley,St Paul's Cray Church of England Primary School,www.st-paulscray.bromley.sch.uk/,Orpington,BR5 3WD,London,no
141158,305,Bromley,St Peter and St Paul Catholic Primary School,http://www.saintpeterandsaintpaulcatholicprimary.co.uk,Orpington,BR5 2SR,London,no
141482,305,Bromley,St Philomena's Primary School,www.st-philomenas.bromley.sch.uk,Orpington,BR5 4DR,London,no
141481,305,Bromley,St Vincent's Catholic Primary School,www.st-vincents.bromley.sch.uk,London,SE9 4JR,London,no
141117,305,Bromley,St. Mary Cray Primary Academy,www.st-marycray.bromley.sch.uk,Orpington,BR5 4AR,London,no
137035,305,Bromley,Stewart Fleming Primary School,www.stewartfleming.bromley.sch.uk,London,SE20 7YB,London,no
142743,305,Bromley,The Highway Primary School,http://www.highway.bromley.sch.uk,Orpington,BR6 9DJ,London,no
136540,305,Bromley,The Ravensbourne School,http://www.ravensbourne.info,Bromley,BR2 9EH,London,no
141352,305,Bromley,Trinity Church of England Primary School,www.trinityceprimary.school,Bromley,BR2 8LD,London,no
137930,305,Bromley,Tubbenden Primary School,https://www.tubbenden.bromley.sch.uk/,Orpington,BR6 9SD,London,no
142300,305,Bromley,Unicorn Primary School,www.unicornprimaryschool.org,Beckenham,BR3 3AL,London,no
137242,305,Bromley,Valley Primary School,www.valleyprimary.co.uk/,Bromley,BR2 0DA,London,no
136915,305,Bromley,Warren Road Primary School,www.warrenroad.bromley.sch.uk/,Orpington,BR6 6JF,London,no
142301,305,Bromley,Wickham Common Primary School,www.wickhamcommonprimary-compass.org,West Wickham,BR4 9DG,London,no
142403,305,Bromley,Worsley Bridge Primary School,www.worsleybridge.bromley.sch.uk,Beckenham,BR3 1RF,London,no
101635,305,Bromley,Edgebury Primary School,https://www.edgebury.bromley.sch.uk,Chislehurst,BR7 6BL,London,yes
101641,305,Bromley,Poverest Primary School,http://www.poverestprimaryschool.com,Orpington,BR5 2JD,London,yes
101601,305,Bromley,Southborough Primary School,http://www.southborough.bromley.sch.uk,Bromley,BR2 8AA,London,yes
101676,305,Bromley,St Olave's and St Saviour's Grammar School,http://www.saintolaves.net/,Orpington,BR6 9SH,London,yes
