urn,district_code,district_name,school_name,website,town,postcode,region,has_email_collected
147536,308,Enfield,AIM Academy North London,www.aimnorthlondon.org.uk,London,N9 8DQ,London,no
145984,308,Enfield,Alma Primary School,www.almaprimary.co.uk,Enfield,EN3 4UQ,London,no
139815,308,Enfield,Ark John Keats Academy,www.arkjohnkeats.org,London,EN3 5PA,London,no
136147,308,Enfield,Aylward Academy,www.aylwardacademy.org,London,N18 1NB,London,no
143201,308,Enfield,Bowes Primary School,www.bowesprimaryschool.org,London,N11 2HL,London,no
146946,308,Enfield,Brettenham Primary School,http://www.brettenhamprimaryschool.co.uk/,London,N18 2ET,London,no
143202,308,Enfield,Brimsdown Primary School,www.brimsdown.enfield.sch.uk/,Enfield,EN3 7NA,London,no
101981,308,Enfield,Capel Manor Primary School,http://www.capelmanor.enfield.sch.uk,Enfield,EN1 4RL,London,no
145201,308,Enfield,Carterhatch Junior School,www.carterhatchjun.org,Enfield,EN1 4JY,London,no
101984,308,Enfield,Chase Side Primary School,https://www.chaseside.enfield.sch.uk,Enfield,EN2 6NS,London,no
143200,308,Enfield,Chesterfield Primary School,www.chesterfieldprimaryschool.co.uk,Enfield,EN3 6BG,London,no
145522,308,Enfield,Churchfield Primary School,www.churchfield.school,London,N9 9PL,London,no
151401,308,Enfield,De Bohun Primary School,www.debohun.enfield.sch.uk,London,N14 4AD,London,no
145955,308,Enfield,Delta Primary School,www.deltaprimary.org,Enfield,N9 8PT,London,no
145968,308,Enfield,Eastfield Primary School,www.eastfieldprimary.com,Enfield,EN3 5UX,London,no
143197,308,Enfield,Edmonton County School,http://www.edmonton.enfield.sch.uk,London,N9 9JZ,London,no
150663,308,Enfield,Eldon Primary School,www.eldonprimary.co.uk,London,N9 8LG,London,no
137094,308,Enfield,Enfield Grammar School,http://www.enfieldgrammar.org/,Enfield,EN2 6LN,London,no
138381,308,Enfield,Enfield Heights Academy,https://www.northstartrust.org.uk/,Enfield,EN3 5BY,London,no
102025,308,Enfield,Eversley Primary School,http://www.eversley.enfield.sch.uk/,London,N21 1PD,London,no
145232,308,Enfield,Fern House School,https://www.fernhouseschool.org,Enfield,EN3 6NY,London,no
146935,308,Enfield,Fleecefield Primary School,www.fleecefield.enfield.sch.uk/,London,N18 2ES,London,no
102031,308,Enfield,Freezywater St George's CofE VA Primary School,https://www.freezywaterstgeorges.org.uk,Enfield,EN3 6NR,London,no
146862,308,Enfield,Galliard Primary School,http://www.galliardprimaryschool.co.uk/,London,N9 7PE,London,no
101992,308,Enfield,Garfield Primary School,https://www.garfield.enfield.sch.uk/,London,N11 1BH,London,no
145207,308,Enfield,Grange Park Primary School,http://www.grangeparkprimary.org,London,N21 1PP,London,no
143198,308,Enfield,Hazelbury Primary School,www.hazelbury-primary-school.co.uk,London,N9 9TT,London,no
101997,308,Enfield,Hazelwood Infant School,https://www.hazelwoodschools.org.uk/,London,N13 5HE,London,no
101996,308,Enfield,Hazelwood Junior School,https://www.hazelwoodschools.org.uk/,London,N13 5HE,London,no
139599,308,Enfield,Heron Hall Academy,www.heronhallacademy.org.uk,Enfield,EN3 4SA,London,no
132203,308,Enfield,Highfield Primary School,www.highfield-pri.enfield.sch.uk/,London,N21 3HE,London,no
132256,308,Enfield,Highlands School,http://www.highlands.enfield.sch.uk/,London,N21 1QQ,London,no
146728,308,Enfield,Houndsfield Primary School,https://houndsfieldprimary.co.uk,London,N9 7RE,London,no
145986,308,Enfield,Keys Meadow Primary School,www.keysmeadowprimary.co.uk,Enfield,EN3 6FB,London,no
138203,308,Enfield,Kingfisher Hall Primary Academy,https://www.northstartrust.org.uk/,Enfield,EN3 7GB,London,no
136327,308,Enfield,Kingsmead School,http://www.kingsmeadschool.org/,Enfield,EN1 1YQ,London,no
143199,308,Enfield,Lavender Primary School,www.lavenderprimary.org,Enfield,EN2 0SX,London,no
141017,308,Enfield,Meridian Angel Primary School,www.meridianangel.org.uk,Edmonton,N18 2DX,London,no
150114,308,Enfield,Merryhills Primary School,www.merryhills.net,Enfield,EN2 7RE,London,no
131407,308,Enfield,Oakthorpe Primary School,http://www.oakthorpe.enfield.sch.uk/,London,N13 6BY,London,no
102069,308,Enfield,Oaktree School,https://www.oaktree.enfield.sch.uk,London,N14 4HN,London,no
134311,308,Enfield,Oasis Academy Enfield,www.oasisacademyenfield.org,Enfield,EN3 7XH,London,no
142874,308,Enfield,One Degree Academy,www.onedegreeacademy.org,Enfield,EN2 8GH,London,no
101972,308,Enfield,Orchardside School,https://www.orchardside.school,Enfield,EN1 4RL,London,no
102040,308,Enfield,Our Lady of Lourdes Catholic Primary School,https://www.ololschool.enfield.sch.uk,London,N11 1RD,London,no
102002,308,Enfield,Prince of Wales Primary School,http://www.princeofwales.enfield.sch.uk/,Enfield,EN3 6HG,London,no
146882,308,Enfield,Raynham Primary School,www.raynhamprimaryschool.org,London,N18 2JQ,London,no
149100,308,Enfield,Salmons Brook School,www.salmonsbrook.org.uk,Enfield,EN3 5PB,London,no
142727,308,Enfield,Southgate School,http://www.southgate.enfield.sch.uk/,Barnet,EN4 0BL,London,no
102037,308,Enfield,St Edmund's Catholic Primary School,https://www.st-edmunds.enfield.sch.uk/,Edmonton,N9 7HJ,London,no
102058,308,Enfield,St Ignatius College,http://www.st-ignatius.enfield.sch.uk,Enfield,EN1 4NP,London,no
102033,308,Enfield,St James CofE Primary School,https://www.stjamesenfield.org.uk/,Enfield,EN3 7HH,London,no
102027,308,Enfield,St John's CofE Primary School,https://www.stjohnsprimarysch.org.uk/,Enfield,EN2 9BD,London,no
102054,308,Enfield,St Matthew's CofE Primary School,https://www.stmatthews-enfield.co.uk/,Enfield,EN3 4LA,London,no
102026,308,Enfield,St Michael at Bowes CofE Junior School,https://www.smab.enfield.sch.uk/,London,N13 6JB,London,no
102039,308,Enfield,St Monica's RC Primary School,https://www.st-monicas.enfield.sch.uk/,London,N14 7HE,London,no
134307,308,Enfield,Starks Field Primary School,www.starksfield.enfield.sch.uk,London,N9 9SJ,London,no
144084,308,Enfield,The Lea Valley Academy,http://www.leavalley.org.uk,Enfield,EN3 6TW,London,no
146868,308,Enfield,Walker Primary School,www.walker.enfield.sch.uk,London,N14 7EG,London,no
131657,308,Enfield,West Grove Primary,www.westgrove.enfield.sch.uk,London,N14 4LR,London,no
146900,308,Enfield,Wilbury Primary School,www.wilburyprimaryschool.org.uk/,London,N18 1DE,London,no
146663,308,Enfield,Wolfson Hillel Primary School,http://www.wolfsonhillel.enfield.sch.uk/,London,N14 4LG,London,no
136952,308,Enfield,Woodpecker Hall Primary Academy,www.northstartrust.org.uk,London,N9 8DR,London,no
145985,308,Enfield,Worcesters Primary School,http://www.worcesters.enfield.sch.uk/,Enfield,EN1 4UF,London,no
143924,308,Enfield,Wren Academy Enfield,https://www.wrenacademyenfield.org/,Enfield,EN2 8GH,London,no
102052,308,Enfield,Bishop Stopford's School,https://www.bishopstopfords.enfield.sch.uk,Enfield,EN1 3PU,London,yes
102024,308,Enfield,Bush Hill Park Primary School,https://www.bushhillpark.enfield.sch.uk/,Enfield,EN1 1DS,London,yes
101983,308,Enfield,Carterhatch Infant School,https://www.carterhatchinfants.com,Enfield,EN1 4JY,London,yes
102049,308,Enfield,Chace Community School,http://www.chace.enfield.sch.uk,Enfield,EN1 3HQ,London,yes
102066,308,Enfield,Durants School,https://www.durants.enfield.sch.uk,Enfield,EN3 5BY,London,yes
102048,308,Enfield,Enfield County School for Girls,http://www.enfieldcs.enfield.sch.uk/,Enfield,EN2 6QG,London,yes
101989,308,Enfield,Firs Farm Primary School,http://www.firsfarm.enfield.sch.uk,London,N13 5QP,London,yes
102028,308,Enfield,Forty Hill CofE Primary School,https://www.fortyhill.com/,Enfield,EN2 9EY,London,yes
101993,308,Enfield,George Spicer Primary School,https://www.georgespicer.enfield.sch.uk,Enfield,EN1 1YF,London,yes
101994,308,Enfield,Hadley Wood Primary School,https://www.hadleywood.enfield.sch.uk,Barnet,EN4 0HT,London,yes
101998,308,Enfield,Honilands Primary School,http://www.honilands.co.uk,London,EN1 4RE,London,yes
102041,308,Enfield,Latymer All Saints CofE Primary School,http://www.latymerallsaints.enfield.sch.uk/,London,N9 9RS,London,yes
102056,308,Enfield,Laurel Park School,http://www.laurelparkschool.co.uk,London,N14 7HY,London,yes
135958,308,Enfield,Oasis Academy Hadley,www.oasisacademyhadley.org,Enfield,EN3 4PX,London,yes
102004,308,Enfield,Raglan Infant School,https://www.raglanschools.org,Enfield,EN1 2NS,London,yes
130958,308,Enfield,Russet House School,www.russethouse.enfield.sch.uk,Enfield,EN1 4JA,London,yes
102014,308,Enfield,Southbury Primary School,http://www.southbury.enfield.sch.uk/,Enfield,EN3 4JG,London,yes
102029,308,Enfield,St Andrew's CofE Primary School,http://www.st-andrewsenf.co.uk,Enfield,EN1 3UL,London,yes
102030,308,Enfield,St Andrew's Southgate Primary School (CE),https://www.st-andrews-southgate.enfield.sch.uk,London,N14 6JA,London,yes
102053,308,Enfield,St Anne's Catholic High School for Girls,http://www.st-annes.enfield.sch.uk/,London,N13 5TY,London,yes
102038,308,Enfield,St George's Catholic Primary School,https://www.st-georges.enfield.sch.uk,Enfield,EN2 0QA,London,yes
102032,308,Enfield,St John and St James CofE Primary School,https://www.stjohnandjames.enfield.sch.uk/,London,N18 2TL,London,yes
102036,308,Enfield,St Mary's Catholic Primary School,https://www.stmarysenfield.co.uk,Enfield,EN3 7DE,London,yes
102034,308,Enfield,St Michael's CofE Primary School,http://www.st-michaels.enfield.sch.uk/,Enfield,EN2 0NB,London,yes
102035,308,Enfield,St Paul's CofE Primary School,https://www.st-pauls.enfield.sch.uk,London,N21 2RA,London,yes
102005,308,Enfield,Suffolks Primary School,https://www.suffolks.enfield.sch.uk,Enfield,EN1 3PU,London,yes
102055,308,Enfield,The Latymer School,http://www.latymer.co.uk/,London,N9 9TN,London,yes
102003,308,Enfield,The Raglan Junior School,https://www.raglanschools.org/,Enfield,EN1 2RG,London,yes
102006,308,Enfield,Tottenhall Infant School,https://www.tottenhall.enfield.sch.uk,London,N13 6HX,London,yes
102070,308,Enfield,Waverley School,https://www.waverley-school.com,Enfield,EN3 7DL,London,yes
102067,308,Enfield,West Lea School,http://www.westleaschool.co.uk,London,N9 9TU,London,yes
102045,308,Enfield,Winchmore School,http://www.winchmore.enfield.sch.uk/,London,N21 3HS,London,yes
