urn,district_code,district_name,school_name,website,town,postcode,region,has_email_collected
137844,312,Hillingdon,Barnhill Community High School,http://www.barnhill.school,Hayes,UB4 9LE,London,no
138983,312,Hillingdon,Belmore Primary Academy,http://www.belmore.school,Hayes,UB4 9LF,London,no
137407,312,Hillingdon,Bishop Ramsey Church of England School,http://www.bishopramseyschool.org,Ruislip,HA4 8EE,London,no
137633,312,Hillingdon,Bishopshalt School,http://www.bishopshalt.hillingdon.sch.uk/,Uxbridge,UB8 3RF,London,no
102368,312,Hillingdon,Bourne Primary School,https://www.bourneprimary.org.uk,Ruislip,HA4 6UJ,London,no
139117,312,Hillingdon,Brookside Primary School,www.brooksideprimarysch.co.uk/,Hayes,UB4 9LW,London,no
139609,312,Hillingdon,Charville Academy,www.charvilleacademy.org,Hayes,UB4 8LF,London,no
102373,312,Hillingdon,Colham Manor Primary School,https://www.colhammanorprimary.com,Uxbridge,UB8 3PT,London,no
139295,312,Hillingdon,Coteford Junior School,http://www.cotefordjunior.org.uk,Pinner,HA5 2JQ,London,no
139306,312,Hillingdon,Cowley St Laurence CofE Primary School,www.cowley.hillingdon.sch.uk/,Uxbridge,UB8 3TH,London,no
138613,312,Hillingdon,Cranford Park Academy,www.cranfordpark.academy.org,Hayes,UB3 4LQ,London,no
141035,312,Hillingdon,De Salis Studio College,http://www.desalisstudiocollege.co.uk,Hayes,UB4 8JP,London,no
148774,312,Hillingdon,Field End Junior School,www.fieldendjuniors.org.uk/,Ruislip,HA4 9PQ,London,no
102380,312,Hillingdon,Glebe Primary School,http://www.glebe.hillingdon.sch.uk,Uxbridge,UB10 8PH,London,no
142887,312,Hillingdon,Global Academy,www.globalacademy.com,Middlesex,UB3 1DH,London,no
102433,312,Hillingdon,Grange Park Infant and Nursery School,https://www.gpin.school,Hayes,UB4 8SF,London,no
102432,312,Hillingdon,Grange Park Junior School,http://www.grangeparkjuniorschool.co.uk/,Hayes,UB4 8SF,London,no
138157,312,Hillingdon,Grangewood School,http://www.grangewoodschool.co.uk,Northolt,UB5 6GG,London,no
136329,312,Hillingdon,Guru Nanak Sikh Academy,http://www.gurunanaksikhacademy.co.uk/,Hayes,UB4 0LT,London,no
102451,312,Hillingdon,Harlington School,http://www.harlingtonschool.co.uk/,Hayes,UB3 1PB,London,no
102383,312,Hillingdon,Harlyn Primary School,http://www.harlyn.hillingdon.sch.uk/,Middlesex,HA5 2DR,London,no
102384,312,Hillingdon,Harmondsworth Primary School,https://www.harmondsworthprimary.org,West Drayton,UB7 0AU,London,no
136519,312,Hillingdon,Haydon School,http://www.haydonschool.com/,Pinner,HA5 2LX,London,no
102439,312,Hillingdon,Hayes Park School,https://www.hayesparkschool.co.uk,Hayes,UB4 8BE,London,no
148775,312,Hillingdon,Hermitage Primary School,www.hermitageprimary.org.uk,Uxbridge,UB8 1RB,London,no
137078,312,Hillingdon,Hewens College,http://www.hewenscollege.co.uk/,Hayes,UB4 8JP,London,no
139909,312,Hillingdon,Hewens Primary School,www.hewensprimaryschool.co.uk/,Hayes,UB4 8JP,London,no
102407,312,Hillingdon,Highfield Primary School,http://www.highfield.hillingdon.sch.uk,Uxbridge,UB10 0DB,London,no
141055,312,Hillingdon,Hillingdon Primary School,www.hillingdon.hillingdon.sch.uk/,Uxbridge,UB10 0PH,London,no
102434,312,Hillingdon,Hillside Infant School,https://www.hillsideinfant.org.uk,Northwood,HA6 1RX,London,no
102435,312,Hillingdon,Hillside Junior School,https://www.hillsidejunior.org,Northwood,HA6 1RX,London,no
140387,312,Hillingdon,John Locke Academy,www.johnlockeacademy.co.uk/,Uxbridge,UB10 0FW,London,no
140391,312,Hillingdon,Lake Farm Park Academy,www.lakefarmpark.academy,Hayes,UB3 1JA,London,no
139275,312,Hillingdon,Laurel Lane Primary School,www.laurel-laneprimary.hillingdon.sch.uk/,West Drayton,UB7 7TX,London,no
102462,312,Hillingdon,Meadow High School,https://www.meadowhighschool.org,Uxbridge,UB8 3QU,London,no
102392,312,Hillingdon,Minet Infant and Nursery School,https://www.minetinfants.org.uk,Hayes,UB3 3NR,London,no
138158,312,Hillingdon,Moorcroft School,www.moorcroftschool.co.uk,Uxbridge,UB8 3BF,London,no
139926,312,Hillingdon,Nanaksar Primary School,www.nanaksarprimary.co.uk,Hayes,UB4 0LT,London,no
102393,312,Hillingdon,Newnham Junior School,http://www.newnham-jun.hillingdon.sch.uk/,Ruislip,HA4 9RW,London,no
137829,312,Hillingdon,Northwood School,http://www.northwoodschool.org.uk,Northwood,HA6 1QN,London,no
102430,312,Hillingdon,Oak Farm Primary School,http://www.oakfarmprimary.org.uk,Uxbridge,UB10 9PD,London,no
102449,312,Hillingdon,Oak Wood School,http://www.oakwoodschool.uk,Uxbridge,UB10 9HT,London,no
145121,312,Hillingdon,Park Academy West London,www.park-aspirations.org,Hillingdon,UB8 3GA,London,no
138368,312,Hillingdon,Parkside Studio College,http://www.parksidestudiocollege.co.uk/,Hayes,UB3 2SE,London,no
141606,312,Hillingdon,Pentland Field School,www.pentlandfieldschool.co.uk,Uxbridge,UB10 8TS,London,no
140671,312,Hillingdon,Pinkwell Primary School,https://www.pinkwellschool.co.uk/,Hayes,UB3 1PG,London,no
136711,312,Hillingdon,Queensmead School,www.queensmeadschool.org.uk,Ruislip,HA4 0LS,London,no
102408,312,Hillingdon,Rabbsfarm Primary School,https://www.rabbsfarm.org.uk,West Drayton,UB7 8AH,London,no
137077,312,Hillingdon,Rosedale College,http://www.rosedalecollege.uk,Hayes,UB3 2SE,London,no
141561,312,Hillingdon,Rosedale Primary School,www.therosedalehewensacademytrust.co.uk/,Hayes,UB3 2SE,London,no
102416,312,Hillingdon,Ruislip Gardens Primary School,https://www.ruislipgardensschool.co.uk,Ruislip,HA4 6PD,London,no
140748,312,Hillingdon,Ruislip High School,http://www.ruisliphigh.com,Ruislip,HA4 0BY,London,no
102426,312,Hillingdon,Sacred Heart Catholic Primary School,http://www.sacredheart.hgfl.sch.uk,Ruislip,HA4 6EZ,London,no
102438,312,Hillingdon,St Andrew's C of E Primary School,https://standrewscofeprimary.co.uk,Uxbridge,UB8 2BX,London,no
102423,312,Hillingdon,St Bernadette Catholic Primary School,https://www.stbernadetteschool.co.uk,Uxbridge,UB10 0EH,London,no
102424,312,Hillingdon,St Catherine Catholic Primary School,,West Drayton,UB7 7NX,London,no
140484,312,Hillingdon,St Martin's Church of England Primary School,www.stmartinsprimary.com,West Drayton,UB7 7UF,London,no
102425,312,Hillingdon,St Mary's Catholic Primary School,https://www.st-marys.hillingdon.sch.uk/,Uxbridge,UB8 2UA,London,no
139302,312,Hillingdon,St Matthew's CofE Primary School,http://www.st-matthews.hillingdon.sch.uk,West Drayton,UB7 7QJ,London,no
102421,312,Hillingdon,St Swithun Wells Catholic Primary School,http://www.st-swithunwells.hillingdon.sch.uk,Ruislip,HA4 9HS,London,no
136631,312,Hillingdon,Swakeleys School for Girls,http://swakeleys.hillingdon.sch.uk/,Uxbridge,UB10 0EJ,London,no
102369,312,Hillingdon,The Breakspear School,http://www.breakspear.hillingdon.sch.uk/,Ickenham,UB10 8JA,London,no
137925,312,Hillingdon,The Douay Martyrs Catholic School,http://www.douaymartyrs.co.uk/,Uxbridge,UB10 8QY,London,no
143714,312,Hillingdon,The PRIDE Academy,https://www.ohcat.org/academies/the-pride-academy/,West Drayton,UB7 8AB,London,no
149033,312,Hillingdon,The Skills Hub,https://theskillshub.org/,West Drayton,UB7 8AB,London,no
137652,312,Hillingdon,The Willows School,www.thewillowsschoolacademytrust.co.uk,Hayes,UB4 9QB,London,no
146375,312,Hillingdon,UTC Heathrow,,Northwood,HA6 1QG,London,no
136768,312,Hillingdon,Uxbridge High School,http://www.uhs.org.uk,Uxbridge,UB8 2PR,London,no
137635,312,Hillingdon,Vyners School,http://www.vynersschool.org.uk,Uxbridge,UB10 8AB,London,no
102409,312,Hillingdon,Warrender Primary School,https://www.warrender.hillingdon.sch.uk/,Ruislip,HA4 8QG,London,no
145041,312,Hillingdon,West Drayton Academy,www.westdraytonschool.com,West Drayton,UB7 9EA,London,no
144473,312,Hillingdon,William Byrd Primary Academy,https://www.williambyrd.school,Hayes,UB3 5EW,London,no
138621,312,Hillingdon,Wood End Park Academy,woodendpark.academy,Hayes,UB3 2PD,London,no
102417,312,Hillingdon,Bishop Winnington-Ingram CofE Primary School,http://www.bwicofe.co.uk,Ruislip,HA4 7LW,London,yes
102422,312,Hillingdon,Botwell House Catholic Primary School,https://www.botwellhouseschool.co.uk,Hayes,UB3 2AB,London,yes
131638,312,Hillingdon,Cherry Lane Primary School,www.cherrylane.hillingdon.sch.uk/,West Drayton,UB7 9DL,London,yes
102375,312,Hillingdon,Coteford Infant School,https://www.cotefordinfantschool.co.uk/,Pinner,HA5 2HX,London,yes
102377,312,Hillingdon,Deanesfield Primary School,https://www.deanesfieldschool.org.uk,Ruislip,HA4 0LR,London,yes
102420,312,Hillingdon,Dr Triplett's CofE Primary School,https://www.drtripletts.hillingdon.sch.uk,Hayes,UB3 2JQ,London,yes
102379,312,Hillingdon,Field End Infant School,https://www.fieldend-inf.hillingdon.sch.uk,Ruislip,HA4 9PQ,London,yes
102414,312,Hillingdon,Frithwood Primary School,https://www.frithwood.hillingdon.sch.uk,Northwood,HA6 3NJ,London,yes
102382,312,Hillingdon,Harefield Infant School,https://www.harefieldinfant.com,Harefield,UB9 6BT,London,yes
102381,312,Hillingdon,Harefield Junior School,https://www.harefieldjunior.com,Harefield,UB9 6BJ,London,yes
135004,312,Hillingdon,Harefield School,http://www.hfschool.org.uk,Uxbridge,UB9 6ET,London,yes
102385,312,Hillingdon,Heathrow Primary School,https://www.heathrowprimaryschool.co.uk,West Drayton,UB7 0JQ,London,yes
102465,312,Hillingdon,Hedgewood School,https://www.hedgewood.org,Hayes,UB4 8NF,London,yes
102418,312,Hillingdon,Holy Trinity CofE Primary School,https://www.holytrinitynorthwood.org,Middlesex,HA6 2RH,London,yes
102388,312,Hillingdon,Lady Bankes Primary School,https://www.ladybankes.school,Ruislip,HA4 9SF,London,yes
102365,312,Hillingdon,McMillan Nursery School,https://mcmillannursery.co.uk,Hayes,UB3 2PD,London,yes
102391,312,Hillingdon,Minet Junior School,https://www.minetjunior.org.uk,Hayes,UB3 3NR,London,yes
102394,312,Hillingdon,Newnham Infant and Nursery School,https://www.newnham-inf.hillingdon.sch.uk/,Ruislip,HA4 9RW,London,yes
141718,312,Hillingdon,Ryefield Primary School,http://www.ryefieldprimary.org.uk,Uxbridge,UB10 9DE,London,yes
102411,312,Hillingdon,Whitehall Infant School,https://www.whitehall-inf.hillingdon.sch.uk,Uxbridge,UB8 2LX,London,yes
102399,312,Hillingdon,Whitehall Junior School,http://www.whitehalljunior.org,Uxbridge,UB8 2LX,London,yes
102413,312,Hillingdon,Whiteheath Infant & Nursery School,http://www.whiteheath-inf.hillingdon.sch.uk,Ruislip,HA4 7RF,London,yes
102400,312,Hillingdon,Whiteheath Junior School,http://www.whiteheath-jun.hillingdon.sch.uk,Ruislip,HA4 7PR,London,yes
102404,312,Hillingdon,Yeading Infant and Nursery School,https://www.yeadinginf.co.uk/,Hayes,UB4 0NR,London,yes
102403,312,Hillingdon,Yeading Junior School,https://www.yeadingjuniorschool.co.uk,Hayes,UB4 0NR,London,yes
