urn,district_code,district_name,school_name,website,town,postcode,region,has_email_collected
140974,313,Hounslow,Alexandra Primary School,www.alexandra.hounslow.sch.uk,Hounslow,TW3 4DU,London,no
102520,313,Hounslow,Beavers Community Primary School,http://www.beaversprimaryschool.co.uk,Hounslow,TW4 6HR,London,no
144097,313,Hounslow,Berkeley Academy,https://www.berkeleyacademy.org.uk/,Hounslow,TW5 9HQ,London,no
145866,313,Hounslow,Bolder Academy,www.bolderacademy.co.uk,Isleworth,TW7 5DB,London,no
139095,313,Hounslow,Brentford School for Girls,http://www.brentford.hounslow.sch.uk/,Brentford,TW8 0PG,London,no
102471,313,Hounslow,Cardinal Road Infant and Nursery School,http://www.cardinalroad.co.uk,Feltham,TW13 5AL,London,no
135880,313,Hounslow,Chatsworth Primary School,www.chatsworthprimaryschool.co.uk,Hounslow,TW3 2NW,London,no
137907,313,Hounslow,Chiswick School,http://www.chiswickschool.org/,London,W4 3UN,London,no
132263,313,Hounslow,Crane Park Primary School,https://www.craneparkprimary.org/,Feltham,TW13 5LN,London,no
136522,313,Hounslow,Cranford Community College,http://www.cranford.hounslow.sch.uk/,Hounslow,TW5 9PD,London,no
136809,313,Hounslow,Cranford Primary School,www.cranfordprimary.com/,Hounslow,TW4 6LB,London,no
142889,313,Hounslow,Edison Primary School,,Hounslow,TW5 0AQ,London,no
102514,313,Hounslow,Edward Pauling Primary School,https://www.edwardpauling.hounslow.sch.uk,Feltham,TW13 4TQ,London,no
132264,313,Hounslow,Fairholme Primary School,www.fairholme.hounslow.sch.uk/,Feltham,TW14 8ET,London,no
132266,313,Hounslow,Green Dragon Primary School,www.greendragonprimary.co.uk,Brentford,TW8 0BJ,London,no
102519,313,Hounslow,Grove Road Primary School,http://www.groveroadprimary.co.uk/,Hounslow,TW3 3QQ,London,no
137928,313,Hounslow,"Gumley House RC Convent School, FCJ",https://www.gumleyhouse.com/,Isleworth,TW7 6XF,London,no
138924,313,Hounslow,Heston Community School,http://www.hestoncommunityschool.co.uk/,Hounslow,TW5 0QR,London,no
136191,313,Hounslow,Heston Primary School,www.hestonprimaryschool.co.uk,Hounslow,TW5 0QR,London,no
150224,313,Hounslow,Hounslow Heath School,https://www.hounslowheathschool.com,Hounslow,TW4 7HE,London,no
137940,313,Hounslow,Isleworth and Syon School for Boys,http://www.isleworthsyon.org/,Isleworth,TW7 5LJ,London,no
102512,313,Hounslow,Ivybridge Primary School,https://www.ivybridgeprimaryschool.net,Isleworth,TW7 7QB,London,no
139276,313,Hounslow,Kingsley Academy,www.kingsleyacademy.org,Hounslow,TW3 1AX,London,no
136341,313,Hounslow,Lampton Academy,http://www.lampton.org.uk,Hounslow,TW3 4EP,London,no
102493,313,Hounslow,Lionel Primary School,http://www.lionelprimaryschool.co.uk/,Brentford,TW8 9QT,London,no
142781,313,Hounslow,Logic Studio School,www.logicstudioschool.org,Feltham,TW13 7EF,London,no
139720,313,Hounslow,Nishkam School West London,www.nishkamschooltrust.org,Osterley,TW7 5PN,London,no
102496,313,Hounslow,Norwood Green Infant and Nursery School,,Southall,UB2 5RN,London,no
139869,313,Hounslow,Norwood Green Junior School,www.ngjs.co.uk,Southall,UB2 5RN,London,no
140718,313,Hounslow,Oak Hill Academy,http://www.oakhill-aspirations.org/,Feltham,TW13 4QP,London,no
102555,313,Hounslow,Oaklands School,https://www.oaklands.hounslow.sch.uk,Hounslow,TW3 4BX,London,no
135562,313,Hounslow,Orchard Primary School,www.orchardprimary.com/,Hounslow,TW4 5JW,London,no
140158,313,Hounslow,Oriel Academy West London,http://www.oriel-aspirations.org/,Feltham,TW13 6QQ,London,no
138266,313,Hounslow,Reach Academy Feltham,https://www.reachacademyfeltham.com/,Feltham,TW13 4AB,London,no
143730,313,Hounslow,Reach Academy Hanworth Park,https://reachacademyhanworthpark.com/,Feltham,TW13 4AB,London,no
137009,313,Hounslow,Rivers Academy West London,http://www.rivers-aspirations.org/,Feltham,TW14 9PE,London,no
145475,313,Hounslow,Southville Primary School,www.southville.hounslow.sch.uk,Feltham,TW14 9NP,London,no
142126,313,Hounslow,Space Studio West London,,Hounslow,TW14 9PE,London,no
148150,313,Hounslow,Sparrow Farm Primary School,www.sparrowfarm.hounslow.sch.uk/,Feltham,TW14 0DG,London,no
102500,313,Hounslow,Spring Grove Primary School,https://www.springgroveprimary.london,Isleworth,TW7 4HB,London,no
146822,313,Hounslow,Springwell School,springwell.org.uk,Hounslow,TW5 9EF,London,no
137618,313,Hounslow,Springwest Academy,http://www.springwestacademy.org,Feltham,TW13 7EF,London,no
102527,313,Hounslow,St Lawrence Catholic Primary School,https://www.st-lawrencesprimary.co.uk/,Feltham,TW13 4FH,London,no
137995,313,Hounslow,St Mark's Catholic School,http://www.st-marks.hounslow.sch.uk/,Hounslow,TW3 3EJ,London,no
102524,313,Hounslow,St Paul's CofE Primary School,https://www.stpauls.hounslow.sch.uk/,Brentford,TW8 0PN,London,no
146474,313,Hounslow,St Richard's Church of England Primary School,www.strichardsschool.org.uk,Hanworth,TW13 6UN,London,no
102504,313,Hounslow,Strand-on-the-Green Infant and Nursery School,https://www.strandinfantandnursery.co.uk,London,W4 3NX,London,no
102503,313,Hounslow,Strand-on-the-Green Junior School,https://www.strandjuniors.org.uk/,London,W4 3NX,London,no
102523,313,Hounslow,The Blue School CofE Primary,https://www.theblueschool.com/,Isleworth,TW7 6RQ,London,no
144515,313,Hounslow,The Green School for Boys,http://tgsboys.com/,Isleworth,TW7 6AU,London,no
139989,313,Hounslow,The Green School for Girls,http://tgsgirls.com/,Isleworth,TW7 5BB,London,no
140360,313,Hounslow,The Rise Free School,www.theriseschool.com,Feltham,TW13 7EF,London,no
135261,313,Hounslow,The Rosary Catholic Primary School,www.rosary.hounslow.sch.uk/,Hounslow,TW5 0RL,London,no
102515,313,Hounslow,The Smallberry Green Primary School,http://www.smallberrygreen.co.uk/,Isleworth,TW7 5BF,London,no
131201,313,Hounslow,The Woodbridge Park Education Service,WWW.WPES.org.uk,Isleworth,TW7 5ED,London,no
102486,313,Hounslow,Victoria Junior School,http://www.victoriajunior.co.uk/,Feltham,TW13 4AQ,London,no
102505,313,Hounslow,Wellington Primary School,https://www.wellington.hounslow.sch.uk,Hounslow,TW3 3BD,London,no
139889,313,Hounslow,Westbrook Primary School,www.westbrookprimary.com,Hounslow,TW5 0NB,London,no
102506,313,Hounslow,Worple Primary School,https://www.worple.hounslow.sch.uk,Isleworth,TW7 7DB,London,no
135831,313,Hounslow,Bedfont Primary School,www.bedfontprimary.co.uk/,London,TW14 9QZ,London,yes
102470,313,Hounslow,Belmont Primary School,https://www.belmontprimaryschool.org.uk,London,W4 5UL,London,yes
102472,313,Hounslow,Cavendish Primary School,http://www.cavendishschool.org.uk/,London,W4 2RG,London,yes
102484,313,Hounslow,Feltham Hill Infant and Nursery School,https://www.fhi.hounslow.sch.uk,Feltham,TW13 4LZ,London,yes
102485,313,Hounslow,Grove Park Primary School,https://www.groveparkprimary.co.uk,London,W4 3JN,London,yes
102545,313,Hounslow,Gunnersbury Catholic School,http://www.gunnersbury.com/,Brentford,TW8 9LB,London,yes
102491,313,Hounslow,Hounslow Town Primary School,https://www.hounslowtownprimary.co.uk,Hounslow,TW3 1QZ,London,yes
102492,313,Hounslow,Isleworth Town Primary School,http://www.isleworthtown.hounslow.sch.uk,Isleworth,TW7 6AB,London,yes
102556,313,Hounslow,Lindon Bennett School,https://www.lindonbennettschool.co.uk,Feltham,TW13 6ST,London,yes
102554,313,Hounslow,Marjory Kinnon School,https://www.marjorykinnonschool.co.uk,Feltham,TW14 9QZ,London,yes
102494,313,Hounslow,Marlborough Primary School,https://www.marlboroughschool.net/,Isleworth,TW7 5XA,London,yes
102526,313,Hounslow,Our Lady and St John's Catholic Primary School,https://ourladyandstjohns.org.uk,Brentford,TW8 9JF,London,yes
102529,313,Hounslow,"St Mary's Catholic Primary School ,Chiswick",https://www.stmaryschiswick.org.uk/,London,W4 2DF,London,yes
102528,313,Hounslow,"St Mary's Catholic Primary School, Isleworth",https://www.smi.hounslow.sch.uk,Isleworth,TW7 7EE,London,yes
102531,313,Hounslow,St Michael and St Martin Catholic Primary School,https://www.stmichaelandstmartin.co.uk,Hounslow,TW4 7AG,London,yes
102558,313,Hounslow,The Cedars Primary School,https://www.cedars.hounslow.sch.uk,Hounslow,TW5 9RU,London,yes
102539,313,Hounslow,The Heathland School,http://www.heathland.hounslow.sch.uk/,Hounslow,TW4 5JD,London,yes
133486,313,Hounslow,The William Hogarth Primary School,www.williamhogarthschool.co.uk/,London,W4 2JR,London,yes
