urn,district_code,district_name,school_name,website,town,postcode,region,has_email_collected
142455,317,Redbridge,Al-Noor Voluntary Aided Muslim Primary School,www.al-noorprimary.org.uk,Ilford,IG3 9RP,London,no
136934,317,Redbridge,Aldborough Primary School,www.aldborough.net/,Ilford,IG3 8HZ,London,no
102823,317,Redbridge,Aldersbrook Primary School,https://www.aldersbrook.redbridge.sch.uk,London,E12 5HL,London,no
138518,317,Redbridge,Ark Isaac Newton Academy,https://isaacnewtonacademy.org/,Ilford,IG1 1FY,London,no
142896,317,Redbridge,Atam Academy,http://www.khalsaacademiestrust.com/293/welcome-to-atam-academy,Romford,RM6 4XX,London,no
142489,317,Redbridge,Avanti Court Primary School,HTTPS://avanti.org.uk/avanticourt,Barkingside,IG6 1LZ,London,no
102840,317,Redbridge,Barley Lane Primary School,http://www.barleylane.redbridge.sch.uk/,Romford,RM6 4RJ,London,no
141006,317,Redbridge,Beacon Business Innovation Hub,http://bbih.org/,Ilford,IG4 5LP,London,no
140575,317,Redbridge,Beal High School,www.bealhighschool.co.uk,Ilford,IG4 5LP,London,no
102849,317,Redbridge,Caterham High School,http://www.ecaterham.net/,Ilford,IG5 0QW,London,no
136267,317,Redbridge,Chadwell Heath Academy,http://chadwellacademy.org.uk/,Romford,RM6 4RS,London,no
133936,317,Redbridge,Churchfields Infants' School,www.churchfieldsinfant.com,London,E18 2RB,London,no
133935,317,Redbridge,Churchfields Junior School,www.churchfieldsjunior.com/,London,E18 2RB,London,no
102798,317,Redbridge,Cleveland Road Primary School,http://www.clevelandroadpri.uk/,Ilford,IG1 1EW,London,no
131682,317,Redbridge,Clore Tikva School,www.cloretikva.redbridge.sch.uk/,Ilford,IG6 2JN,London,no
102837,317,Redbridge,Coppice Primary School,https://www.coppice.redbridge.sch.uk,Chigwell,IG7 4AL,London,no
131625,317,Redbridge,Cranbrook Primary School,www.cranbrookprimary.redbridge.sch.uk/,Ilford,IG1 3PS,London,no
149520,317,Redbridge,Downshall Primary School,www.downshallprimary.co.uk/,Ilford,IG3 8UG,London,no
102802,317,Redbridge,Fairlop Primary School,https://www.fairlop.redbridge.sch.uk,Ilford,IG6 2LH,London,no
145044,317,Redbridge,Farnham Green Primary School,www.farnhamgreen.org.uk,Ilford,IG3 8UY,London,no
137692,317,Redbridge,Forest Academy,http://www.theforestacademy.co.uk,Ilford,IG6 3TN,London,no
102833,317,Redbridge,Fullwood Primary School,https://www.fullwoodprimary.co.uk,Ilford,IG6 1ER,London,no
133934,317,Redbridge,Gearies Primary School,http://www.geariesprimaryschool.co.uk,Ilford,IG2 6TF,London,no
102805,317,Redbridge,Gilbert Colvin Primary School,https://www.gilbertcolvin.co.uk,Ilford,IG5 0TL,London,no
102806,317,Redbridge,Glade Primary School,https://www.glade.redbridge.sch.uk/,Ilford,IG5 0PF,London,no
102808,317,Redbridge,Gordon Primary School,http://www.gordonpri.uk,Ilford,IG1 1SU,London,no
102835,317,Redbridge,Grove Primary School,https://www.grove.redbridge.sch.uk/,Romford,RM6 4XS,London,no
148240,317,Redbridge,Hatchside School,,Ilford,IG2 7SR,London,no
102881,317,Redbridge,Hatton Special School,https://www.hattonspecialschool.co.uk,Woodford Green,IG8 8EU,London,no
131013,317,Redbridge,Highlands Primary School,www.highlandsprimary.co.uk,Ilford,IG1 3LE,London,no
102850,317,Redbridge,Ilford County High School,http://www.ichs.org.uk/,Ilford,IG6 2JB,London,no
102838,317,Redbridge,John Bramston Primary School,http://www.johnbramston.redbridge.sch.uk/,Hainault,IG6 3EE,London,no
102861,317,Redbridge,King Solomon High School,http://www.kshsonline.uk,Ilford,IG6 3HB,London,no
102878,317,Redbridge,Little Heath School,https://www.lheath.net,Romford,RM6 5RX,London,no
140475,317,Redbridge,Loxford School,www.loxford.net,Ilford,IG1 2UT,London,no
102795,317,Redbridge,Manford Primary School,https://www.manfordprimary.co.uk/,Chigwell,IG7 4BX,London,no
131304,317,Redbridge,Mayespark Primary School,www.mayesparkprimaryschool.org.uk/,Ilford,IG3 9PX,London,no
102858,317,Redbridge,Mayfield School,http://www.mayfieldschool.net/,Dagenham,RM8 1XE,London,no
102811,317,Redbridge,Mossford Green Primary School,https://www.mossfordgreen.redbridge.sch.uk,Ilford,IG6 2EW,London,no
102879,317,Redbridge,New Rush Hall School,https://www.newrushhallschool.co.uk,Ilford,IG6 2LB,London,no
144875,317,Redbridge,Newbridge School,www.newbridgeschool.astrum-mat.org,Romford,RM6 4TR,London,no
102812,317,Redbridge,Newbury Park Primary School,http://www.newburyparkschool.net,Ilford,IG2 7LB,London,no
133932,317,Redbridge,Oakdale Infants' School,www.oakdaleinfants.co.uk,London,E18 1JU,London,no
133931,317,Redbridge,Oakdale Junior School,www.oakdalejuniors.co.uk,London,E18 1JX,London,no
133405,317,Redbridge,Oaks Park High School,http://oakspark.co.uk/,Ilford,IG2 7PQ,London,no
147337,317,Redbridge,Our Lady of Lourdes RC Primary School,www.ourladyoflourdesrcprimary.org,London,E11 2TA,London,no
133938,317,Redbridge,Parkhill Infants' School,www.parkhillinfants.org.uk/,Ilford,IG5 0DB,London,no
133939,317,Redbridge,Parkhill Junior School,www.parkhilljunior.com,Ilford,IG5 0DB,London,no
145045,317,Redbridge,Ray Lodge Primary School,www.raylodgeprimary.co.uk/,Woodford Green,IG8 7JQ,London,no
134366,317,Redbridge,Redbridge Alternative Provision,http://www.redbridgeap.co.uk,Ilford,IG6 1PU,London,no
127046,317,Redbridge,Redbridge Primary School,http://redbridgeprimary.redbridge.sch.uk/redbridge/primary/redbridge,Ilford,IG4 5HW,London,no
147340,317,Redbridge,SS Peter and Paul's Catholic Primary School,www.sspeterandpauls.redbridge.sch.uk,Ilford,IG1 1SA,London,no
102856,317,Redbridge,Seven Kings School,https://www.sevenkings.school,Ilford,IG2 7BT,London,no
102832,317,Redbridge,Snaresbrook Primary School,http://www.snaresbrook.redbridge.dbprimary.com/redbridge/primary/snaresbrook,London,E18 2EN,London,no
131930,317,Redbridge,South Park Primary School,www.spps.org.uk/,Ilford,IG3 9HF,London,no
140295,317,Redbridge,St Aidan's Catholic Primary Academy,www.staidansacademy.org/,Ilford,IG1 4AS,London,no
102842,317,Redbridge,St Augustine's Catholic Primary School,https://www.staugustinesschool.org.uk,Ilford,IG2 6RG,London,no
102845,317,Redbridge,St Bede's Catholic Primary School,,Romford,RM6 5RR,London,no
137088,317,Redbridge,The Palmer Catholic Academy,www.tpc.academy,Ilford,IG3 8EU,London,no
137418,317,Redbridge,The Ursuline Academy Ilford,www.uai.org.uk,Ilford,IG1 4JU,London,no
102860,317,Redbridge,Trinity Catholic High School,http://tchs.org.uk,Woodford Green,IG8 0TP,London,no
102819,317,Redbridge,Uphall Primary School,http://www.uphallprimary.co.uk,Ilford,IG1 2JD,London,no
102857,317,Redbridge,Valentines High School,http://www.valentines-sch.org.uk/,Ilford,IG2 6HX,London,no
102841,317,Redbridge,Wanstead Church School,https://www.wansteadchurchsch.co.uk,London,E11 2SS,London,no
102851,317,Redbridge,Wanstead High School,https://www.wansteadhigh.co.uk,London,E11 2JZ,London,no
102831,317,Redbridge,Wells Primary School,https://www.wellsprimary.co.uk,Woodford Green,IG8 0PP,London,no
143617,317,Redbridge,Winston Way Academy,https://www.winstonwayacademy.org.uk/,Ilford,IG1 2WS,London,no
102847,317,Redbridge,Wohl Ilford Jewish Primary School,http://www.ijpsonline.co.uk,Ilford,IG6 3HB,London,no
102854,317,Redbridge,Woodbridge High School,http://www.woodbridgehigh.co.uk/,Woodford Green,IG8 7DQ,London,no
102852,317,Redbridge,Woodford County High School,http://www.woodford.redbridge.sch.uk/,Woodford Green,IG8 9LA,London,no
102834,317,Redbridge,Woodlands Primary School,https://www.woodlandsredbridge.co.uk,Ilford,IG1 2PY,London,no
102836,317,Redbridge,Chadwell Primary School,https://www.chadwellprimaryschool.co.uk/,Romford,RM6 4EU,London,yes
131847,317,Redbridge,Christchurch Primary School,www.christchurchprimary.co.uk,Ilford,IG1 4LQ,London,yes
102807,317,Redbridge,Goodmayes Primary School,http://goodmayesprimary.school,Ilford,IG3 9RW,London,yes
102839,317,Redbridge,Nightingale Primary School,https://www.nightingale.redbridge.sch.uk,London,E18 1PL,London,yes
102830,317,Redbridge,Roding Primary School,https://www.rodingprimary.co.uk,Woodford Green,IG8 8NP,London,yes
102844,317,Redbridge,St Antony's Catholic Primary School,http://www.stantonyscatholicps.co.uk/,Woodford Green,IG8 0TX,London,yes
102794,317,Redbridge,The Constance Bridgeman Centre,http://www.constancebridgeman.co.uk,Ilford,IG1 2UT,London,yes
102820,317,Redbridge,William Torbitt Primary School,https://www.williamtorbitt.redbridge.sch.uk/,Ilford,IG2 7SS,London,yes
