urn,district_code,district_name,school_name,website,town,postcode,region,has_email_collected
147669,330,Birmingham,Abbey Catholic Primary School,www.abbeyrc.bham.sch.uk,Birmingham,B23 6QL,West Midlands,no
139443,330,Birmingham,Acocks Green Primary School,http://www.acocksgreen.bham.sch.uk/,Birmingham,B27 7UQ,West Midlands,no
103140,330,Birmingham,Adderley Nursery School,,Birmingham,B8 1HN,West Midlands,no
103159,330,Birmingham,Adderley Primary School,https://www.adderleyprimary.co.uk/,Birmingham,B8 1DZ,West Midlands,no
131465,330,Birmingham,Al-Furqan Primary School,www.al-furqan-pri.bham.sch.uk,Birmingham,B11 3EY,West Midlands,no
140889,330,Birmingham,Albert Bradbeer Primary Academy,www.abp.greenheartlearning.org,Birmingham,B31 4RD,West Midlands,no
103130,330,Birmingham,Allens Croft Nursery School,www.allenscn.bham.sch.uk,Birmingham,B14 6RP,West Midlands,no
103243,330,Birmingham,Allens Croft Primary School,https://www.allcroft.bham.sch.uk,Birmingham,B14 6RP,West Midlands,no
140656,330,Birmingham,Alston Primary School,www.alston.bham.sch.uk,Birmingham,B9 5UN,West Midlands,no
103192,330,Birmingham,Anderton Park Primary School,https://www.andertonparkschool.org/,Birmingham,B12 8BL,West Midlands,no
132074,330,Birmingham,Anglesey Primary School,www.angleseysch-bham.co.uk/,Birmingham,B19 1RA,West Midlands,no
146124,330,Birmingham,Archbishop Ilsley Catholic School,http://www.ilsley.bham.sch.uk/,Birmingham,B27 7XY,West Midlands,no
103324,330,Birmingham,Arden Primary School,https://www.arden.bham.sch.uk,Birmingham,B11 4SF,West Midlands,no
145580,330,Birmingham,Arena Academy,https://corearena.academy,Birmingham,B42 2PY,West Midlands,no
140014,330,Birmingham,Ark Boulton Academy,http://arkboulton.org/,Birmingham,B11 2QG,West Midlands,no
137578,330,Birmingham,Ark Kings Academy,http://arkkingsacademy.org,Birmingham,B38 9DE,West Midlands,no
138397,330,Birmingham,Ark Tindal Primary Academy,www.arktindalprimary.org/,Birmingham,B12 9QS,West Midlands,no
141752,330,Birmingham,Ark Victoria Academy,www.arkvictoria.org,Birmingham,B10 0HJ,West Midlands,no
136882,330,Birmingham,Aston Manor Academy,http://www.astonmanor.bham.sch.uk/,Birmingham,B6 4PZ,West Midlands,no
142686,330,Birmingham,Aston Tower Community Primary School,www.astontowerprimary.co.uk/,Birmingham,B6 5BE,West Midlands,no
138222,330,Birmingham,Aston University Engineering Academy,www.auea.co.uk,Birmingham,B7 4AG,West Midlands,no
143437,330,Birmingham,Audley Primary School,www.audley.drbignitemat.org,Birmingham,B33 9HY,West Midlands,no
149042,330,Birmingham,BOA Digital Technologies Academy,https://www.boa-digital.co.uk,Birmingham,B7 4EU,West Midlands,no
148635,330,Birmingham,BOA Stage and Screen Production Academy,www.boa-stageandscreen.co.uk,Birmingham,B18 7AJ,West Midlands,no
103162,330,Birmingham,Barford Primary School,https://www.barfordprimary.co.uk,Birmingham,B16 0EF,West Midlands,no
138694,330,Birmingham,Barr View Primary & Nursery Academy,www.barrview.bham.sch.uk,Birmingham,B44 8NT,West Midlands,no
136589,330,Birmingham,Bartley Green School,https://www.bartleygreenschool.co.uk/,Birmingham,B32 3QJ,West Midlands,no
103606,330,Birmingham,Baskerville School,https://www.baskerville.school,Birmingham,B17 9TS,West Midlands,no
103164,330,Birmingham,Beeches Infant School,www.beechesinf.bham.sch.uk,Birmingham,B42 2PY,West Midlands,no
103163,330,Birmingham,Beeches Junior School,https://www.beechesjnr.bham.sch.uk/,Birmingham,B42 2PY,West Midlands,no
103289,330,Birmingham,Bellfield Infant School (NC),https://www.bellfieldinfants.co.uk/,Birmingham,B31 1PT,West Midlands,no
103291,330,Birmingham,Bellfield Junior School,https://www.bellfield-jun.bham.sch.uk/,Birmingham,B31 1PT,West Midlands,no
103383,330,Birmingham,Bells Farm Primary School,https://www.bellsfarm.org/,Birmingham,B14 5QP,West Midlands,no
138888,330,Birmingham,Billesley Primary School,www.billesleyschool.co.uk,Birmingham,B13 0ES,West Midlands,no
150054,330,Birmingham,Birches Green Primary School,www.birchesgreen.co.uk,Birmingham,B24 9SR,West Midlands,no
146075,330,Birmingham,Birchfield Primary School,http://www.birchfld.bham.sch.uk/,Birmingham,B6 6AJ,West Midlands,no
136944,330,Birmingham,Birmingham Ormiston Academy,http://www.boa-academy.co.uk/,Birmingham,B4 7QD,West Midlands,no
103560,330,Birmingham,Bishop Challoner Catholic College,http://www.bishopchalloner.org.uk/,Birmingham,B14 7EG,West Midlands,no
137988,330,Birmingham,Bishop Vesey's Grammar School,http://www.bvgs.co.uk/,Sutton Coldfield,B74 2NH,West Midlands,no
140524,330,Birmingham,Bishop Walsh Catholic School,http://bishopwalsh.net/,Sutton Coldfield,B76 1QT,West Midlands,no
103300,330,Birmingham,Blakesley Hall Primary School,https://www.blakesley.bham.sch.uk,Birmingham,B33 8TH,West Midlands,no
103138,330,Birmingham,Bloomsbury Nursery School,https://www.bloomsburynurseryschool.co.uk/,Birmingham,B7 5BX,West Midlands,no
103342,330,Birmingham,Boldmere Infant School and Nursery,https://boldmere.bham.sch.uk/,Sutton Coldfield,B73 5SD,West Midlands,no
103341,330,Birmingham,Boldmere Junior School,https://boldmere.bham.sch.uk/,Sutton Coldfield,B73 5SD,West Midlands,no
103120,330,Birmingham,Bordesley Green East Nursery School,https://www.bgens.bham.sch.uk,Birmingham,B33 8QB,West Midlands,no
103172,330,Birmingham,Bordesley Green Primary School,https://www.bordsgrn.bham.sch.uk/,Birmingham,B9 5XX,West Midlands,no
144337,330,Birmingham,Bordesley Village Primary School,https://bvcs.eschools.co.uk/,Birmingham,B9 4NG,West Midlands,no
141318,330,Birmingham,Bournville School,http://www.bournvilleschool.org/,Birmingham,B30 1SH,West Midlands,no
103611,330,Birmingham,Braidwood School for the Deaf,http://www.braidwood.bham.sch.uk,Birmingham,B36 8AF,West Midlands,no
144042,330,Birmingham,Brays School,www.brays.fet.ac,Birmingham,B26 1NS,West Midlands,no
103121,330,Birmingham,Brearley Nursery School,http://atschool.eduweb.co.uk/brearley/informat.htm,Birmingham,B19 3XJ,West Midlands,no
103288,330,Birmingham,Broadmeadow Infant School,https://www.brdmedoi.bham.sch.uk/,Birmingham,B30 3QJ,West Midlands,no
103286,330,Birmingham,Broadmeadow Junior School,http://www.broadmeadow-jun.bham.sch.uk,Birmingham,B30 3QJ,West Midlands,no
139841,330,Birmingham,Broadway Academy,http://www.broadway-academy.co.uk,Birmingham,B20 3DP,West Midlands,no
146437,330,Birmingham,Brookfields Primary School,www.brookfields.bham.sch.uk,Birmingham,B18 6PU,West Midlands,no
139465,330,Birmingham,Brookvale Primary School,www.brkvale.bham.sch.uk,Birmingham,B23 7YB,West Midlands,no
141320,330,Birmingham,Brownmead Primary Academy,https://brownmead.academy,Birmingham,B34 6SS,West Midlands,no
103391,330,Birmingham,Calshot Primary School,https://www.calshot.bham.sch.uk/,Birmingham,B42 2BY,West Midlands,no
141252,330,Birmingham,Calthorpe Academy,http://www.calthorpe.thrive.ac,Birmingham,B12 0TP,West Midlands,no
143942,330,Birmingham,Canterbury Cross Primary School,www.canterburycross.org.uk/,Birmingham,B20 3AA,West Midlands,no
103539,330,Birmingham,Cardinal Wiseman Catholic School,http://www.cardinalwiseman.net/,Birmingham,B44 9SR,West Midlands,no
103144,330,Birmingham,Castle Vale Nursery School,https://www.castlevalenursery.co.uk/,Birmingham,B35 6DU,West Midlands,no
143088,330,Birmingham,Cedars Academy,http://www.cedarsacademy.co.uk,Birmingham,B27 6JL,West Midlands,no
103332,330,Birmingham,Chad Vale Primary School,https://www.chadvale.bham.sch.uk,Birmingham,B15 3JU,West Midlands,no
143908,330,Birmingham,Chandos Primary School,www.chandosprimary.org,Birmingham,B12 0YN,West Midlands,no
103178,330,Birmingham,Cherry Orchard Primary School,https://www.cherryorchard.bham.sch.uk,Birmingham,B20 2LB,West Midlands,no
103298,330,Birmingham,Chilcote Primary School,https://www.chilcoteschool.com/,Birmingham,B28 0PB,West Midlands,no
138395,330,Birmingham,Chilwell Croft Academy,www.chilwellcroftacademy.com,Birmingham,B19 2QH,West Midlands,no
140159,330,Birmingham,Chivenor Primary School,www.chivenor-gst.org,Birmingham,B35 7JA,West Midlands,no
103397,330,Birmingham,Christ Church CofE Controlled Primary School and Nursery,https://www.christch.bham.sch.uk/,Birmingham,B11 1LF,West Midlands,no
148589,330,Birmingham,"Christ Church, Church of England Secondary Academy",https://www.christchurchsecondary.org.uk/,Birmingham,B14 4HN,West Midlands,no
103423,330,Birmingham,Christ The King Catholic Primary School,http://www.christkng.bham.sch.uk,Birmingham,B44 0QN,West Midlands,no
148187,330,Birmingham,City Academy,http://www.corecity.academy,Birmingham,B15 2EF,West Midlands,no
146385,330,Birmingham,City Road Primary School,www.cityroad.bham.sch.uk,Birmingham,B16 0HL,West Midlands,no
103146,330,Birmingham,City of Birmingham School,https://www.cityofbirminghamschool.com,Birmingham,B11 4LX,West Midlands,no
134840,330,Birmingham,Clifton Primary School,www.cliftonprimary.bham.sch.uk,Birmingham,B12 8NX,West Midlands,no
142388,330,Birmingham,Cockshut Hill School,www.cockshuthill.org.uk,Birmingham,B26 2HX,West Midlands,no
103315,330,Birmingham,Cofton Primary School,http://www.cofton.bham.sch.uk,Birmingham,B31 4ST,West Midlands,no
146696,330,Birmingham,Colmers Farm Primary School,www.colmersfarm.excelsiormat.org,Birmingham,B45 9PB,West Midlands,no
103563,330,Birmingham,Colmers School and Sixth Form College,http://www.colmers.bham.sch.uk/,Birmingham,B45 9NY,West Midlands,no
103189,330,Birmingham,Colmore Infant and Nursery School,https://www.colmoreinf.co.uk,Birmingham,B14 6AJ,West Midlands,no
103188,330,Birmingham,Colmore Junior School,https://www.colmorej.co.uk,Birmingham,B14 6AJ,West Midlands,no
143086,330,Birmingham,Conway Primary School,www.conway.bham.sch.uk,Birmingham,B11 1NS,West Midlands,no
103390,330,Birmingham,Coppice Primary School,http://coppiceprimary.org,Sutton Coldfield,B75 6TJ,West Midlands,no
103424,330,Birmingham,Corpus Christi Catholic Primary School,www.corpuschristi.bham.dbprimary.com/,Birmingham,B33 8BL,West Midlands,no
103190,330,Birmingham,Cotteridge Primary School,https://www.cotteridgeprimary.co.uk,Birmingham,B30 2HT,West Midlands,no
140706,330,Birmingham,Cottesbrooke Infant and Nursery School,www.cottesbrooke-inf.bham.sch.uk,Birmingham,B27 6LG,West Midlands,no
151017,330,Birmingham,Court Farm Primary School,www.courtfrm.bham.sch.uk/,Birmingham,B23 5NS,West Midlands,no
143563,330,Birmingham,Cromwell Junior and Infant School,https://cromwell.eschools.co.uk/,Birmingham,B7 5BA,West Midlands,no
143438,330,Birmingham,Dame Elizabeth Cadbury School,www.decschool.co.uk,Birmingham,B30 1UL,West Midlands,no
150709,330,Birmingham,Deykin Avenue Junior and Infant School,,Birmingham,B6 7BU,West Midlands,no
138218,330,Birmingham,Dorrington Academy,www.dorringtonacademy.co.uk/,Birmingham,B42 1QR,West Midlands,no
138396,330,Birmingham,E-ACT Nechells Academy,http://nechellsacademy.e-act.org.uk/,Birmingham,B7 5LB,West Midlands,no
136032,330,Birmingham,E-ACT North Birmingham Academy,https://northbirminghamacademy.e-act.org.uk/,Birmingham,B44 0HF,West Midlands,no
138775,330,Birmingham,East Birmingham Network Academy,http://ebnacademy.co.uk/,Birmingham,B26 1AL,West Midlands,no
141739,330,Birmingham,Ebn Academy 2,http://ebnacademy2.co.uk/,Birmingham,B35 7PR,West Midlands,no
145878,330,Birmingham,"Eden Boys' Leadership Academy, Birmingham East",https://www.edenboysbirminghameast.com,Birmingham,B8 3DT,West Midlands,no
141969,330,Birmingham,"Eden Boys' School, Birmingham",http://www.edenboysbirmingham.com/,Birmingham,B42 2SY,West Midlands,no
147201,330,Birmingham,"Eden Girls' Leadership Academy, Birmingham",www.edengirlsbirmingham.org,Birmingham,B10 9HH,West Midlands,no
103150,330,Birmingham,Edith Cadbury Nursery School,https://www.edithcadbury.bham.sch.uk,Birmingham,B29 5LB,West Midlands,no
103381,330,Birmingham,Elms Farm Community Primary School,www.elmsfarmschool.co.uk,Birmingham,B33 0PJ,West Midlands,no
103425,330,Birmingham,English Martyrs' Catholic Primary School,https://www.englishmartyrscatholicprimaryschool.co.uk,Birmingham,B11 3JW,West Midlands,no
143413,330,Birmingham,Erdington Academy,http://www.erdingtonacademy.bham.sch.uk/,Birmingham,B24 8RE,West Midlands,no
138194,330,Birmingham,Erdington Hall Primary School,www.erdingtonhall.org.uk,Birmingham,B24 8JJ,West Midlands,no
136908,330,Birmingham,Fairfax,http://www.fairfax.bham.sch.uk,Sutton Coldfield,B75 7JT,West Midlands,no
139484,330,Birmingham,Fairway Primary Academy,https://fwp.greenheartlearning.org/,Birmingham,B38 8XQ,West Midlands,no
103139,330,Birmingham,Featherstone Nursery School,https://www.featherstonenurseryschool.co.uk,Birmingham,B23 6AU,West Midlands,no
103318,330,Birmingham,Featherstone Primary School,http://www.featherstoneprimaryschool.co.uk,Birmingham,B23 6PR,West Midlands,no
143089,330,Birmingham,Firs Primary School,www.firs.academy,Birmingham,B36 8LL,West Midlands,no
133759,330,Birmingham,Forestdale Primary School,www.forestdale.bham.sch.uk/,Birmingham,B45 0JS,West Midlands,no
143435,330,Birmingham,Fortis Academy,http://fortisacademy.org.uk/,Birmingham,B44 8NU,West Midlands,no
139047,330,Birmingham,Four Dwellings Academy,http://www.fourdwellingsacademy.org/,Birmingham,B32 1RJ,West Midlands,no
139131,330,Birmingham,Four Dwellings Primary Academy,www.fourdwellingsprimaryacademy.org,Birmingham,B32 1PJ,West Midlands,no
131920,330,Birmingham,Four Oaks Primary School,www.fouroaksprimary.bham.sch.uk/,Sutton Coldfield,B74 4PA,West Midlands,no
103122,330,Birmingham,Garretts Green Nursery School,garrettsgreen.org.uk,Birmingham,B26 2JL,West Midlands,no
138695,330,Birmingham,George Dixon Academy,www.georgedixonacademy.com,Birmingham,B16 9GD,West Midlands,no
103200,330,Birmingham,George Dixon Primary School,https://www.georgedixonprimary.bham.sch.uk/,Birmingham,B17 8LE,West Midlands,no
103201,330,Birmingham,Gilbertstone Primary School,http://www.gilbertstoneprimary.com,Birmingham,B26 1EH,West Midlands,no
103320,330,Birmingham,Glenmead Primary School,https://www.glenmead.bham.sch.uk,Birmingham,B44 8UQ,West Midlands,no
103128,330,Birmingham,Goodway Nursery School,http://www.goodwayn.bham.sch.uk,Birmingham,B44 8RL,West Midlands,no
142794,330,Birmingham,Gossey Lane Academy,www.gosseylane.academy,Birmingham,B33 0DS,West Midlands,no
103135,330,Birmingham,Gracelands Nursery School,https://www.grclands.bham.sch.uk,Birmingham,B11 1ED,West Midlands,no
141610,330,Birmingham,Green Meadow Primary School,http://www.greenmeadow.excelsiormat.org,Birmingham,B29 4EE,West Midlands,no
138693,330,Birmingham,Greenholm Primary School,www.grnholm.bham.sch.uk,Birmingham,B44 8HS,West Midlands,no
139048,330,Birmingham,Greenwood Academy,,Birmingham,B35 7NL,West Midlands,no
143090,330,Birmingham,Greet Primary School,http://www.greet.bham.sch.uk,Birmingham,B11 3ND,West Midlands,no
103205,330,Birmingham,Grendon Primary School,http://www.grendon.bham.sch.uk,Birmingham,B14 4RB,West Midlands,no
139904,330,Birmingham,Grestone Academy,www.grestoneacademy.com,Birmingham,B20 1ND,West Midlands,no
103392,330,Birmingham,Grove School,https://www.grove.bham.sch.uk,Birmingham,B21 9HB,West Midlands,no
148081,330,Birmingham,Guardian Angels Catholic Primary School,www.grdangel.bham.sch.uk/,Birmingham,B34 7HN,West Midlands,no
103208,330,Birmingham,Gunter Primary School,https://www.gunterprimary.org,Birmingham,B24 0RU,West Midlands,no
103210,330,Birmingham,Hall Green Infant School,https://www.hallgreeninfant.co.uk/,Birmingham,B28 0AR,West Midlands,no
103209,330,Birmingham,Hall Green Junior School,http://www.hallgrnj.bham.sch.uk,Birmingham,B28 9AJ,West Midlands,no
137858,330,Birmingham,Hall Green School,http://www.hallgreen.bham.sch.uk/,Birmingham,B28 0AA,West Midlands,no
144336,330,Birmingham,Hallmoor School,www.hallmoor.fet.ac,Birmingham,B33 0DL,West Midlands,no
103600,330,Birmingham,Hamilton School,https://www.hamilton.bham.sch.uk,Birmingham,B21 8AH,West Midlands,no
139746,330,Birmingham,Hamstead Hall Academy,www.hamsteadhall.com,Birmingham,B20 1HL,West Midlands,no
136213,330,Birmingham,Harborne Academy,http://www.harborneacademy.co.uk/,Birmingham,B15 3JL,West Midlands,no
132261,330,Birmingham,Harborne Primary School,www.harborneprimary.co.uk,Birmingham,B17 9LU,West Midlands,no
136440,330,Birmingham,Harper Bell Seventh-day Adventist School,http://www.hbsda.bham.sch.uk,Birmingham,B12 0EJ,West Midlands,no
139269,330,Birmingham,Hawkesley Church Primary Academy,www.hawkesley.bham.sch.uk/,Birmingham,B38 9TR,West Midlands,no
103214,330,Birmingham,Hawthorn Primary School,https://www.hawthornprimaryschool.co.uk,Birmingham,B44 8QR,West Midlands,no
149366,330,Birmingham,Heath Mount Primary School,http://www.heathmountprimary.co.uk,BIRMINGHAM,B12 9SR,West Midlands,no
142231,330,Birmingham,Heathfield Primary School,www.heathfld.bham.sch.uk,Birmingham,B19 1HJ,West Midlands,no
140890,330,Birmingham,Heathlands Primary Academy,https://hpa.greenheartlearning.org/,Birmingham,B34 6NB,West Midlands,no
142570,330,Birmingham,Highfield Junior and Infant School,,Birmingham,B8 3QF,West Midlands,no
103125,330,Birmingham,Highfield Nursery School,https://www.hifieldn.bham.sch.uk,Birmingham,B8 3QU,West Midlands,no
149483,330,Birmingham,Highters Heath Community School,,Birmingham,B14 4LY,West Midlands,no
103134,330,Birmingham,Highters Heath Nursery School,https://www.hightersheathnursery.org.uk,Birmingham,B14 4BH,West Midlands,no
139520,330,Birmingham,Hill West Primary School,www.hillwest.bham.sch.uk/,Sutton Coldfield,B74 4LD,West Midlands,no
137346,330,Birmingham,Hillcrest School and Sixth Form Centre,http://hillcrest.bham.sch.uk/,Birmingham,B32 3AE,West Midlands,no
141270,330,Birmingham,Hillstone Primary School,www.hillstone.org.uk,Birmingham,B34 7PY,West Midlands,no
103483,330,Birmingham,Hodge Hill Girls' School,http://www.hodgehgs.bham.sch.uk/,Birmingham,B36 8EY,West Midlands,no
143869,330,Birmingham,Hodge Hill Primary School,www.hodgehillprimary.bham.sch.uk,Birmingham,B36 8LD,West Midlands,no
149305,330,Birmingham,Holland House Infant School and Nursery,www.hollandh.bham.sch.uk,Sutton Coldfield,B72 1RE,West Midlands,no
103479,330,Birmingham,Holly Hill Methodist CofE Infant School,https://www.hollyhill.bham.sch.uk,Birmingham,B45 0EU,West Midlands,no
149607,330,Birmingham,Hollywood Primary School,www.hollywoodprimaryschool.co.uk,Birmingham,B14 4TG,West Midlands,no
103509,330,Birmingham,Holte School,https://frog.holte.bham.sch.uk/app/os#!welcome/home,Birmingham,B19 2EP,West Midlands,no
140525,330,Birmingham,Holy Cross Catholic Primary School,www.holycross-sch.net/,Sutton Coldfield,B76 2SP,West Midlands,no
103421,330,Birmingham,Holy Family Catholic Primary School,http://www.holyfam.bham.sch.uk,Birmingham,B10 0HT,West Midlands,no
147009,330,Birmingham,Holy Souls Catholic Primary School,https://www.holysoul.bham.sch.uk,Birmingham,B27 6BN,West Midlands,no
140463,330,Birmingham,Holy Trinity CE Primary Academy (Handsworth),http://www.htcepa.bham.sch.uk,Birmingham,B20 3LP,West Midlands,no
144719,330,Birmingham,Holy Trinity Catholic School,,Birmingham,B10 0AX,West Midlands,no
137034,330,Birmingham,Holyhead School,https://www.holyheadschool.org.uk/,Birmingham,B21 0HN,West Midlands,no
103136,330,Birmingham,Jakeman Nursery School,https://www.jakeman.bham.sch.uk,Birmingham,B12 9NX,West Midlands,no
139526,330,Birmingham,James Brindley School,http://www.jamesbrindley.org.uk,Birmingham,B15 2AF,West Midlands,no
142353,330,Birmingham,Jervoise School,http://www.jervoise.drbignitemat.org,Birmingham,B29 5QU,West Midlands,no
141003,330,Birmingham,Jewellery Quarter Academy,www.corejewelleryquarter.academy,Birmingham,B1 3AA,West Midlands,no
137043,330,Birmingham,King Edward VI Aston School,http://www.keaston.bham.sch.uk/,Birmingham,B6 6DJ,West Midlands,no
147440,330,Birmingham,King Edward VI Balaam Wood Academy,bwa.kevibham.org,Birmingham,B45 0EU,West Midlands,no
137045,330,Birmingham,King Edward VI Camp Hill School for Boys,http://www.camphillboys.bham.sch.uk/,Birmingham,B14 7QJ,West Midlands,no
137044,330,Birmingham,King Edward VI Camp Hill School for Girls,http://www.kechg.org.uk,Birmingham,B14 7QJ,West Midlands,no
137046,330,Birmingham,King Edward VI Five Ways School,www.kefw.org,Birmingham,B32 4BT,West Midlands,no
143562,330,Birmingham,King Edward VI Handsworth Grammar School for Boys,http://www.handsworth.bham.sch.uk/,Birmingham,B21 9ET,West Midlands,no
137047,330,Birmingham,King Edward VI Handsworth School,http://www.kingedwardvi.bham.sch.uk/,Birmingham,B21 9AR,West Midlands,no
138937,330,Birmingham,King Edward VI Handsworth Wood Girls' Academy,www.hwga.org.uk,Birmingham,B20 2HL,West Midlands,no
150320,330,Birmingham,King Edward VI King's Norton School for Boys,http://www.knbs.co.uk/,Birmingham,B30 1DY,West Midlands,no
136592,330,Birmingham,King Edward VI Lordswood School for Girls,http://www.lordswoodgirls.co.uk/,Birmingham,B17 8QB,West Midlands,no
148684,330,Birmingham,King Edward VI Northfield School for Girls,http://nsg.kevibham.org,Birmingham,B31 4BP,West Midlands,no
136152,330,Birmingham,King Edward VI Sheldon Heath Academy,http://www.keshacademy.com/,Birmingham,B26 2RZ,West Midlands,no
103486,330,Birmingham,Kings Heath Secondary School,https://www.khss.org.uk/,Birmingham,B13 0QP,West Midlands,no
136590,330,Birmingham,Kings Norton Girls' School,http://www.kngs.co.uk/,Birmingham,B30 1HW,West Midlands,no
149131,330,Birmingham,Kings Norton Junior and Infant School,https://www.knps.org.uk,BIRMINGHAM,B30 3EU,West Midlands,no
103129,330,Birmingham,Kings Norton Nursery School,https://www.kingsnortonnurseryschool.org.uk,Birmingham,B38 8SY,West Midlands,no
138889,330,Birmingham,Kings Rise Academy,https://www.kingsrise.org,Birmingham,B44 0JL,West Midlands,no
103221,330,Birmingham,Kingsland Primary School (NC),https://www.kingsland.bham.sch.uk,Birmingham,B44 9NA,West Midlands,no
103368,330,Birmingham,Kingsthorne Primary School,https://www.kingsthorneprimary.co.uk/,Birmingham,B44 0BX,West Midlands,no
103339,330,Birmingham,Kitwell Primary School,https://www.kitwellschool.com/,Birmingham,B32 4DL,West Midlands,no
150181,330,Birmingham,Lakey Lane Primary School,www.lakeylaneprimary.co.uk,Birmingham,B28 8RY,West Midlands,no
139003,330,Birmingham,Lea Forest Primary Academy,www.leaforestacademy.org,Birmingham,B33 9RD,West Midlands,no
148722,330,Birmingham,Lea Hall Academy,http://www.leahall.fet.ac,Birmingham,B33 9QY,West Midlands,no
140502,330,Birmingham,Leigh Primary School,www.leighji.bham.sch.uk/,Birmingham,B8 2YH,West Midlands,no
148653,330,Birmingham,Leycroft Academy,https://leycroft.fet.ac/,Birmingham,B33 9UE,West Midlands,no
103137,330,Birmingham,Lillian De Lissa Nursery School,http://lilliandelissa.sch.life,Birmingham,B5 7LX,West Midlands,no
103388,330,Birmingham,Little Sutton Primary School,https://www.littlesu.org,Sutton Coldfield,B75 5NL,West Midlands,no
103603,330,Birmingham,Longwill A Primary School for Deaf Children,https://www.longwill.bham.sch.uk,Birmingham,B31 1LD,West Midlands,no
145120,330,Birmingham,Lordswood Boys' School,www.lordswoodboys.co.uk,Birmingham,B17 8BJ,West Midlands,no
103227,330,Birmingham,Lozells Junior and Infant School and Nursery,http://www.lozells.bham.sch.uk/,Birmingham,B19 2EP,West Midlands,no
103229,330,Birmingham,Lyndon Green Infant School,http://www.lyndongi.bham.sch.uk,Birmingham,B26 1LZ,West Midlands,no
103228,330,Birmingham,Lyndon Green Junior School,https://www.lgjs.co.uk,Birmingham,B26 1LU,West Midlands,no
141977,330,Birmingham,Manor Park Primary Academy,www.manorparkacademy.co.uk,Birmingham,B6 5UQ,West Midlands,no
138998,330,Birmingham,Mansfield Green E-ACT Academy,https://mansfieldgreenacademy.e-act.org.uk/,Birmingham,B6 5NH,West Midlands,no
134094,330,Birmingham,Mapledene Primary School,http://www.mapledene.bham.sch.uk/,Birmingham,B26 3XE,West Midlands,no
146701,330,Birmingham,Marlborough Primary School,www.mps.bham.sch.uk,Birmingham,B10 9NY,West Midlands,no
103126,330,Birmingham,Marsh Hill Nursery School,https://www.marshiln.bham.sch.uk,Birmingham,B23 7HG,West Midlands,no
103233,330,Birmingham,Marsh Hill Primary School,https://www.marshill.bham.sch.uk/,Birmingham,B23 7HY,West Midlands,no
103426,330,Birmingham,Maryvale Catholic Primary School,https://www.maryvaleprimary.org.uk/,Birmingham,B44 9AG,West Midlands,no
148225,330,Birmingham,Mayfield School,https://mayfield.eiat.org.uk,Birmingham,B19 1HJ,West Midlands,no
139452,330,Birmingham,Mere Green Primary School,www.meregrn.bham.sch.uk/,Sutton Coldfield,B75 5BL,West Midlands,no
139014,330,Birmingham,Merritts Brook Primary E-ACT Academy,https://merrittsbrookacademy.e-act.org.uk/,Birmingham,B31 5QD,West Midlands,no
138864,330,Birmingham,Montgomery Primary Academy,www.montgomeryprimaryacademy.org,Birmingham,B11 1EH,West Midlands,no
139000,330,Birmingham,Moor Green Primary Academy,www.moorgreenprimary.org.uk,Birmingham,B13 8QP,West Midlands,no
103351,330,Birmingham,Moor Hall Primary School,https://www.moorhall.bham.sch.uk/,Sutton Coldfield,B75 6RE,West Midlands,no
103398,330,Birmingham,Moseley Church of England Primary School,https://www.moseleyce.bham.sch.uk,Birmingham,B13 9EH,West Midlands,no
103519,330,Birmingham,Moseley School and Sixth Form,http://www.moseley.bham.sch.uk,Birmingham,B13 9UU,West Midlands,no
138799,330,Birmingham,Nansen Primary School,www.nansen.bham.sch.uk,Birmingham,B8 3HG,West Midlands,no
103237,330,Birmingham,Nelson Junior and Infant School,https://www.nelson.bham.sch.uk/,Birmingham,B1 2PJ,West Midlands,no
103384,330,Birmingham,Nelson Mandela School,https://www.nelsonmandelaschool.co.uk/,Birmingham,B12 8EH,West Midlands,no
103395,330,Birmingham,New Hall Primary School,https://www.newhall.bham.sch.uk,Sutton Coldfield,B75 7NQ,West Midlands,no
134774,330,Birmingham,New Oscott Primary School,www.newoscott.bham.sch.uk/,Sutton Coldfield,B73 6QR,West Midlands,no
103141,330,Birmingham,Newtown Nursery School,https://www.newtownn.bham.sch.uk,Birmingham,B19 2NS,West Midlands,no
136406,330,Birmingham,"Ninestiles, an Academy",www.ninestiles.org.uk,Birmingham,B27 7QG,West Midlands,no
138586,330,Birmingham,Nishkam High School,http://www.nishkamschooltrust.org/,Birmingham,B19 2LF,West Midlands,no
137492,330,Birmingham,Nishkam Primary School Birmingham,www.nishkamschooltrust.org,Birmingham,B21 9SN,West Midlands,no
142358,330,Birmingham,Nonsuch Primary School,https://www.nonsuch.bham.sch.uk,Birmingham,B32 3SE,West Midlands,no
142203,330,Birmingham,Northfield Manor Primary Academy,https://northfieldmanoracademy.org.uk/,Birmingham,B29 4JT,West Midlands,no
150692,330,Birmingham,Oasis Academy Benson,,Birmingham,B18 5TD,West Midlands,no
139120,330,Birmingham,Oasis Academy Blakenhale Infants,www.oasisacademyblakenhaleinfants.org,Birmingham,B33 0XD,West Midlands,no
139129,330,Birmingham,Oasis Academy Blakenhale Junior,www.oasisacademyblakenhalejunior.org,Birmingham,B33 0XG,West Midlands,no
139242,330,Birmingham,Oasis Academy Boulton,http://www.oasisacademyboulton.org,Birmingham,B21 0RE,West Midlands,no
140161,330,Birmingham,Oasis Academy Foundry,www.oasisacademyfoundry.org,Birmingham,B18 4LP,West Midlands,no
139214,330,Birmingham,Oasis Academy Hobmoor,www.oasisacademyhobmoor.org/,Birmingham,B25 8FD,West Midlands,no
139125,330,Birmingham,Oasis Academy Short Heath,www.oasisacademyshortheath.org/,Birmingham,B23 5JP,West Midlands,no
139128,330,Birmingham,Oasis Academy Woodview,www.oasisacademywoodview.org,Birmingham,B15 2HU,West Midlands,no
150894,330,Birmingham,Oasis Wattville Academy,,Birmingham,B21 0DP,West Midlands,no
103145,330,Birmingham,Osborne Nursery School,https://www.osbornenurseryschool.co.uk,Birmingham,B23 6UB,West Midlands,no
147758,330,Birmingham,Osborne Primary School,www.osborne-pri.bham.sch.uk,Birmingham,B23 6TY,West Midlands,no
103443,330,Birmingham,Our Lady and St Rose of Lima Catholic Primary School,https://www.olstrose.bham.sch.uk,Birmingham,B29 5DY,West Midlands,no
141484,330,Birmingham,Our Lady of Fatima Catholic Primary School,www.olfatima.bham.sch.uk,Birmingham,B17 8TR,West Midlands,no
148082,330,Birmingham,Our Lady's Catholic Primary School,www.ourladys.bham.sch.uk/,Birmingham,B33 0AU,West Midlands,no
150148,330,Birmingham,Paganel Primary School,www.paganel.drbignitemat.org,Birmingham,B29 5TG,West Midlands,no
150639,330,Birmingham,Paget Primary School,www.paget.bham.sch.uk/,Birmingham,B24 0JP,West Midlands,no
103241,330,Birmingham,Park Hill Primary School,https://www.parkhill.bham.sch.uk/,Birmingham,B13 8BB,West Midlands,no
139162,330,Birmingham,Parkfield Community School,www.parkfield.excelsiormat.org,Birmingham,B8 3AX,West Midlands,no
139631,330,Birmingham,Pegasus Primary School,www.pegasusprimary.co.uk/,Birmingham,B35 6PR,West Midlands,no
138410,330,Birmingham,Percy Shurmer Academy,percyshurmeracademy.org,Birmingham,B12 9ED,West Midlands,no
137053,330,Birmingham,Plantsbrook School,http://web.plantsbrookschool.co.uk/,Sutton Coldfield,B72 1RB,West Midlands,no
103614,330,Birmingham,Priestley Smith School,https://www.priestleysmith.com,Birmingham,B42 2PY,West Midlands,no
148553,330,Birmingham,Prince Albert High School,http://www.pahigh.co.uk/,Birmingham,B42 2TU,West Midlands,no
142230,330,Birmingham,Prince Albert Junior and Infant School,www.princealbert.bham.sch.uk,Birmingham,B6 5NH,West Midlands,no
143436,330,Birmingham,Princethorpe Infant School,https://princethorpe.drbignitemat.org/,Birmingham,B29 5QB,West Midlands,no
146817,330,Birmingham,Princethorpe Junior School,www.princethorpe.drbignitemat.org,Birmingham,B29 5QB,West Midlands,no
146858,330,Birmingham,Queensbury School,www.queensburysch.com,Birmingham,B24 8BL,West Midlands,no
143439,330,Birmingham,Quinton Church Primary School,https://www.quinton.bdmat.org.uk/,Birmingham,B32 1AJ,West Midlands,no
139671,330,Birmingham,Reach School,www.reachschool.co.uk,Birmingham,B14 7BB,West Midlands,no
139002,330,Birmingham,Reaside Academy,https://rea.greenheartlearning.org/,Birmingham,B45 0HY,West Midlands,no
103193,330,Birmingham,Regents Park Community Primary School,https://www.rgntpark.bham.sch.uk,Birmingham,B10 0NJ,West Midlands,no
140262,330,Birmingham,Robin Hood Academy,http://www.robinhoodacademy.co.uk,Birmingham,B28 9PP,West Midlands,no
138059,330,Birmingham,Rockwood Academy,http://www.corerockwood.academy,Birmingham,B8 3HG,West Midlands,no
137168,330,Birmingham,Rookery School,www.rookeryschool.co.uk,Birmingham,B21 9PY,West Midlands,no
103131,330,Birmingham,Rubery Nursery School,http://www.ruberyn.bham.sch.uk,Birmingham,B45 9PB,West Midlands,no
147109,330,Birmingham,Sacred Heart Catholic School,www.sacredheart-sch.net,Birmingham,B20 3AE,West Midlands,no
147478,330,Birmingham,Saint Barnabas Church of England Primary School,www.stbarnabas-erdington.com,Birmingham,B24 9BY,West Midlands,no
141668,330,Birmingham,Saltley Academy,www.saltley.academy,Birmingham,B9 5RX,West Midlands,no
137796,330,Birmingham,Selly Oak Nursery School,www.sellyoak-nur.bham.sch.uk,Birmingham,B29 6BP,West Midlands,no
103252,330,Birmingham,Severne Junior Infant and Nursery School,https://www.severne.bham.sch.uk,Birmingham,B27 7HR,West Midlands,no
103157,330,Birmingham,Shaw Hill Primary School,https://www.shawhill.bham.sch.uk/,Birmingham,B8 3AN,West Midlands,no
103142,330,Birmingham,Shenley Fields Nursery School,www.shenleyfields.com,Birmingham,B31 1BU,West Midlands,no
138590,330,Birmingham,Slade Primary School,https://slade.bham.sch.uk/,Birmingham,B23 7PX,West Midlands,no
144464,330,Birmingham,Small Heath Leadership Academy,https://smallheathleadershipacademy.com,Birmingham,B10 9RX,West Midlands,no
103256,330,Birmingham,Somerville Primary (NC) School,www.web.somerville.bham.sch.uk/,Birmingham,B10 9EN,West Midlands,no
144722,330,Birmingham,Springfield Primary Academy,www.springfieldacademy.org.uk,Birmingham,B13 9NY,West Midlands,no
146268,330,Birmingham,Ss Mary & John Catholic Primary School,www.stmryjon.net,Birmingham,B23 7NB,West Midlands,no
103466,330,Birmingham,St Alban's Catholic Primary School,https://www.stalbanscatholicprimary.co.uk,Birmingham,B14 5AL,West Midlands,no
103465,330,Birmingham,St Ambrose Barlow Catholic Primary School,https://www.sab.bham.sch.uk,Birmingham,B28 9JJ,West Midlands,no
103460,330,Birmingham,St Bernadette's Catholic Primary School,https://www.stberns.co.uk,Birmingham,B25 8QL,West Midlands,no
141815,330,Birmingham,St Brigid's Catholic Primary School,www.stbrigid.bham.sch.uk/,Birmingham,B31 5AB,West Midlands,no
148440,330,Birmingham,St Chad's Catholic Primary School,https://www.st-chads.bham.sch.uk/,Birmingham,B19 3XD,West Midlands,no
138432,330,Birmingham,St Clement's Church of England Academy,www.stclemce.bham.sch.uk,Birmingham,B7 5NS,West Midlands,no
141669,330,Birmingham,St Columba's Catholic Primary School,www.stcolumba.bham.sch.uk/,Birmingham,B45 8TD,West Midlands,no
103470,330,Birmingham,St Cuthbert's RC Junior and Infant (NC) School,www.stcuthbt.bham.sch.uk,Birmingham,B8 2PS,West Midlands,no
103455,330,Birmingham,St Dunstan's Catholic Primary School,https://www.stdunstans.bham.sch.uk,Birmingham,B14 7LP,West Midlands,no
147707,330,Birmingham,St Edmund Campion Catholic School,www.stedcamp.bham.sch.uk,Birmingham,B23 5XA,West Midlands,no
143434,330,Birmingham,St Francis Church of England Aided Primary School and Nursery,http://stfrancisprimaryandnursery.co.uk,Birmingham,B30 1LZ,West Midlands,no
139126,330,Birmingham,"St George's Church of England Academy, Newtown",www.stgnewtown.bham.sch.uk,Birmingham,B19 3QY,West Midlands,no
139267,330,Birmingham,St George's Church of England Primary School,www.stgeorgesb16.com,Birmingham,B16 8HY,West Midlands,no
103458,330,Birmingham,St Gerard's RC Junior and Infant School,https://www.stgerard.bham.sch.uk/,Birmingham,B35 6LB,West Midlands,no
141820,330,Birmingham,St James Catholic Primary School,http://www.stjamescatholicprimary.co.uk,Birmingham,B45 9BN,West Midlands,no
103401,330,Birmingham,"St James Church of England Primary School, Handsworth",https://www.stjamesce.bham.sch.uk/,Birmingham,B21 8NH,West Midlands,no
148266,330,Birmingham,St John Fisher Catholic Primary School,www.stjonfsh.bham.sch.uk,Birmingham,B31 3PN,West Midlands,no
103534,330,Birmingham,St John Wall Catholic School,http://www.sjw.bham.sch.uk,Birmingham,B21 8HH,West Midlands,no
103478,330,Birmingham,St John and Monica Catholic Primary School,https://www.stjonmon.bham.sch.uk/,Birmingham,B13 8DW,West Midlands,no
138883,330,Birmingham,St John's & St Peter's CofE Primary,www.stjohnsandstpeters.school,Birmingham,B16 8RN,West Midlands,no
139173,330,Birmingham,St John's CofE Primary School,www.st-johns-pri.bham.sch.uk,Birmingham,B11 4EA,West Midlands,no
140528,330,Birmingham,St Joseph's Catholic Primary School,www.stjosutton.net,Sutton Coldfield,B75 6PB,West Midlands,no
141670,330,Birmingham,St Joseph's Catholic Primary School,www.stjosb30.bham.sch.uk,Birmingham,B30 1HN,West Midlands,no
148441,330,Birmingham,St Joseph's Catholic Primary School,www.stjosb7.bham.sch.uk,Birmingham,B7 5HA,West Midlands,no
103463,330,Birmingham,St Jude's Catholic Primary School,https://www.stjuderc.bham.sch.uk/,Birmingham,B14 5PD,West Midlands,no
103459,330,Birmingham,St Laurence Church Infant School,https://www.stlrnci.bham.sch.uk,Birmingham,B31 2DJ,West Midlands,no
103416,330,Birmingham,St Laurence Church Junior School,https://www.stlaurencechurchjuniorschool.co.uk,Birmingham,B31 2DJ,West Midlands,no
103453,330,Birmingham,St Margaret Mary RC Junior and Infant School,http://www.stmgtmry.bham.sch.uk/,Birmingham,B23 7AB,West Midlands,no
148973,330,Birmingham,St Mark's Catholic Primary School,www.stmarkrc.bham.sch.uk,Birmingham,B42 1NU,West Midlands,no
139041,330,Birmingham,"St Marys C of E Primary and Nursery, Academy, Handsworth",www.stmaryshandsworth.co.uk,Birmingham,B20 2RW,West Midlands,no
139174,330,Birmingham,St Michael's Church of England Primary School,www.stmicb32.bham.sch.uk,Birmingham,B32 3JS,West Midlands,no
138433,330,Birmingham,"St Michael's CofE Primary Academy, Handsworth",www.stmich21.bham.sch.uk,Birmingham,B21 0UX,West Midlands,no
140529,330,Birmingham,St Nicholas Catholic Primary School,www.stnicholassutton.org.uk/,Sutton Coldfield,B73 5US,West Midlands,no
141830,330,Birmingham,St Paul's Catholic Primary School,www.stpaulrc.bham.sch.uk/,Birmingham,B38 9JB,West Midlands,no
103531,330,Birmingham,St Paul's School for Girls,http://www.stpaulgl.bham.sch.uk/,Birmingham,B16 9SL,West Midlands,no
146298,330,Birmingham,St Peter and St Paul RC Junior and Infant School,www.ssptrpl.net,Birmingham,B24 9ND,West Midlands,no
150849,330,Birmingham,St Peter's Catholic Primary School,www.stpeterc.bham.sch.uk,Birmingham,B32 3QD,West Midlands,no
134476,330,Birmingham,St Peters CofE Primary School,www.st-petersce.bham.sch.uk/,Birmingham,B17 0BE,West Midlands,no
103406,330,Birmingham,St Saviour's C of E Primary School,https://www.stsavioursceprimary.co.uk,Birmingham,B8 1JB,West Midlands,no
141835,330,Birmingham,St Thomas Aquinas Catholic School,www.stacs.org,Birmingham,B38 8AP,West Midlands,no
103124,330,Birmingham,St Thomas Centre Nursery School,www.stthomascentrenursery.sch.life,Birmingham,B15 2AF,West Midlands,no
142375,330,Birmingham,St Thomas Church of England Primary School,http://www.stthomasacademy.school,Birmingham,B15 2AT,West Midlands,no
147017,330,Birmingham,St Thomas More Catholic Primary School,www.sttommor.bham.sch.uk,Birmingham,B26 3HU,West Midlands,no
148083,330,Birmingham,St Wilfrid's Catholic Junior and Infant School,www.stwilfrd.bham.sch.uk/,Birmingham,B36 8LY,West Midlands,no
103257,330,Birmingham,Stanville Primary School,www.stanville.org,Birmingham,B26 3YN,West Midlands,no
149155,330,Birmingham,Star King Solomon Academy,https://starkingsolomon.org/,Birmingham,B7 4AA,West Midlands,no
147757,330,Birmingham,Starbank School,,Birmingham,B10 9BT,West Midlands,no
103262,330,Birmingham,Stechford Primary School,https://www.stechfordprimary.co.uk/,Birmingham,B33 8SJ,West Midlands,no
143433,330,Birmingham,Stirchley Primary School,www.stirchly.bham.sch.uk,Birmingham,B30 2JL,West Midlands,no
138137,330,Birmingham,Stockland Green School,http://www.stockgrn.bham.sch.uk/,Birmingham,B23 7JH,West Midlands,no
150876,330,Birmingham,Story Wood School,http://www.storywood.bham.sch.uk,Birmingham,B23 5AJ,West Midlands,no
150708,330,Birmingham,Summerfield Primary School,https://www.sumfield.bham.sch.uk/,Birmingham,B18 4AH,West Midlands,no
136778,330,Birmingham,Sutton Coldfield Grammar School for Girls,http://www.suttcold.bham.sch.uk,Sutton Coldfield,B73 5PT,West Midlands,no
147111,330,Birmingham,Sutton Park Primary,http://www.suttonparkprimary.co.uk/,Sutton Coldfield,B73 6UE,West Midlands,no
151403,330,Birmingham,Swanshurst School,www.swanshurst.org,Birmingham,B13 0TW,West Midlands,no
139011,330,Birmingham,Tame Valley Academy,tva.greenheartlearning.org,Birmingham,B36 8QJ,West Midlands,no
138136,330,Birmingham,The Arthur Terry School,www.arthurterry.bham.sch.uk,Sutton Coldfield,B74 4RZ,West Midlands,no
144043,330,Birmingham,The Bridge School,www.bridge.fet.ac,Birmingham,B73 6UE,West Midlands,no
137155,330,Birmingham,The Deanery Church of England Primary School,https://deanery.bham.sch.uk/,Sutton Coldfield,B76 2RD,West Midlands,no
142071,330,Birmingham,The Edge Academy,www.theedgeacademy.co.uk,Birmingham,B31 2LQ,West Midlands,no
103296,330,Birmingham,The Meadows Primary School,https://www.meadowsprimary.org,Birmingham,B31 2SW,West Midlands,no
139183,330,Birmingham,The Oaklands Primary School,www.oaklandsprimary.org.uk,Birmingham,B27 7BT,West Midlands,no
149872,330,Birmingham,The Oaks Primary School,https://theoaks.drbignitemat.org/,Birmingham,B14 5RY,West Midlands,no
142888,330,Birmingham,"The Olive School, Birmingham",www.olivebirmingham.com,Birmingham,B11 3EY,West Midlands,no
147452,330,Birmingham,"The Olive School, Small Heath",,Birmingham,B10 0EG,West Midlands,no
139860,330,Birmingham,The Orchards Primary Academy,www.theorchardsprimary.com/,Birmingham,B31 1TX,West Midlands,no
143087,330,Birmingham,The Oval School,www.theoval.drbignitemat.org,Birmingham,B33 8JG,West Midlands,no
148439,330,Birmingham,The Rosary Catholic Primary School,www.rosaryrc.bham.sch.uk/,Birmingham,B8 3SF,West Midlands,no
144721,330,Birmingham,The Royal Sutton School,https://theroyalsuttonschool.atlp.org.uk,Sutton Coldfield,B75 7DY,West Midlands,no
138425,330,Birmingham,The Shirestone Academy,https://sites.google.com/shirestone.org/shirestoneacademywebsite2022/home,Birmingham,B33 0DH,West Midlands,no
140863,330,Birmingham,The University of Birmingham School,www.uobschool.org.uk,Birmingham,B29 6QU,West Midlands,no
144306,330,Birmingham,Tile Cross Academy,tilecross.academy,Birmingham,B33 9UF,West Midlands,no
138104,330,Birmingham,Timberley Academy,www.timberleyacademy.co.uk,Birmingham,B34 7RL,West Midlands,no
146731,330,Birmingham,Titan Aston Academy,https://www.titanastonacademy.co.uk,Birmingham,B6 4EA,West Midlands,no
139731,330,Birmingham,Titan St Georges Academy,stgeorgesacademy.org.uk,Birmingham,B6 6EE,West Midlands,no
139439,330,Birmingham,Tiverton Academy,www.tiverton.bham.sch.uk,Birmingham,B29 6BW,West Midlands,no
143091,330,Birmingham,Topcliffe Primary School,www.topcliffe.academy,Birmingham,B35 6BS,West Midlands,no
141206,330,Birmingham,Town Junior School,www.townj.bham.sch.uk/,Sutton Coldfield,B72 1NX,West Midlands,no
148521,330,Birmingham,Turves Green Boys' School,www.tgbs.co.uk,Birmingham,B31 4BS,West Midlands,no
144390,330,Birmingham,Turves Green Primary School,www.turvesgreen.excelsiormat.org,Birmingham,B31 4BP,West Midlands,no
140518,330,Birmingham,Twickenham Primary School,www.twicknhm.bham.sch.uk/,Birmingham,B44 0NR,West Midlands,no
103605,330,Birmingham,Uffculme School,https://www.uffculme.bham.sch.uk,Birmingham,B13 8QG,West Midlands,no
103601,330,Birmingham,Victoria School,http://www.victoria.bham.sch.uk/,Birmingham,B31 1LD,West Midlands,no
103544,330,Birmingham,Walmley Infant School,https://www.walmleyinfantschool.co.uk,Sutton Coldfield,B76 1JB,West Midlands,no
103543,330,Birmingham,Walmley Junior School,,Sutton Coldfield,B76 1JB,West Midlands,no
103217,330,Birmingham,Ward End Primary School,https://www.wardend.org.uk,Birmingham,B8 2RA,West Midlands,no
138303,330,Birmingham,Warren Farm Primary School,www.warrenfarm-primary.co.uk,Birmingham,B44 0DT,West Midlands,no
139888,330,Birmingham,Washwood Heath Academy,www.washwood.academy,Birmingham,B8 2AS,West Midlands,no
103132,330,Birmingham,Washwood Heath Nursery School,https://www.washwoodheathnursery.co.uk,Birmingham,B8 2SY,West Midlands,no
103326,330,Birmingham,Water Mill Primary School,https://www.watermill.bham.sch.uk/,Birmingham,B29 6TS,West Midlands,no
142219,330,Birmingham,Waverley School,www.waverley.bham.sch.uk,Birmingham,B9 5QA,West Midlands,no
139788,330,Birmingham,Waverley Studio College,https://www.waverleystudiocollege.co.uk/,Birmingham,B9 5SX,West Midlands,no
103328,330,Birmingham,Welford Primary School,https://www.welford.bham.sch.uk,Birmingham,B20 2BL,West Midlands,no
103295,330,Birmingham,Welsh House Farm Community School and Special Needs Resources Base,http://www.welshhousefarm.co.uk,Birmingham,B32 2NG,West Midlands,no
103133,330,Birmingham,Weoley Castle Nursery School,https://weoleycastlenursery.sch.life/,Birmingham,B29 5QD,West Midlands,no
103127,330,Birmingham,West Heath Nursery School,https://www.wesththn.bham.sch.uk,Birmingham,B31 3HB,West Midlands,no
134279,330,Birmingham,West Heath Primary School,www.west-heath.eschools.co.uk,Birmingham,B38 8HU,West Midlands,no
143943,330,Birmingham,Westminster Primary School,www.westmnst.bham.sch.uk,Birmingham,B20 3PN,West Midlands,no
103501,330,Birmingham,Wheelers Lane Technology College,http://www.wheelerslane.bham.sch.uk/,Birmingham,B13 0SF,West Midlands,no
132007,330,Birmingham,Whitehouse Common Primary School,www.whitehousecommon.bham.sch.uk/,Sutton Coldfield,B75 6BL,West Midlands,no
103317,330,Birmingham,William Murdoch Primary School,https://www.williammurdoch.bham.sch.uk,Birmingham,B21 9NT,West Midlands,no
138281,330,Birmingham,Wilson Stuart School,http://www.wilsonstuart.co.uk,Birmingham,B23 7AT,West Midlands,no
103310,330,Birmingham,Woodgate Primary School,https://www.woodgateprimary.co.uk/,Birmingham,B32 3PN,West Midlands,no
139637,330,Birmingham,Woodhouse Primary Academy,https://whp.greenheartlearning.org/,Birmingham,B32 2DL,West Midlands,no
103334,330,Birmingham,Woodthorpe Junior and Infant School,http://www.woodthorpe-school.com,Birmingham,B14 6ET,West Midlands,no
103337,330,Birmingham,World's End Infant and Nursery School,https://www.worldsendinfant.bham.sch.uk,Birmingham,B32 2SA,West Midlands,no
103279,330,Birmingham,World's End Junior School,https://worldsendjuniors.co.uk,Birmingham,B32 2SA,West Midlands,no
142386,330,Birmingham,Wychall Primary School,www.wychall.drbignitemat.org,Birmingham,B31 3EH,West Midlands,no
103349,330,Birmingham,Wylde Green Primary School,https://www.wyldegrn.bham.sch.uk/,Sutton Coldfield,B73 5JL,West Midlands,no
141319,330,Birmingham,Wyndcliffe Primary School,www.wyndcliffe.bham.sch.uk/,Birmingham,B9 5BG,West Midlands,no
103281,330,Birmingham,Yardley Wood Community Primary School,https://www.ydlywood.bham.sch.uk,Birmingham,B14 4ER,West Midlands,no
139994,330,Birmingham,Yardleys School,www.yardleys-vle.com,Birmingham,B11 3EY,West Midlands,no
139378,330,Birmingham,Yarnfield Primary School,www.yarnfieldprimary.org.uk,Birmingham,B11 3PJ,West Midlands,no
146722,330,Birmingham,Yenton Primary School,www.yentonprimary.co.uk,Birmingham,B24 0ED,West Midlands,no
142858,330,Birmingham,Yew Tree Community Junior and Infant School (NC),http://www.yewtree.bham.sch.uk,Birmingham,B6 6RX,West Midlands,no
103284,330,Birmingham,Yorkmead Junior and Infant School,https://www.yorkmead.co.uk/,Birmingham,B28 8BB,West Midlands,no
135970,330,Birmingham,Ark St Alban's Academy,http://arkstalbans.org/,Birmingham,B12 0YH,West Midlands,yes
103627,330,Birmingham,Beaufort School,https://www.beaufort.bham.sch.uk,Birmingham,B34 6BJ,West Midlands,yes
103493,330,Birmingham,Bordesley Green Girls' School & Sixth Form,http://www.bordgrng.bham.sch.uk/,Birmingham,B9 4TR,West Midlands,yes
103445,330,Birmingham,Bournville Village Primary,https://www.bournvillevillageprimary.org.uk,Birmingham,B30 1JY,West Midlands,yes
103626,330,Birmingham,Cherry Oak School,https://www.cherryoak.bham.sch.uk,Birmingham,B29 6PB,West Midlands,yes
103263,330,Birmingham,Colebourne Primary School,https://www.colebourne.bham.sch.uk,Birmingham,B34 6BJ,West Midlands,yes
135907,330,Birmingham,E-ACT Heartlands Academy,https://heartlandsacademy.e-act.org.uk,Birmingham,B7 4QR,West Midlands,yes
135911,330,Birmingham,E-ACT Shenley Academy,https://shenleyacademy.e-act.org.uk/,Birmingham,B29 4HE,West Midlands,yes
103625,330,Birmingham,Fox Hollies School,https://www.foxhollies.bham.sch.uk/,Birmingham,B13 8QB,West Midlands,yes
103503,330,Birmingham,Hodge Hill College,http://www.hodgehill.bham.sch.uk,Birmingham,B36 8HB,West Midlands,yes
131672,330,Birmingham,Hollyfield Primary School,hollyfieldprimary.org,Sutton Coldfield,B75 7SG,West Midlands,yes
134102,330,Birmingham,James Watt Primary School,www.jameswattp.bham.sch.uk/,Birmingham,B21 0RE,West Midlands,yes
103444,330,Birmingham,King David Primary School,https://www.kingdavid.bham.sch.uk/,Birmingham,B13 8EY,West Midlands,yes
134098,330,Birmingham,Kings Heath Primary School,www.kingsheathprimary.com/,Birmingham,B14 7AJ,West Midlands,yes
103265,330,Birmingham,Ladypool Primary School,http://www.ladypool.bham.sch.uk,Birmingham,B11 1QT,West Midlands,yes
103630,330,Birmingham,Langley School,http://www.langley.bham.sch.uk,Sutton Coldfield,B75 6TJ,West Midlands,yes
103632,330,Birmingham,Lindsworth School,https://www.lindsworth.co.uk,Birmingham,B30 3QA,West Midlands,yes
103353,330,Birmingham,Maney Hill Primary School,https://maneyhill.bham.sch.uk/,Sutton Coldfield,B72 1JU,West Midlands,yes
103345,330,Birmingham,Minworth Junior and Infant School,https://www.minworth.bham.sch.uk/,SUTTON COLDFIELD,B76 9BU,West Midlands,yes
103628,330,Birmingham,Oscott Manor School,https://www.oscottmanor.bham.sch.uk,Birmingham,B23 6DE,West Midlands,yes
103430,330,Birmingham,Our Lady of Lourdes Catholic Primary School,http://www.ourladyoflourdesprimary.com,Birmingham,B13 0EU,West Midlands,yes
103356,330,Birmingham,Penns Primary School,https://www.pennsji.bham.sch.uk/,Sutton Coldfield,B72 1BS,West Midlands,yes
103123,330,Birmingham,Perry Beeches Nursery School,https://perrybeeches.sch.life/,Birmingham,B42 2PX,West Midlands,yes
103497,330,Birmingham,Queensbridge School,http://www.queensbridge.bham.sch.uk,Birmingham,B13 8QB,West Midlands,yes
103246,330,Birmingham,Raddlebarn Primary School,https://www.raddlebarn.co.uk,Birmingham,B29 7TD,West Midlands,yes
103247,330,Birmingham,Redhill Primary School,https://www.redhill.bham.sch.uk,Birmingham,B25 8HQ,West Midlands,yes
103249,330,Birmingham,Rednal Hill Infant School,https://www.rednalhill-inf.bham.sch.uk/,Birmingham,B45 8QY,West Midlands,yes
103248,330,Birmingham,Rednal Hill Junior School,https://www.rednalhilljuniors.com,Birmingham,B45 8QY,West Midlands,yes
103613,330,Birmingham,Selly Oak Trust School,http://www.sellyoak.bham.sch.uk,Birmingham,B29 6HZ,West Midlands,yes
103498,330,Birmingham,Selly Park Girls' School,https://www.sellyparkgirls.org,Birmingham,B29 7PH,West Midlands,yes
103255,330,Birmingham,Sladefield Infant School,https://www.slfield.bham.sch.uk/,Birmingham,B8 2TJ,West Midlands,yes
103623,330,Birmingham,Springfield House Community Special School,http://www.spfldhs.bham.sch.uk,Solihull,B93 0AJ,West Midlands,yes
103434,330,Birmingham,St Anne's Catholic Primary School,https://www.st-annes.bham.sch.uk/,Birmingham,B12 0ER,West Midlands,yes
103431,330,Birmingham,St Augustine's Catholic Primary School,https://www.staugust.bham.sch.uk,Birmingham,B21 8ED,West Midlands,yes
103261,330,Birmingham,St Benedict's Primary School,https://www.stbendic.bham.sch.uk/,Birmingham,B10 9DP,West Midlands,yes
103462,330,Birmingham,St Bernard's Catholic Primary School,http://www.st-bernards.bham.sch.uk,Birmingham,B13 9QE,West Midlands,yes
103433,330,Birmingham,St Catherine of Siena Catholic Primary School,https://www.stcathrc.bham.sch.uk/,Birmingham,B15 2AY,West Midlands,yes
103476,330,Birmingham,St Clare's Catholic Primary School,https://www.stclare.bham.sch.uk,Birmingham,B20 3RT,West Midlands,yes
103447,330,Birmingham,St Edward's Catholic Primary School,https://www.stedward.bham.sch.uk/,Birmingham,B29 7PN,West Midlands,yes
103437,330,Birmingham,St Francis Catholic Primary School,https://www.stfranrc.bham.sch.uk,Birmingham,B19 1PH,West Midlands,yes
103467,330,Birmingham,St Martin de Porres Catholic Primary School,https://www.st-martindeporres.bham.sch.uk,Birmingham,B13 9DN,West Midlands,yes
103438,330,Birmingham,St Mary's Catholic Primary School,https://www.stmaryrc.bham.sch.uk,Birmingham,B17 0DN,West Midlands,yes
103410,330,Birmingham,St Mary's Church of England Primary School,https://www.stmarys-sellyoak.co.uk,Birmingham,B29 6NU,West Midlands,yes
103404,330,Birmingham,St Matthew's CofE Primary School,https://www.st-matthews.bham.sch.uk,Birmingham,B7 4JR,West Midlands,yes
103439,330,Birmingham,St Patrick and St Edmund's Catholic Primary School,https://www.stpatandsted.bham.sch.uk,Birmingham,B18 7QW,West Midlands,yes
103456,330,Birmingham,St Teresa's Catholic Primary School,http://www.stteresa.bham.sch.uk,Birmingham,B20 2NY,West Midlands,yes
103417,330,Birmingham,St Vincent's Catholic Primary School,http://www.stvincentsbham.co.uk,BIRMINGHAM,B7 4HP,West Midlands,yes
103266,330,Birmingham,Sundridge Primary School,https://www.sundridge.bham.sch.uk,Birmingham,B44 9NY,West Midlands,yes
103615,330,Birmingham,The Dame Ellen Pinsent School,http://www.dameellenpinsent.bham.sch.uk,Birmingham,B13 0RW,West Midlands,yes
103427,330,Birmingham,The Oratory Roman Catholic Primary School,https://www.theoratoryschool.co.uk/,Birmingham,B16 9ER,West Midlands,yes
103622,330,Birmingham,The Pines Special School,http://www.thepinesspecialschool.com,Birmingham,B23 7EY,West Midlands,yes
103268,330,Birmingham,Thornton Primary School,https://www.thornton.bham.sch.uk/,Birmingham,B8 2LQ,West Midlands,yes
134099,330,Birmingham,Wheelers Lane Primary School,wlprimary.co.uk,Birmingham,B13 0SF,West Midlands,yes
103372,330,Birmingham,Woodcock Hill Primary School,http://www.woodcockhillprimaryschool.co.uk,Birmingham,B31 1BS,West Midlands,yes
133996,330,Birmingham,Yardley Primary School,www.yardleyprimary.org,Birmingham,B26 1TD,West Midlands,yes
