urn,district_code,district_name,school_name,website,town,postcode,region,has_email_collected
103806,332,Dudley,Amblecote Primary School,https://www.amblecote.dudley.sch.uk/,Stourbridge,DY8 4DQ,West Midlands,no
137705,332,Dudley,Beacon Hill Academy,http://www.beaconhillacademy.org.uk,Dudley,DY3 1BP,West Midlands,no
142047,332,Dudley,Beechwood Church of England Primary School,www.beechwood.drbignitemat.org,Dudley,DY2 7QA,West Midlands,no
140126,332,Dudley,Bishop Milner Catholic College,http://www.bmilner.dudley.sch.uk,Dudley,DY1 3BY,West Midlands,no
103792,332,Dudley,Blanford Mere Primary School,www.blanford.dudley.sch.uk/,Kingswinford,DY6 7EA,West Midlands,no
147708,332,Dudley,Blowers Green Primary School,www.blowers.dudley.sch.uk/,Dudley,DY2 8UZ,West Midlands,no
139437,332,Dudley,Bramford Primary School,www.bramfordprimaryschool.co.uk/,Bilston,WV14 9TU,West Midlands,no
103776,332,Dudley,Brierley Hill Primary School,http://www.brierley.dudley.sch.uk/,Brierley Hill,DY5 2TD,West Midlands,no
103777,332,Dudley,Brockmoor Primary School,http://www.brockmoor.dudley.sch.uk,Brierley Hill,DY5 3UZ,West Midlands,no
103778,332,Dudley,Brook Primary School,http://www.brook.dudley.sch.uk/,Stourbridge,DY8 5YN,West Midlands,no
103801,332,Dudley,Caslon Primary Community School,www.caslon.dudley.sch.uk,Halesowen,B63 2ES,West Midlands,no
147479,332,Dudley,Cherry Tree Learning Centre,,Dudley,DY1 2NX,West Midlands,no
148865,332,Dudley,Christ Church CofE Primary School,www.christchurchprimary.org,Bilston,WV14 8YB,West Midlands,no
148864,332,Dudley,Church of the Ascension CofE Primary School,www.chur-ascen.dudley.sch.uk,Kingswinford,DY6 9AH,West Midlands,no
142964,332,Dudley,Colley Lane Primary Academy,https://www.colleylaneprimary.org.uk,Halesowen,B63 2TN,West Midlands,no
103846,332,Dudley,Cradley CofE Primary School,http://www.cradleycofe.com,Halesowen,B63 2UL,West Midlands,no
103790,332,Dudley,Crestwood Park Primary School,http://www.crestwood-p.dudley.sch.uk/,Kingswinford,DY6 8RP,West Midlands,no
103829,332,Dudley,Dingle Community Primary School,http://www.dingle.dudley.sch.uk,Kingswinford,DY6 8PF,West Midlands,no
144078,332,Dudley,Dudley Wood Primary School,http://www.dudley-wood.dudley.sch.uk,Dudley,DY2 0DB,West Midlands,no
141570,332,Dudley,Ellowes Hall Sports College,http://www.elloweshall.co.uk/,Dudley,DY3 2JH,West Midlands,no
149822,332,Dudley,Fairhaven Primary School,http://www.fairhaven.dudley.sch.uk/,Stourbridge,DY8 5PY,West Midlands,no
148182,332,Dudley,Foxyards Primary School,www.foxyardsacademy.com,Tipton,DY4 8BH,West Midlands,no
150457,332,Dudley,Gig Mill Primary School,http://www.gig-mill.dudley.sch.uk/,Stourbridge,DY8 3HL,West Midlands,no
103799,332,Dudley,Greenfield Primary School,https://www.greenfield.dudley.sch.uk/,Stourbridge,DY8 1AL,West Midlands,no
103881,332,Dudley,Halesbury School,http://www.halesbury.dudley.sch.uk/,Halesowen,B62 9DR,West Midlands,no
143822,332,Dudley,Ham Dingle Primary Academy,www.hamdingleprimary.co.uk,Stourbridge,DY9 0UN,West Midlands,no
150729,332,Dudley,Hawbush Primary School,hawbush.drbignitemat.org,Brierley Hill,DY5 3NH,West Midlands,no
143196,332,Dudley,Hob Green Primary School,https://hobgreen.drbignitemat.org/,Stourbridge,DY9 9EX,West Midlands,no
151157,332,Dudley,Huntingtree Primary School,www.huntingtree.dudley.sch.uk,Halesowen,B63 4HY,West Midlands,no
143537,332,Dudley,Hurst Hill Primary School,http://www.hursthillprimaryschool.com/,Bilston,WV14 9AJ,West Midlands,no
150955,332,Dudley,Jesson's Church of England Primary School,,Dudley,DY1 2AQ,West Midlands,no
144080,332,Dudley,Kates Hill Primary School,http://www.kates-hill.dudley.sch.uk,Dudley,DY2 7HP,West Midlands,no
148142,332,Dudley,King Edward VI College Stourbridge,www.kedst.ac.uk,Stourbridge,DY8 1TD,West Midlands,no
137773,332,Dudley,Kingswinford Academy,http://www.kingswinford.windsoracademytrust.org.uk,Kingswinford,DY6 7AD,West Midlands,no
143782,332,Dudley,Lapal Primary School,www.lapal.dudley.sch.uk,Halesowen,B62 0BZ,West Midlands,no
143582,332,Dudley,Leasowes High School,http://www.leasoweshighschool.co.uk/,Halesowen,B62 8PJ,West Midlands,no
143783,332,Dudley,Lutley Primary School,http://www.lutley.dudley.sch.uk,Halesowen,B63 1BU,West Midlands,no
103779,332,Dudley,Maidensbridge Primary School,https://maidensbridge.sch.life,Kingswinford,DY6 0HX,West Midlands,no
142355,332,Dudley,Manor Way Primary Academy,https://www.manorwayprimary.org.uk/,Halesowen,B63 3HA,West Midlands,no
103834,332,Dudley,Milking Bank Primary School,https://www.milking.dudley.sch.uk/,DUDLEY,DY1 2SL,West Midlands,no
144079,332,Dudley,Netherbrook Primary School,http://www.netherbrook.dudley.sch.uk/,Dudley,DY2 9RZ,West Midlands,no
144418,332,Dudley,Netherton CofE Primary School,http://www.netherton.dudley.sch.uk/,Dudley,DY2 0HU,West Midlands,no
103766,332,Dudley,Netherton Park Nursery School,https://www.nethertonparknursery.co.uk,Dudley,DY2 9QF,West Midlands,no
150555,332,Dudley,Newfield Park Primary Academy,http://www.newfieldpark.co.uk,Halesowen,B63 3TP,West Midlands,no
147155,332,Dudley,Northfield Road Primary School,www.northfield.dudley.sch.uk,Dudley,DY2 9ER,West Midlands,no
103839,332,Dudley,Oldswinford C of E Primary School,http://www.oldswinford.dudley.sch.uk,Stourbridge,DY8 2JQ,West Midlands,no
144301,332,Dudley,Olive Hill Primary Academy,http://www.olive.dudley.sch.uk/,Halesowen,B62 8JZ,West Midlands,no
103850,332,Dudley,Our Lady and St Kenelm RC School,http://www.our-lady.dudley.sch.uk,Halesowen,B63 4AR,West Midlands,no
148938,332,Dudley,Pedmore CE Primary School,www.pedmore.dudley.sch.uk,Stourbridge,DY9 0RH,West Midlands,no
137390,332,Dudley,Pegasus Academy,http://www.pegasusacademy.org.uk/,Dudley,DY1 2DU,West Midlands,no
103883,332,Dudley,Pens Meadow School,http://www.pens-meadow.dudley.sch.uk,Stourbridge,DY8 5ST,West Midlands,no
103791,332,Dudley,Peters Hill Primary School,https://www.petershillprimary.org/,Brierley Hill,DY5 2QH,West Midlands,no
145305,332,Dudley,Priory Primary School,www.priory.dudley.sch.uk,Dudley,DY1 4AQ,West Midlands,no
103830,332,Dudley,Quarry Bank Primary School,http://www.quarry.dudley.sch.uk/,Brierley Hill,DY5 2AD,West Midlands,no
149544,332,Dudley,Queen Victoria Primary School,www.queenvictoriaprimary.com/,Dudley,DY3 1JB,West Midlands,no
139872,332,Dudley,Redhill School,http://www.redhill.dudley.sch.uk/,Stourbridge,DY8 1JX,West Midlands,no
103882,332,Dudley,Rosewood School,http://www.rosewood.dudley.sch.uk,Bilston,WV14 8XJ,West Midlands,no
148685,332,Dudley,Rufford Primary School,www.rufford.dudley.sch.uk/,Stourbridge,DY9 7NR,West Midlands,no
103813,332,Dudley,Russells Hall Primary School,https://www.russellshall.org.uk/,Dudley,DY1 2NX,West Midlands,no
149221,332,Dudley,Sledmere Primary School,http://www.sledmere.org/,Dudley,DY2 8EH,West Midlands,no
140144,332,Dudley,St Chad's Catholic Primary School,www.st-chads.dudley.sch.uk,Dudley,DY3 3UE,West Midlands,no
144657,332,Dudley,St James Academy,http://www.stjamesacademy.org.uk,Dudley,DY1 3JE,West Midlands,no
140147,332,Dudley,St Joseph's Catholic Primary School,www.st-jo-dud.dudley.sch.uk,Dudley,DY2 7PW,West Midlands,no
141477,332,Dudley,St Joseph's RC Primary School,st-jo-st.sch.life/,Stourbridge,DY8 2DT,West Midlands,no
103836,332,Dudley,St Mark's CofE Primary School,https://www.st-marks.dudley.sch.uk/,Brierley Hill,DY5 4DZ,West Midlands,no
148937,332,Dudley,St Mary's CofE Primary School,http://www.st-mary-ki.dudley.sch.uk,Kingswinford,DY6 7AQ,West Midlands,no
141489,332,Dudley,St Mary's RC Primary School,https://st-mary-bh.sch.life,Brierley Hill,DY5 2TH,West Midlands,no
103827,332,Dudley,Straits Primary School,https://www.straitsprimaryschool.com/,Dudley,DY3 3EE,West Midlands,no
103877,332,Dudley,Sutton School,http://www.sutton.dudley.sch.uk/,Dudley,DY1 2DU,West Midlands,no
134768,332,Dudley,Sycamore Short Stay School,www.sycamore.dudley.sch.uk,Dudley,DY1 3QE,West Midlands,no
143195,332,Dudley,Tenterfields Primary Academy,www.tenterfieldsprimary.co.uk,HALESOWEN,B63 3LH,West Midlands,no
103878,332,Dudley,The Brier School,https://www.brier.dudley.sch.uk,Kingswinford,DY6 8QN,West Midlands,no
141979,332,Dudley,The Bromley-Pensnett Primary School,https://bromley.drbignitemat.org/,Brierley Hill,DY5 4PJ,West Midlands,no
141325,332,Dudley,The Crestwood School,http://www.crestwoodschool.co.uk,Dudley,DY6 8QG,West Midlands,no
137812,332,Dudley,The Earls High School,http://www.earlshighschool.org,Halesowen,B63 3SL,West Midlands,no
144952,332,Dudley,The Link Academy,www.thelinkacademy.org.uk,Dudley,DY2 0PB,West Midlands,no
145593,332,Dudley,The Pedmore High School,http://www.pedmorehighschool.uk,Stourbridge,DY9 7HS,West Midlands,no
103805,332,Dudley,The Ridge Primary School,http://www.ridge.dudley.sch.uk,Stourbridge,DY8 3NF,West Midlands,no
143818,332,Dudley,Thorns Collegiate Academy,www.thornsca.org.uk,Brierley Hill,DY5 2NU,West Midlands,no
150322,332,Dudley,Thorns Primary School,http://www.thorns.sch.life,Brierley Hill,DY5 2JY,West Midlands,no
147721,332,Dudley,Wallbrook Primary Academy,,Bilston,WV14 8YP,West Midlands,no
136618,332,Dudley,Windsor High School and Sixth Form,http://www.windsorhighschool.org.uk,Halesowen,B63 4BB,West Midlands,no
150456,332,Dudley,Withymoor Primary School,www.withymoor.dudley.sch.uk,Brierley Hill,DY5 2BH,West Midlands,no
103800,332,Dudley,Wollescote Primary School,http://www.wollescoteschool.com,Stourbridge,DY9 8YA,West Midlands,no
103879,332,Dudley,Woodsetton School,http://www.woodsetton.dudley.sch.uk,Dudley,DY3 1BY,West Midlands,no
143821,332,Dudley,Woodside Primary School and Nursery,www.woodside.dudley.sch.uk,Dudley,DY2 0SN,West Midlands,no
103869,332,Dudley,Alder Coppice Primary School,http://www.alder.dudley.sch.uk,Dudley,DY3 3PS,West Midlands,yes
103818,332,Dudley,Ashwood Park Primary School,http://www.ashwood.dudley.sch.uk/,Stourbridge,DY8 5DJ,West Midlands,yes
103828,332,Dudley,Belle Vue Primary School,http://www.belle-vue.dudley.sch.uk,Stourbridge,DY8 5BZ,West Midlands,yes
103819,332,Dudley,Bromley Hills Primary School,http://www.bromhills.dudley.sch.uk,Kingswinford,DY6 8LW,West Midlands,yes
103810,332,Dudley,Cotwall End Primary School,https://www.cotwall.dudley.sch.uk/,Dudley,DY3 3YG,West Midlands,yes
103781,332,Dudley,Dawley Brook Primary School,http://www.dawley.dudley.sch.uk,Kingswinford,DY6 9BP,West Midlands,yes
103832,332,Dudley,Glynne Primary School,http://www.glynne.dudley.sch.uk/,Kingswinford,DY6 9TH,West Midlands,yes
103847,332,Dudley,Halesowen CofE Primary School,http://www.halesowen.dudley.sch.uk,Halesowen,B63 3BB,West Midlands,yes
103814,332,Dudley,Howley Grange Primary School,https://www.howleygrange.co.uk,Halesowen,B62 0HS,West Midlands,yes
103807,332,Dudley,Hurst Green Primary School,http://www.hurstgreen-dudley.co.uk/,Halesowen,B62 9NZ,West Midlands,yes
103780,332,Dudley,Mount Pleasant Primary School,http://www.mount.dudley.sch.uk/,Brierley Hill,DY5 2YN,West Midlands,yes
103870,332,Dudley,Old Swinford Hospital,http://www.oshsch.com,Stourbridge,DY8 1QX,West Midlands,yes
103784,332,Dudley,Red Hall Primary School,https://www.redhallprimary.co.uk/,Dudley,DY3 2PA,West Midlands,yes
141712,332,Dudley,Ridgewood High School,http://www.ridgewood.dudley.sch.uk/,Stourbridge,DY8 3NQ,West Midlands,yes
103821,332,Dudley,Roberts Primary School,https://www.robertsprimary.org.uk/,Dudley,DY3 2AZ,West Midlands,yes
103851,332,Dudley,St James's CofE Primary School,http://www.st-james.dudley.sch.uk,Stourbridge,DY8 4RU,West Midlands,yes
103840,332,Dudley,St Margaret's At Hasbury CofE Primary School,http://www.hasbury.dudley.sch.uk/,Halesowen,B63 4QD,West Midlands,yes
103854,332,Dudley,Summerhill School,http://www.summerhill.dudley.sch.uk,Kingswinford,DY6 9XE,West Midlands,yes
103855,332,Dudley,The Dormston School,http://www.dormston.dudley.sch.uk/,Dudley,DY3 1SN,West Midlands,yes
103880,332,Dudley,The Old Park School,http://www.oldpark.org,Brierley Hill,DY5 2JY,West Midlands,yes
103858,332,Dudley,The Wordsley School,http://www.wordsleyschool.co.uk/,Stourbridge,DY8 5SP,West Midlands,yes
103823,332,Dudley,Wrens Nest Primary School,http://www.wrens-nest.dudley.sch.uk/,Dudley,DY1 3NX,West Midlands,yes
