urn,district_code,district_name,school_name,website,town,postcode,region,has_email_collected
137974,335,Walsall,Aldridge School - A Science College,http://www.aldridgeschool.org,Walsall,WS9 0BG,West Midlands,no
141410,335,Walsall,All Saints National Academy,asna.walsall.sch.uk,Walsall,WS3 3LP,West Midlands,no
104143,335,Walsall,Alumwell Infant School,http://www.alumwell-i.walsall.sch.uk,Walsall,WS2 9UP,West Midlands,no
104142,335,Walsall,Alumwell Junior School,https://www.alumwelljuniorschool.co.uk,Walsall,WS2 9UP,West Midlands,no
104140,335,Walsall,Alumwell Nursery School,https://www.alumwell-n.walsall.sch.uk,Walsall,WS2 9UP,West Midlands,no
135081,335,Walsall,Barcroft Primary School,www.barcroftprimary.co.uk,Willenhall,WV13 1NA,West Midlands,no
136885,335,Walsall,Barr Beacon School,http://www.barrbeaconschool.co.uk/,Walsall,WS9 0RF,West Midlands,no
131580,335,Walsall,Beacon Primary School,www.beaconprimaryschool.co.uk/,Walsall,WV12 5HA,West Midlands,no
150291,335,Walsall,Bentley West Primary School,https://www.bentley-west.org.uk/,Walsall,WS2 0EQ,West Midlands,no
139435,335,Walsall,Birchills Church of England Community Academy,www.birchills.walsall.sch.uk,Walsall,WS2 8NF,West Midlands,no
148364,335,Walsall,Blackwood School,http://www.blackwood-school.co.uk/,Sutton Coldfield,B74 3PH,West Midlands,no
104144,335,Walsall,Blakenall Heath Junior School,https://www.blakenallheathjunior.co.uk/,Walsall,WS3 3JF,West Midlands,no
137274,335,Walsall,Bloxwich Academy,www.bloxwichacademy.co.uk,Walsall,WS2 7NR,West Midlands,no
138606,335,Walsall,Blue Coat Church of England Academy,http://www.bluecoatacademy.org/,Walsall,WS1 2ND,West Midlands,no
104231,335,Walsall,Blue Coat Church of England Aided Infant School,https://www.bluecoatfederation.co.uk,Walsall,WS1 3AF,West Midlands,no
104230,335,Walsall,Blue Coat Church of England Aided Junior School,https://www.bluecoatfederation.co.uk,Walsall,WS1 2LP,West Midlands,no
147796,335,Walsall,Brownhills Ormiston Academy,http://www.brownhillsoa.co.uk,Walsall,WS8 7QG,West Midlands,no
148906,335,Walsall,Brownhills West Primary School,www.brownhillswest.com,Walsall,WS8 7LA,West Midlands,no
146785,335,Walsall,Busill Jones Primary School,https://www.busilljonesprimary.co.uk/,Walsall,WS3 2QF,West Midlands,no
143904,335,Walsall,Caldmore Primary Academy,www.caldmore.attrust.org.uk,Walsall,WS1 3RH,West Midlands,no
104204,335,Walsall,Castlefort Junior Mixed and Infant School,https://www.castlefortschool.co.uk,Walsall,WS9 9JP,West Midlands,no
151154,335,Walsall,Christ Church Church of England Primary School,www.christchurch.walsall.sch.uk/,WALSALL,WS3 1EN,West Midlands,no
132076,335,Walsall,Chuckery Primary School,www.chuckeryprimary.com/,Walsall,WS1 2DZ,West Midlands,no
104189,335,Walsall,County Bridge Primary School,http://www.countybridge.walsall.sch.uk,Walsall,WS2 0DH,West Midlands,no
138420,335,Walsall,Croft Academy,www.croftacademy.org,Walsall,WS2 8JE,West Midlands,no
104150,335,Walsall,Delves Infant School,https://www.delvesinfantschool.co.uk,Walsall,WS5 4PU,West Midlands,no
104170,335,Walsall,Delves Junior School,www.delvesjuniorschool.co.uk,Walsall,WS5 4PU,West Midlands,no
139610,335,Walsall,Edgar Stammers Primary Academy,https://esp.greenheartlearning.org/,Walsall,WS3 1RQ,West Midlands,no
104153,335,Walsall,Elmore Green Primary School,https://www.elmore-green.walsall.sch.uk,Walsall,WS3 2HW,West Midlands,no
135461,335,Walsall,Elmwood School,www.elmwood.walsall.sch.uk,Walsall,WS4 1EG,West Midlands,no
143417,335,Walsall,Fibbersley Park Academy,www.fibbersleyparkacademy.org.uk,Willenhall,WV13 3BB,West Midlands,no
138591,335,Walsall,Goldsmith Primary Academy,https://www.goldsmithprimary.org.uk/,Harden,WS3 1DL,West Midlands,no
149608,335,Walsall,Greenfield Primary School,www.greenfield.walsall.sch.uk/,Walsall,WS4 1PL,West Midlands,no
131511,335,Walsall,Hillary Primary School,http://www.hillary.walsall.sch.uk,Walsall,WS2 9BP,West Midlands,no
104223,335,Walsall,Holy Trinity Church of England Primary School,http://www.holy-trinity.walsall.sch.uk,Walsall,WS8 7EG,West Midlands,no
137830,335,Walsall,Joseph Leckie Academy,http://www.josephleckieacademy.co.uk/,Walsall,WS5 4PG,West Midlands,no
138540,335,Walsall,Jubilee Academy Mossley,www.jubilee.attrust.org.uk/,Walsall,WS3 2SQ,West Midlands,no
104175,335,Walsall,King Charles Primary School,https://www.kingcharlesprimary.co.uk,Walsall,WS2 0JN,West Midlands,no
104179,335,Walsall,Kings Hill Primary School,https://www.kings-hill.walsall.sch.uk/,Wednesbury,WS10 9JG,West Midlands,no
104139,335,Walsall,Lane Head Nursery School,,Willenhall,WV12 4JQ,West Midlands,no
131433,335,Walsall,Leighswood School,www.leighswood.walsall.sch.uk/,Walsall,WS9 8HZ,West Midlands,no
104212,335,Walsall,Lindens Primary School,https://www.lindens.walsall.sch.uk/,Sutton Coldfield,B74 2BB,West Midlands,no
142765,335,Walsall,Lodge Farm Primary School,www.lodgefarmprimary.co.uk,Willenhall,WV12 4BU,West Midlands,no
149678,335,Walsall,Mary Elliot Academy,https://mary-elliot.thrive.ac/,Walsall,WS2 7NR,West Midlands,no
104217,335,Walsall,Meadow View JMI School,https://www.meadow-view.walsall.sch.uk,Birmingham,B43 7UJ,West Midlands,no
104203,335,Walsall,Millfield Primary School,https://www.millfieldschool.co.uk/,Walsall,WS8 6BN,West Midlands,no
104138,335,Walsall,Millfields Nursery School,https://www.millfields-n.walsall.sch.uk,Walsall,WS3 3LU,West Midlands,no
135016,335,Walsall,Moorcroft Wood Primary School,www.moorcroftwood.net,Walsall,WV14 8NE,West Midlands,no
104187,335,Walsall,New Invention Infant School,http://www.invention-i.walsall.sch.uk,Willenhall,WV12 5SA,West Midlands,no
151019,335,Walsall,New Invention Learning Academy,https://www.thenila.uk,Willenhall,WV12 5SA,West Midlands,no
144499,335,Walsall,North Walsall Primary Academy,www.nwpa.attrust.org.uk,Walsall,WS2 7BH,West Midlands,no
104141,335,Walsall,Ogley Hay Nursery School,https://www.ogley-hay-n.walsall.sch.uk,Walsall,WS8 6AU,West Midlands,no
104224,335,Walsall,Old Church Church of England C Primary School,https://www.old-church.walsall.sch.uk/,Wednesbury,WS10 8DL,West Midlands,no
104274,335,Walsall,Old Hall School,http://www.old-hall.walsall.sch.uk,Walsall,WS2 7LU,West Midlands,no
135769,335,Walsall,Ormiston Shelfield Community Academy,www.scacademy.co.uk,Walsall,WS4 1BW,West Midlands,no
104161,335,Walsall,Palfrey Infant School,https://www.palfreyinfant.co.uk,Walsall,WS1 4HY,West Midlands,no
104160,335,Walsall,Palfrey Junior School,https://www.palfrey-j.walsall.sch.uk/,Walsall,WS1 4AH,West Midlands,no
136303,335,Walsall,Park Hall Infant Academy,http://www.parkhall-inf.walsall.sch.uk,Walsall,WS5 3HF,West Midlands,no
137797,335,Walsall,Park Hall Junior Academy,www.parkhalljuniorac.co.uk,Walsall,WS5 3HF,West Midlands,no
147480,335,Walsall,Pheasey Park Farm Primary School and Early Years Centre,www.pheaseyparkfarmprimary.co.uk,Birmingham,B43 7DH,West Midlands,no
143382,335,Walsall,Phoenix Academy,www.phoenix.attrust.org.uk,Walsall,WS3 2ED,West Midlands,no
104176,335,Walsall,Pinfold Street Primary School,https://www.pinfoldstreetprimary.co.uk,Wednesbury,WS10 8PU,West Midlands,no
142594,335,Walsall,Pool Hayes Academy,www.poolhayes.attrust.org.uk,Willenhall,WV12 4QZ,West Midlands,no
104191,335,Walsall,Pool Hayes Primary School,https://www.poolhayesprimary.co.uk/,Willenhall,WV12 4RX,West Midlands,no
136773,335,Walsall,Queen Mary's Grammar School,http://www.qmgs.walsall.sch.uk/,Walsall,WS1 2PG,West Midlands,no
136777,335,Walsall,Queen Mary's High School,http://www.qmhs.org.uk/,Walsall,WS4 2AE,West Midlands,no
138452,335,Walsall,Reedswood E-ACT Academy,https://reedswoodacademy.e-act.org.uk/,Walsall,WS2 8RX,West Midlands,no
140196,335,Walsall,Rivers Primary Academy,www.riversprimary.org.uk,Walsall,WS3 1LY,West Midlands,no
104225,335,Walsall,Rosedale Church of England C Infant School,http://www.shortheathfederation.org.uk,Willenhall,WV12 4EG,West Midlands,no
104136,335,Walsall,Rowley View Nursery School,https://www.rowley-view.walsall.sch.uk/,Wednesbury,WS10 7RU,West Midlands,no
136619,335,Walsall,Ryders Hayes School,www.ryders-hayes.co.uk,Walsall,WS3 4HX,West Midlands,no
104178,335,Walsall,Salisbury Primary School,https://www.salisbury.walsall.sch.uk,Wednesbury,WS10 8BQ,West Midlands,no
104134,335,Walsall,Sandbank Nursery School,https://www.sandbanknurseryschool.co.uk,Walsall,WS3 2HR,West Midlands,no
131619,335,Walsall,Shepwell Short Stay School (PRU-Medical),www.shepwellschool.co.uk,Willenhall,WV13 2QJ,West Midlands,no
136620,335,Walsall,Shire Oak Academy,http://www.shireoakacademy.co.uk/,Walsall,WS9 9PA,West Midlands,no
104188,335,Walsall,Short Heath Junior School,https://www.short-heath.walsall.sch.uk,Willenhall,WV12 4DS,West Midlands,no
104241,335,Walsall,"St Anne's Catholic Primary School, Streetly",https://www.st-annes.walsall.sch.uk/,Sutton Coldfield,B74 3PL,West Midlands,no
147163,335,Walsall,St Bernadette's Catholic Primary School,www.stbernadette.walsall.sch.uk,Walsall,WS8 6HX,West Midlands,no
104239,335,Walsall,St Francis Catholic Primary School,https://www.st-francis-p.walsall.sch.uk,Walsall,WS4 1RH,West Midlands,no
104226,335,Walsall,St Giles Church of England Primary School,https://www.st-giles.walsall.sch.uk/,Willenhall,WV13 2ER,West Midlands,no
131581,335,Walsall,St James Primary School,www.stjamesprimaryschool.com,Walsall,WS8 6AE,West Midlands,no
104228,335,Walsall,St John's Church of England Primary School,http://www.stjohnscewalsallwood.co.uk,Walsall,WS9 9NA,West Midlands,no
104235,335,Walsall,"St Joseph's Catholic Primary School, Darlaston",https://www.st-josephs.walsall.sch.uk/,Wednesbury,WS10 8HN,West Midlands,no
104240,335,Walsall,St Mary of the Angels Catholic Primary School,http://www.st-maryangel.walsall.sch.uk,Walsall,WS9 0HA,West Midlands,no
104232,335,Walsall,St Mary's The Mount Catholic Primary School,https://www.st-marymount.walsall.sch.uk,Walsall,WS1 3AY,West Midlands,no
104227,335,Walsall,St Michael's Church of England C Primary School,https://www.stmichaels-pelsall.co.uk/,Walsall,WS3 4JJ,West Midlands,no
104234,335,Walsall,"St Peter's Catholic Primary School, Bloxwich",https://www.st-peters.walsall.sch.uk/,Walsall,WS3 3LY,West Midlands,no
104259,335,Walsall,"St Thomas More Catholic School, Willenhall",http://www.st-thomasmore.walsall.sch.uk/,Willenhall,WV14 7BL,West Midlands,no
104145,335,Walsall,Sunshine Infant and Nursery School,https://www.sunshine.walsall.sch.uk/,Walsall,WS3 1HF,West Midlands,no
143750,335,Walsall,The Ladder School,www.theladderschool.org,Walsall,WS1 1RS,West Midlands,no
137707,335,Walsall,The Streetly Academy,www.thestreetlyacademy.co.uk,Sutton Coldfield,B74 2EX,West Midlands,no
104137,335,Walsall,Valley Nursery School,https://www.sandbankvalleyfederation.co.uk,Walsall,WS3 1HT,West Midlands,no
133697,335,Walsall,Walsall Academy,http://www.walsallacademy.com,Walsall,WS3 3LX,West Midlands,no
139789,335,Walsall,Walsall Studio School,http://www.studioschoolandsixth.org/,Walsall,WS1 1RL,West Midlands,no
150384,335,Walsall,Walsall Wood School,www.walsallwoodschool.co.uk,Walsall,WS8 7BP,West Midlands,no
138374,335,Walsall,West Walsall E-ACT Academy,https://westwalsallacademy.e-act.org.uk/,Walsall,WS2 9UA,West Midlands,no
104198,335,Walsall,Whetstone Field Primary School,https://www.whetstonefield.co.uk,Walsall,WS9 0HJ,West Midlands,no
104162,335,Walsall,Whitehall Junior Community School,https://www.whitehall-j.walsall.sch.uk/,Walsall,WS1 3JY,West Midlands,no
137706,335,Walsall,Willenhall E-ACT Academy,https://willenhallacademy.e-act.org.uk/,Willenhall,WV12 4BD,West Midlands,no
138343,335,Walsall,Woodlands Academy of Learning,www.woodlands.walsall.sch.uk,Willenhall,WV12 5PR,West Midlands,no
139305,335,Walsall,Woods Bank Academy,www.woodsbank.org,Wednesbury,WS10 8NQ,West Midlands,no
104168,335,Walsall,Abbey Primary School,http://www.abbey.walsall.sch.uk,Walsall,WS3 2RP,West Midlands,yes
104147,335,Walsall,Butts Primary School,https://www.butts.walsall.sch.uk/,Walsall,WS4 2AH,West Midlands,yes
104269,335,Walsall,Castle School,https://www.castle.walsall.sch.uk/,Walsall,WS3 2ED,West Midlands,yes
132073,335,Walsall,Cooper and Jordan Church of England Primary School,www.cooperjordan.walsall.sch.uk/,Walsall,WS9 8NH,West Midlands,yes
104135,335,Walsall,Fullbrook Nursery School,https://www.fullbrooknurseryschool.co.uk,Walsall,WS5 4NN,West Midlands,yes
135956,335,Walsall,Grace Academy Darlaston,https://darlaston.graceacademy.org.uk/,Wednesbury,WS10 8QJ,West Midlands,yes
104271,335,Walsall,Jane Lane School,https://www.jane-lane.walsall.sch.uk/,Walsall,WS2 0JH,West Midlands,yes
104157,335,Walsall,Leamore Primary School,https://www.leamoreprimaryschool.com/,Walsall,WS3 2BB,West Midlands,yes
104222,335,Walsall,Little Bloxwich CofE VC Primary School,https://www.lit-bloxwich.walsall.sch.uk/,Walsall,WS3 3DL,West Midlands,yes
104169,335,Walsall,Lower Farm Primary School,https://www.lowerfarmprimaryschool.co.uk/,Walsall,WS3 3QH,West Midlands,yes
104210,335,Walsall,Manor Primary School,https://www.manor.walsall.sch.uk/,Sutton Coldfield,B74 3HX,West Midlands,yes
134523,335,Walsall,New Leaf School,www.newleaf.walsall.sch.uk,Walsall,WV12 4EG,West Midlands,yes
104275,335,Walsall,Oakwood School,https://www.oakwood.walsall.sch.uk,Walsall,WS9 9JS,West Midlands,yes
104214,335,Walsall,Pelsall Village School,https://www.pelsallvillage.co.uk,Walsall,WS3 4NJ,West Midlands,yes
104207,335,Walsall,Radleys Primary School,http://www.radleys.walsall.sch.uk,Walsall,WS4 1JJ,West Midlands,yes
104196,335,Walsall,Rushall Primary School,https://www.rushall.walsall.sch.uk/,Walsall,WS4 1NQ,West Midlands,yes
104255,335,Walsall,St Francis of Assisi Catholic College,http://www.stfrancis.cc,Walsall,WS9 0RN,West Midlands,yes
104233,335,Walsall,"St Patrick's Catholic Primary School, Walsall",https://www.st-patricks.walsall.sch.uk,Walsall,WS2 8HN,West Midlands,yes
104236,335,Walsall,St Thomas of Canterbury Catholic Primary School,https://www.st-thomas.walsall.sch.uk/,Walsall,WS3 1SP,West Midlands,yes
104202,335,Walsall,Watling Street Primary School,https://www.watling-st.walsall.sch.uk/,Walsall,WS8 7LW,West Midlands,yes
104163,335,Walsall,Whitehall Nursery and Infant School,https://www.whitehall-i.walsall.sch.uk/,Walsall,WS1 3HS,West Midlands,yes
