urn,district_code,district_name,school_name,website,town,postcode,region,has_email_collected
139138,336,Wolverhampton,Aldersley High School,aldersley.aatrust.co.uk,Wolverhampton,WV8 1RT,West Midlands,no
104279,336,Wolverhampton,Ashmore Park Nursery School,https://www.ashmoreparknurseryschool.co.uk,Wolverhampton,WV11 2LH,West Midlands,no
132197,336,Wolverhampton,Bantock Primary School,www.bantockprimaryschool.co.uk,Wolverhampton,WV3 0HY,West Midlands,no
140658,336,Wolverhampton,Berrybrook Primary School,www.berrybrookprimary.org.uk/,Wolverhampton,WV10 8NZ,West Midlands,no
130305,336,Wolverhampton,Bilston Church of England Primary School,,Bilston,WV14 0HU,West Midlands,no
132018,336,Wolverhampton,Bilston Nursery School,www.bilstonnurseryschool.co.uk,Bilston,WV14 0LT,West Midlands,no
143506,336,Wolverhampton,Broadmeadow Special School,www.broadmeadowspecial.co.uk,Wolverhampton,WV1 4AL,West Midlands,no
104290,336,Wolverhampton,Bushbury Hill Primary School,https://www.bushburyhillprimary.co.uk/,Wolverhampton,WV10 8BY,West Midlands,no
142823,336,Wolverhampton,Bushbury Lane Academy,www.bushburylaneacademy.co.uk,Wolverhampton,WV10 9TR,West Midlands,no
104285,336,Wolverhampton,Bushbury Nursery School,https://www.bushburynursery.co.uk,Wolverhampton,WV10 8JP,West Midlands,no
104311,336,Wolverhampton,Castlecroft Primary School,www.castlecroftprimaryschool.com/,Wolverhampton,WV3 8HS,West Midlands,no
104362,336,Wolverhampton,Christ Church (Church of England) Infant and Nursery School,https://www.christchurchfederation.co.uk/,Wolverhampton,WV6 8EL,West Midlands,no
104366,336,Wolverhampton,Christ Church (Church of England) Junior School,https://www.christchurchfederation.co.uk/,Wolverhampton,WV6 8LG,West Midlands,no
104310,336,Wolverhampton,Claregate Primary School,https://www.claregateprimaryschool.co.uk,Wolverhampton,WV6 9JU,West Midlands,no
104395,336,Wolverhampton,Colton Hills Community School,http://coltonhills.co.uk/,Wolverhampton,WV4 5DG,West Midlands,no
145114,336,Wolverhampton,Coppice Performing Arts School,https://www.coppiceschool.net/,Wolverhampton,WV11 2QE,West Midlands,no
141769,336,Wolverhampton,Corpus Christi Catholic Primary Academy,http://www.corpuschristiacademy.co.uk/,Wolverhampton,WV11 2LT,West Midlands,no
145395,336,Wolverhampton,D'Eyncourt Primary School,https://www.deyncourtprimary.org/,Wolverhampton,WV11 1DD,West Midlands,no
104350,336,Wolverhampton,Dovecotes Primary School,www.dovecotesprimaryschool.co.uk,Wolverhampton,WV8 1TX,West Midlands,no
142679,336,Wolverhampton,Dunstall Hill Primary School,https://dunstallhillprimary.com/,Wolverhampton,WV6 0NH,West Midlands,no
143152,336,Wolverhampton,East Park Academy,www.eastparkacademy.com,Wolverhampton,WV1 2DS,West Midlands,no
104280,336,Wolverhampton,Eastfield Nursery School,https://www.eastfieldnurseryschool.co.uk,Wolverhampton,WV1 2HH,West Midlands,no
143813,336,Wolverhampton,Edward the Elder Primary School,www.edwardtheelder.org.uk,Wolverhampton,WV11 3DB,West Midlands,no
142349,336,Wolverhampton,Elston Hall Primary School,www.elstonhall.org.uk,Wolverhampton,WV10 6NN,West Midlands,no
143150,336,Wolverhampton,Evergreen Academy,https://evergreen.greenhousecms.co.uk/,Wolverhampton,WV6 0UA,West Midlands,no
104294,336,Wolverhampton,Fallings Park Primary School,https://www.fallingspark.org.uk,Wolverhampton,WV10 8BN,West Midlands,no
144252,336,Wolverhampton,Goldthorn Park Primary School,http://www.goldthornpark.org.uk,Wolverhampton,WV4 5ET,West Midlands,no
104302,336,Wolverhampton,Graiseley Primary School,https://www.graiseleyprimaryschool.co.uk/,Wolverhampton,WV2 4NE,West Midlands,no
104415,336,Wolverhampton,Green Park School,http://www.greenparkschool.co.uk,Bilston,WV14 6EH,West Midlands,no
142680,336,Wolverhampton,Grove Primary Academy,,Wolverhampton,WV2 1HZ,West Midlands,no
137730,336,Wolverhampton,Heath Park,http://www.heathpark.net/,Wolverhampton,WV11 1RD,West Midlands,no
142317,336,Wolverhampton,Highfields School,http://www.hswv.co.uk/,Wolverhampton,WV4 4NT,West Midlands,no
143151,336,Wolverhampton,Hill Avenue Academy,https://www.hillavenueacademy.com,Wolverhampton,WV4 6PY,West Midlands,no
141789,336,Wolverhampton,Holy Rosary Catholic Primary Academy,https://www.holyrosaryprimary.co.uk/,Wolverhampton,WV1 2BS,West Midlands,no
104378,336,Wolverhampton,Holy Trinity Catholic Primary School,https://www.holytrinityprimaryschool.co.uk,Bilston,WV14 7PD,West Midlands,no
104327,336,Wolverhampton,Lanesfield Primary School,https://www.lanesfieldprimary.co.uk/,Wolverhampton,WV4 6BZ,West Midlands,no
104320,336,Wolverhampton,Long Knowle Primary School,https://www.longknowleprimary.co.uk,Wolverhampton,WV11 1EB,West Midlands,no
104278,336,Wolverhampton,Low Hill Nursery School,https://lowhillnursery.co.uk,Wolverhampton,WV10 9JN,West Midlands,no
104315,336,Wolverhampton,Loxdale Primary School,www.loxdaleprimaryschool.uk/,Bilston,WV14 0AU,West Midlands,no
141858,336,Wolverhampton,Manor Primary School,,Bilston,WV14 9UQ,West Midlands,no
104334,336,Wolverhampton,Merridale Primary School,https://www.merridaleprimary.co.uk,Wolverhampton,WV3 0UP,West Midlands,no
144278,336,Wolverhampton,Moreton School,,Wolverhampton,WV10 8BY,West Midlands,no
138098,336,Wolverhampton,Moseley Park,http://www.moseleypark.org,Bilston,WV14 6LU,West Midlands,no
139274,336,Wolverhampton,Nishkam Primary School Wolverhampton,www.nishkamschooltrust.org/npsw/,Wolverhampton,WV3 0PR,West Midlands,no
141648,336,Wolverhampton,Northwood Park Primary School,www.northwoodparkprimary.co.uk,Wolverhampton,WV10 8DS,West Midlands,no
149553,336,Wolverhampton,Oak Meadow Primary School,oakmeadowschool.co.uk,Wolverhampton,WV11 2QQ,West Midlands,no
145134,336,Wolverhampton,Ormiston NEW Academy,www.onewa.co.uk,Wolverhampton,WV10 6SE,West Midlands,no
145008,336,Wolverhampton,Ormiston SWB Academy,https://ormistonswbacademy.org.uk/,Bilston,WV14 0LN,West Midlands,no
141802,336,Wolverhampton,Our Lady and St Chad Catholic Academy,http://www.olsc.org.uk,Wolverhampton,WV10 8BL,West Midlands,no
142684,336,Wolverhampton,Palmers Cross Primary School,www.palmerscross.org.uk,Wolverhampton,WV6 9DF,West Midlands,no
144253,336,Wolverhampton,Parkfield Primary School,www.parkfieldprimary.uk/,Wolverhampton,WV4 6HB,West Midlands,no
149228,336,Wolverhampton,Penn Hall School,https://www.pennhall.aatrust.co.uk/,Wolverhampton,WV4 5HP,West Midlands,no
139870,336,Wolverhampton,Perry Hall Primary School,www.perryhall.co.uk,Wolverhampton,WV11 3RT,West Midlands,no
104281,336,Wolverhampton,Phoenix Nursery School,https://www.phoenixnurseryschool.co.uk,Wolverhampton,WV2 3JS,West Midlands,no
142086,336,Wolverhampton,Pine Green Academy,https://www.pinegreenacademy.org.uk/,Wolverhampton,WV6 0UB,West Midlands,no
104304,336,Wolverhampton,Rakegate Primary School,https://www.rakegateprimary.co.uk/,Wolverhampton,WV10 6US,West Midlands,no
139894,336,Wolverhampton,SS Peter and Paul Catholic Primary Academy & Nursery,www.sspeterandpaul.co.uk,Wolverhampton,WV6 0HR,West Midlands,no
139800,336,Wolverhampton,SS. Mary and John's Catholic Primary Academy,www.ssmaryandjohns.co.uk/,Wolverhampton,WV2 1HZ,West Midlands,no
149635,336,Wolverhampton,Smestow Academy,www.smestowacademy.co.uk,Wolverhampton,WV3 8HU,West Midlands,no
150943,336,Wolverhampton,Spring Vale Primary School,www.springvaleprimary.co.uk,Wolverhampton,WV4 6SD,West Midlands,no
150083,336,Wolverhampton,Springdale Primary School,http://www.springdaleprimaryschool.co.uk/,Wolverhampton,WV4 4NJ,West Midlands,no
145747,336,Wolverhampton,St Alban's Church of England Primary Academy,,Wolverhampton,WV11 2PF,West Midlands,no
150887,336,Wolverhampton,St Andrew's Church of England Primary School,www.standrewsceprimary.co.uk,Wolverhampton,WV6 0RH,West Midlands,no
147367,336,Wolverhampton,St Anthony's Catholic Primary Academy,www.stanthonyscatholicschool.co.uk/,Wolverhampton,WV10 6NW,West Midlands,no
143393,336,Wolverhampton,St Bartholomew's Church of England Primary School,www.stbartholomewsprimary.uk/,Wolverhampton,WV4 5LG,West Midlands,no
139891,336,Wolverhampton,St Edmund's Catholic Academy,http://www.stedmundscloud.co.uk/,Wolverhampton,WV3 9DU,West Midlands,no
140355,336,Wolverhampton,St Jude's Church of England Primary Academy,www.stjudes.wolverhampton.sch.uk/,Wolverhampton,WV6 0DT,West Midlands,no
104372,336,Wolverhampton,St Luke's Church of England Aided Primary School,https://www.stlukesprimary.co.uk,Wolverhampton,WV2 3AE,West Midlands,no
141825,336,Wolverhampton,St Martin's Church of England Primary School,http://www.stmartinsprimary.org.uk,Bilston,WV14 8BS,West Midlands,no
141827,336,Wolverhampton,"St Mary's Catholic Primary Academy, Wolverhampton",www.stmaryscpa.co.uk,Wolverhampton,WV10 8PG,West Midlands,no
139892,336,Wolverhampton,St Michael's Catholic Primary Academy and Nursery,www.stmichaels-academy.co.uk/,Wolverhampton,WV3 7LE,West Midlands,no
104384,336,Wolverhampton,St Michael's Church of England Aided Primary School,http://www.stmichaelscofeprimary.co.uk,Wolverhampton,WV6 9AF,West Midlands,no
147630,336,Wolverhampton,St Patrick's Catholic Primary Academy,https://stpatrickscpa.co.uk,Wolverhampton,WV11 1PG,West Midlands,no
104382,336,Wolverhampton,St Paul's Church of England Aided Primary School,https://www.stpaulscofeprimaryschool.co.uk,Wolverhampton,WV9 5NR,West Midlands,no
138852,336,Wolverhampton,St Peter's Collegiate Academy,http://www.stpetersacademy.org.uk/,Wolverhampton,WV3 9DU,West Midlands,no
147113,336,Wolverhampton,St Regis Church of England Academy,,Wolverhampton,WV6 8XG,West Midlands,no
144251,336,Wolverhampton,St Stephen's Church of England Primary School,,Wolverhampton,WV10 0BB,West Midlands,no
139893,336,Wolverhampton,St Teresa's Catholic Primary Academy,https://st-teresas.org/,Wolverhampton,WV4 6AW,West Midlands,no
145396,336,Wolverhampton,St Thomas' Church of England Primary Academy,www.stthomasceacademy.com,Wolverhampton,WV11 3TG,West Midlands,no
104323,336,Wolverhampton,Stow Heath Primary School,http://www.stowheathprimaryschool.co.uk/,Willenhall,WV13 3TT,West Midlands,no
104317,336,Wolverhampton,Stowlawn Primary School,https://www.stowlawnprimary.co.uk,Bilston,WV14 6EH,West Midlands,no
149227,336,Wolverhampton,Tettenhall Wood School,http://www.tettenhallwoodschool.org.uk,Wolverhampton,WV6 8XF,West Midlands,no
150194,336,Wolverhampton,The Kairos Academy (KS3),,Wolverhampton,WV4 6SR,West Midlands,no
150287,336,Wolverhampton,The Kairos Academy (KS4),,Wolverhampton,WV4 6SR,West Midlands,no
142080,336,Wolverhampton,The Khalsa Academy Wolverhampton,https://tkaw.org,Wolverhampton,WV4 6AP,West Midlands,no
143101,336,Wolverhampton,"The Royal School, Wolverhampton",https://theroyalschool.co.uk/,Wolverhampton,WV3 0EG,West Midlands,no
150198,336,Wolverhampton,The Vireo Academy,,Wolverhampton,WV4 6SR,West Midlands,no
140160,336,Wolverhampton,Thomas Telford University Technical College,www.Thomastelfordutc.com,Wolverhampton,WV10 0JR,West Midlands,no
145288,336,Wolverhampton,Trinity CofE Primary Academy,www.trinityceprimary.co.uk,Wolverhampton,WV10 0UB,West Midlands,no
104332,336,Wolverhampton,Uplands Junior School,,Wolverhampton,WV3 8BA,West Midlands,no
145715,336,Wolverhampton,Villiers Primary School,www.villiersprimaryschool.co.uk/,Bilston,WV14 6PR,West Midlands,no
150084,336,Wolverhampton,Warstones Primary School,www.warstones.co.uk,Wolverhampton,WV4 4LU,West Midlands,no
141245,336,Wolverhampton,Wednesfield Academy,http://www.wednesfieldacademy.co.uk/,Wolverhampton,WV11 3ES,West Midlands,no
150745,336,Wolverhampton,Wednesfield Technology Primary,https://wednesfieldtechnologyprimary.org.uk/,Wolverhampton,WV11 1TP,West Midlands,no
131153,336,Wolverhampton,West Park Primary School,http://www.westparkprimaryschool.co.uk,Wolverhampton,WV1 4BE,West Midlands,no
104312,336,Wolverhampton,Westacre Infant School,https://www.westacreinfantschool.uk/,Wolverhampton,WV3 9EP,West Midlands,no
142383,336,Wolverhampton,Westcroft School,www.westcroftschool.co.uk,Wolverhampton,WV10 8NZ,West Midlands,no
104297,336,Wolverhampton,Whitgreave Primary School,https://www.whitgreaveprimary.co.uk,Wolverhampton,WV10 9JP,West Midlands,no
104325,336,Wolverhampton,Wilkinson Primary School,www.wilkinsonprimaryschool.uk/,Bilston,WV14 8UR,West Midlands,no
104283,336,Wolverhampton,Windsor Nursery School,https://www.windsorcentre.com,Wolverhampton,WV4 6EL,West Midlands,no
139199,336,Wolverhampton,Woden Primary School,www.wodenprimary.org/,Wolverhampton,WV10 0LH,West Midlands,no
140798,336,Wolverhampton,Wolverhampton Girls' High School,http://www.wghs.org.uk,Wolverhampton,WV6 0BY,West Midlands,no
142123,336,Wolverhampton,Wolverhampton Vocational Training Centre,www.wvtc.org.uk,Wolverhampton,WV4 6JP,West Midlands,no
104322,336,Wolverhampton,Wood End Primary School,https://www.woodendprimaryschool.co.uk/,Wolverhampton,WV11 1YQ,West Midlands,no
147528,336,Wolverhampton,Woodfield Primary School,,Wolverhampton,WV4 4AG,West Midlands,no
146194,336,Wolverhampton,Woodthorne Primary School,www.woodthorneprimary.org/,Wolverhampton,WV6 8XL,West Midlands,no
104342,336,Wolverhampton,Eastfield Primary School,https://www.eastfieldprimaryschool.org.uk/,Wolverhampton,WV1 2QY,West Midlands,yes
141775,336,Wolverhampton,Field View Primary School,http://www.fieldviewprimary.org.uk,Bilston,WV14 7AE,West Midlands,yes
104412,336,Wolverhampton,Penn Fields School,https://www.pennfields.com,Wolverhampton,WV4 4NT,West Midlands,yes
104387,336,Wolverhampton,St Matthias School,https://st-matthias.com,Wolverhampton,WV1 2BH,West Midlands,yes
104345,336,Wolverhampton,Wodensfield Primary School,https://www.wodensfield.org,Wolverhampton,WV11 1PW,West Midlands,yes
