urn,district_code,district_name,school_name,website,town,postcode,region,has_email_collected
104507,341,Liverpool,Abercromby Nursery School,https://www.abercrombynurseryschool.co.uk,Liverpool,L8 7QA,North West,no
134250,341,Liverpool,All Saints' Catholic Voluntary Aided Primary School,www.allsaintsanfield.co.uk,Liverpool,L4 2QG,North West,no
148226,341,Liverpool,Alsop High School,www.alsophigh.org.uk,Liverpool,L4 6SH,North West,no
140975,341,Liverpool,Anfield Road Primary School,http://anfieldroadprimary.co.uk,Liverpool,L4 0TN,North West,no
135267,341,Liverpool,Arnot St Mary CofE Primary School,www.arnotstmary.co.uk/,Liverpool,L4 4ED,North West,no
104516,341,Liverpool,Banks Road Primary School,https://www.banksroadprimaryschoolliverpool.co.uk,Liverpool,L19 8JZ,North West,no
104517,341,Liverpool,Barlows Primary School,https://www.barlowsprimary.co.uk/,Liverpool,L9 9EH,North West,no
104519,341,Liverpool,Belle Vale Community Primary School,https://www.bellevaleprimary.co.uk,Liverpool,L25 2QF,North West,no
138183,341,Liverpool,Bellerive FCJ Catholic College,http://www.bellerivefcj.org/,Liverpool,L17 3AA,North West,no
145438,341,Liverpool,"Bishop Martin Church of England Primary School, Woolton",https://bishopmartince.co.uk,Liverpool,L25 5JF,North West,no
150202,341,Liverpool,Blackmoor Park Infants' School,,Liverpool,L12 9EY,North West,no
104521,341,Liverpool,Blackmoor Park Junior School,https://www.blackmoorpark.com,Liverpool,L12 9HB,North West,no
141076,341,Liverpool,Blessed Sacrament Catholic Primary School,www.bsprimary.com,Liverpool,L9 9AF,North West,no
133691,341,Liverpool,Blueberry Park,www.blueberryparkprimary.co.uk/,Liverpool,L14 2DY,North West,no
104593,341,Liverpool,Booker Avenue Infant School,http://www.bookeravenue-inf.co.uk,Liverpool,L18 9SB,North West,no
104522,341,Liverpool,Booker Avenue Junior School,https://www.booker-junior.com,Liverpool,L18 9SB,North West,no
133335,341,Liverpool,Broad Square Community Primary School,www.broadsquareprimary.co.uk/,Liverpool,L11 1BS,North West,no
104503,341,Liverpool,Chatham Place Nursery School,,Liverpool,L7 6HD,North West,no
134658,341,Liverpool,Childwall Abbey School,childwallabbeyschool.net,Liverpool,L16 5EY,North West,no
138787,341,Liverpool,Childwall Sports & Science Academy,www.childwallssa.org,Liverpool,L15 6XZ,North West,no
134210,341,Liverpool,Childwall Valley Primary School,www.childwallvalley.org,Liverpool,L25 1NW,North West,no
104629,341,Liverpool,Christ The King Catholic Primary School,http://www.christthekingcatholicprimary.co.uk/,Liverpool,L15 7LZ,North West,no
104530,341,Liverpool,Corinthian Community Primary School,https://sites.google.com/corinthianschool.co.uk/corinthianschool/home,Liverpool,L13 6SH,North West,no
146768,341,Liverpool,Croxteth Community Primary School,,Liverpool,L11 0BP,North West,no
148792,341,Liverpool,Dixons Broadgreen Academy,www.dixonsba.com,Liverpool,L13 5UQ,North West,no
149530,341,Liverpool,Dixons Croxteth Academy,www.dixonscr.com,Liverpool,L11 4SG,North West,no
148655,341,Liverpool,Dixons Fazakerley Academy,www.dixonsfa.com,Liverpool,L10 1LB,North West,no
130296,341,Liverpool,Dovecot Primary School,www.dovecotprimary.co.uk/,Liverpool,L14 0LH,North West,no
141960,341,Liverpool,Dovedale Community Primary School,www.dovedaleprimary.co.uk,Liverpool,L18 1JX,North West,no
104504,341,Liverpool,East Prescot Road Nursery School,http://www.eastprescotroad.co.uk/,Liverpool,L14 1PW,North West,no
104506,341,Liverpool,Ellergreen Nursery School and Childcare Centre,https://www.ellergreennurseryschool.co.uk,Liverpool,L11 2RY,North West,no
131105,341,Liverpool,Emmaus Church of England and Catholic Primary School,www.emmausschool.co.uk/,LIVERPOOL,L12 0JE,North West,no
104744,341,Liverpool,Ernest Cookson School,,Liverpool,L13 0BQ,North West,no
138379,341,Liverpool,Everton Free School,http://www.evertonfreeschool.com/,Liverpool,L4 4DF,North West,no
104505,341,Liverpool,Everton Nursery School and Family Centre,https://www.evertonnurseryschoolandfamilycentre.org,Liverpool,L6 2WF,North West,no
149406,341,Liverpool,Faith Primary Academy,https://www.faithprimary.co.uk/,Liverpool,L5 3LW,North West,no
133336,341,Liverpool,Florence Melly Community Primary School,www.florencemelly.org/,Liverpool,L4 9UA,North West,no
150131,341,Liverpool,Four Oaks Community Primary School,,Liverpool,L5 1XP,North West,no
145735,341,Liverpool,Garston Church of England Primary School,,Liverpool,L19 5NS,North West,no
150956,341,Liverpool,Gateacre School,,Liverpool,L25 2RW,North West,no
150210,341,Liverpool,Gilmour Primary School,www.gilmourprimary.com,Liverpool,L19 9AR,North West,no
133332,341,Liverpool,Greenbank Primary School,http://www.greenbank-primary.co.uk,Liverpool,L18 1JB,North West,no
139114,341,Liverpool,Harmonize Academy AP Free School,www.harmonizeacademy.org,Liverpool,L6 6DL,North West,no
141330,341,Liverpool,Heygreen Primary School,www.heygreenblogs.net,Liverpool,L15 4ND,North West,no
104688,341,Liverpool,Holly Lodge Girls' College,http://hollylodge.liverpool.sch.uk/,Liverpool,L12 7LE,North West,no
104633,341,Liverpool,Holy Cross Catholic Primary School,https://www.holycrossliverpool.co.uk/,Liverpool,L3 2DU,North West,no
136062,341,Liverpool,Holy Family Catholic Primary School,www.holy-family.co.uk/,Liverpool,L8 6QB,North West,no
104634,341,Liverpool,Holy Name Catholic Primary School,https://www.holynamecatholicprimary.co.uk/,Liverpool,L10 9LG,North West,no
104635,341,Liverpool,Holy Trinity Catholic Primary School,https://www.holytrinitycatholicprimaryschool.co.uk/,Liverpool,L19 8JY,North West,no
133421,341,Liverpool,Hope School,http://www.hopeschool-liverpool.co.uk,Liverpool,L25 2RY,North West,no
104549,341,Liverpool,Hunts Cross Primary School,https://www.huntscrossprimaryschool.com,Liverpool,L25 0PJ,North West,no
136118,341,Liverpool,Kensington Primary School,www.kensingtonprimary.co.uk/,Liverpool,L7 2QG,North West,no
104703,341,Liverpool,King David High School,http://www.kingdavidliverpool.co.uk/,Liverpool,L15 6WU,North West,no
104682,341,Liverpool,King David Primary School,https://www.kingdavidliverpool.co.uk/,Liverpool,L15 6WU,North West,no
137675,341,Liverpool,"King's Leadership Academy, Liverpool",www.kingsliverpool.com,Liverpool,L8 9SJ,North West,no
143746,341,Liverpool,King's Leadership Phoenix Academy,https://www.kingsphoenix.com/,Liverpool,L13 1FB,North West,no
151314,341,Liverpool,King's Northway Primary Academy,www.northway.liverpool.sch.uk,Liverpool,L15 7JQ,North West,no
131800,341,Liverpool,Kingsley Community School,kingsley.liverpool.sch.uk,Liverpool,L8 2TG,North West,no
132176,341,Liverpool,Kirkdale St Lawrence CofE VA Primary School,www.kirkdalestlawrence.com,Liverpool,L4 1QD,North West,no
150850,341,Liverpool,Knotty Ash Primary School,www.knottyashprimaryschool.co.uk/,Liverpool,L14 5NX,North West,no
141103,341,Liverpool,LIPA School,www.lipaschool.org,Liverpool,L1 7BT,North West,no
142891,341,Liverpool,LIPA Sixth Form College,www.lipasixthformcollege.org,Liverpool,L1 9DY,North West,no
130395,341,Liverpool,Lawrence Community Primary School,http://www.lawrence-primary.co.uk,Liverpool,L15 0EE,North West,no
133333,341,Liverpool,Leamington Community Primary School,www.leamingtonprimary.com/,Liverpool,L11 7BT,North West,no
104555,341,Liverpool,Lister Infant and Nursery School,https://www.listerinfants.org.uk/,Liverpool,L13 7DT,North West,no
104554,341,Liverpool,Lister Junior School,www.thelifecloud.net/schools/ListerJuniorSchool/,Liverpool,L13 7DT,North West,no
139686,341,Liverpool,Liverpool College,www.liverpoolcollege.org.uk,Liverpool,L18 8BG,North West,no
139588,341,Liverpool,Liverpool Life Sciences UTC,http://lifesciencesutc.co.uk/,Liverpool,L1 0BS,North West,no
133334,341,Liverpool,Longmoor Community Primary School,www.longmoorcps.co.uk,Liverpool,L9 0EU,North West,no
131480,341,Liverpool,Mab Lane Junior Mixed and Infant School,http://www.mablaneprimary.co.uk/,Liverpool,L12 6QL,North West,no
104557,341,Liverpool,Matthew Arnold Primary School,https://www.matthewarnold.co.uk,Liverpool,L8 9UB,North West,no
104591,341,Liverpool,Middlefield Community Primary School,https://www.middlefieldcommunityprimary.co.uk,Liverpool,L24 2UE,North West,no
104751,341,Liverpool,Millstead School,https://www.millsteadschool.co.uk,Liverpool,L5 3LU,North West,no
133331,341,Liverpool,Monksdown Primary School,www.monksdownprimary.co.uk/,Liverpool,L11 1HH,North West,no
136810,341,Liverpool,Mosspits Lane Primary School,www.mosspits.com/,Liverpool,L15 6UN,North West,no
104636,341,Liverpool,Much Woolton Catholic Primary School,http://www.muchwoolton.co.uk,Liverpool,L25 8QH,North West,no
135656,341,Liverpool,New Heights High School,www.newheightsschool.co.uk,Liverpool,L9 7HA,North West,no
145359,341,Liverpool,New Park Primary School,http://www.newparkprimary.com,Liverpool,L6 9EU,North West,no
104600,341,Liverpool,Norman Pannell Primary School,https://www.normanpannell.com,Liverpool,L27 7AE,North West,no
104564,341,Liverpool,Northcote Primary School,https://www.northcoteschool.com,Liverpool,L9 1HW,North West,no
150373,341,Liverpool,Notre Dame Catholic Academy,https://notredameliverpool.com/,Liverpool,L5 5AF,North West,no
104638,341,Liverpool,Our Lady Immaculate Catholic Primary School,https://www.oliprimary.co.uk/,Liverpool,L5 3QF,North West,no
104632,341,Liverpool,Our Lady and St Swithin's Catholic Primary School,https://www.ourladyandstswithins.co.uk,Merseyside,L11 0BQ,North West,no
104670,341,Liverpool,Our Lady of Good Help Catholic Primary School,www.olgh.co.uk/,Liverpool,L15 8JL,North West,no
133337,341,Liverpool,Our Lady of the Assumption Catholic Primary School,www.ourladyoftheassumption.co.uk/,Liverpool,L25 2RW,North West,no
104642,341,Liverpool,Our Lady's Bishop Eton Catholic Primary School,https://www.ourladysbishopeton.com/,Liverpool,L18 2EP,North West,no
104748,341,Liverpool,Palmerston School,http://www.palmerstonschool.co.uk/,Liverpool,L17 6AU,North West,no
134471,341,Liverpool,Pinehurst Primary School,http://www.pinehurst-primary.co.uk,Liverpool,L4 7UF,North West,no
104569,341,Liverpool,Pleasant Street Primary School,https://www.pleasantstreetprimary.co.uk/,Liverpool,L3 5TS,North West,no
104750,341,Liverpool,Princes School,https://princesprimary.com,Liverpool,L8 1YQ,North West,no
104571,341,Liverpool,Ranworth Square Primary School,https://www.ranworthsquareprimary.co.uk/,Liverpool,L11 3DG,North West,no
104749,341,Liverpool,Redbridge High School,www.redbridgehighschool.co.uk,Liverpool,L9 6AD,North West,no
141937,341,Liverpool,Rice Lane Primary School and Nursery,www.ricelaneprimary.co.uk,Liverpool,L9 3BU,North West,no
145360,341,Liverpool,Roscoe Primary School,www.roscoeliverpool.co.uk/,Liverpool,L13 9AD,North West,no
137888,341,Liverpool,Rudston Primary School,www.rudstonprimary.co.uk,Liverpool,L16 4PQ,North West,no
148177,341,Liverpool,Runnymede St Edward's Catholic Primary School,www.runnymede-school.org.uk,Liverpool,L12 1LE,North West,no
104641,341,Liverpool,Sacred Heart Catholic Primary School and Nursery,https://sacredheartliverpool.school/,Liverpool,L7 8TQ,North West,no
104545,341,Liverpool,Springwood Heath Primary School,https://www.springwoodheath.co.uk,Liverpool,L19 4TL,North West,no
149133,341,Liverpool,St Ambrose Catholic Academy,,Liverpool,L24 7SF,North West,no
104643,341,Liverpool,St Austin's Catholic Primary School,https://www.st-austins.co.uk,Liverpool,L19 9DH,North West,no
150535,341,Liverpool,St Cecilia's Catholic Primary School,https://www.stceciliascatholicprimaryschool.co.uk/,Liverpool,L13 7EA,North West,no
104646,341,Liverpool,St Charles' Catholic Primary School,https://stcharlescatholicprimary.com,Liverpool,L17 7JA,North West,no
133615,341,Liverpool,St Christopher's Catholic Primary School,http://www.stchristophersprimary.com/,Liverpool,L24 0SN,North West,no
150244,341,Liverpool,St Cleopas' Church of England Primary Academy,www.stcleopas.co.uk,Liverpool,L8 4RP,North West,no
104649,341,Liverpool,St Cuthbert's Catholic Primary and Nursery School,https://stcuthberts.school,Liverpool,L13 2BA,North West,no
136735,341,Liverpool,St Edward's College,http://www.st-edwards.co.uk,Liverpool,L12 1LF,North West,no
104640,341,Liverpool,St Finbar's Catholic Primary School,http://www.st-finbars.co.uk,Liverpool,L8 9RY,North West,no
150713,341,Liverpool,St Francis Xavier's Catholic Academy,www.sfx1842.org,Liverpool,L25 6EG,North West,no
104650,341,Liverpool,St Francis de Sales Catholic Junior School,http://www.st-francis-de-sales.co.uk,Liverpool,L4 3RL,North West,no
104715,341,Liverpool,St John Bosco Arts College,http://www.stjohnboscoartscollege.com/,Croxteth,L11 9DQ,North West,no
132796,341,Liverpool,St John's Catholic Primary School,https://www.stjohnskirkdale.co.uk/page/?title=Admissions&pid=877,Liverpool,L4 1UN,North West,no
138850,341,Liverpool,St Margaret's Church of England Academy,www.stmargaretsacademy.com,Liverpool,L17 6AB,North West,no
104624,341,Liverpool,"St Mary's Church of England Primary School, West Derby",https://www.stmaryswestderby.co.uk,Liverpool,L12 5EA,North West,no
104656,341,Liverpool,St Michael's Catholic Primary School,https://www.stmichaelscatholicprimary.co.uk,Liverpool,L6 9DU,North West,no
133330,341,Liverpool,St Michael-in-the-Hamlet Community Primary School,www.stmichaelinthehamletschool.com/,Liverpool,L17 7BA,North West,no
149132,341,Liverpool,St Nicholas Catholic Academy,www.stnicholasliverpool.co.uk,Liverpool,L3 5XF,North West,no
142523,341,Liverpool,St Oswald's Catholic Primary School,www.stoswaldsschool.com,Liverpool,L13 5TE,North West,no
104673,341,Liverpool,St Paul's and St Timothy's Catholic Infant School,http://www.stpaulandsttimothys.com,Liverpool,L12 8RP,North West,no
104664,341,Liverpool,St Sebastian's Catholic Primary School and Nursery,https://www.stsebastiansliverpool.co.uk,Liverpool,L7 0LH,North West,no
141582,341,Liverpool,St Silas Church of England Primary School,www.stsilasprimaryschool.co.uk,Liverpool,L8 3TP,North West,no
150352,341,Liverpool,St Teresa of Lisieux Catholic Primary Academy,www.stteresaoflisieux.co.uk,Liverpool,L11 1DB,North West,no
134245,341,Liverpool,St. Margaret's Anfield Church of England Primary School,https://stmargaretsanfield.co.uk/,Liverpool,L6 4BX,North West,no
133338,341,Liverpool,Stockton Wood Community Primary School,www.stocktonwoodprimary.co.uk/,Liverpool,L24 3TF,North West,no
150149,341,Liverpool,Sudley Primary School,sudleyprimary.net,Liverpool,L17 6BH,North West,no
144493,341,Liverpool,The Academy of St Francis of Assisi,https://asfaonline.org/,Liverpool,L6 7UR,North West,no
136119,341,Liverpool,The Academy of St Nicholas,http://www.theacademyofstnicholas.org.uk,Liverpool,L19 5NY,North West,no
145086,341,Liverpool,The Beacon Church of England Primary School,www.beaconceprimary.co.uk,Liverpool,L5 3QG,North West,no
137916,341,Liverpool,The Blue Coat School,http://www.bluecoatschoolliverpool.org.uk/,Liverpool,L15 9EE,North West,no
139589,341,Liverpool,The Studio School Liverpool,http://thestudioliverpool.uk/,Liverpool,L1 0BS,North West,no
149134,341,Liverpool,The Trinity Catholic Academy,www.thetrinityprimary.com,Liverpool,L5 8UT,North West,no
147477,341,Liverpool,University of Liverpool Mathematics School,liverpoolmathsschool.org,Liverpool,L69 7SH,North West,no
104616,341,Liverpool,Wavertree Church of England School,https://www.wavertree.liverpool.sch.uk/,Liverpool,L15 8HJ,North West,no
133329,341,Liverpool,Wellesbourne Community Primary School,www.wellesbourneschool.co.uk/,Liverpool,L11 5BA,North West,no
138696,341,Liverpool,West Derby School,www.westderbyschool.org,Liverpool,L13 7HQ,North West,no
104570,341,Liverpool,Whitefield Primary School,https://www.whitefieldprimaryschool.co.uk,Liverpool,L6 2HZ,North West,no
104589,341,Liverpool,Windsor Community Primary School,www.windsorprimaryblogs.com,Liverpool,L8 8JE,North West,no
136813,341,Liverpool,Woolton Primary School,www.wooltonprimary.com,Liverpool,L25 5NN,North West,no
104736,341,Liverpool,Abbot's Lea School,https://www.abbotsleaschool.co.uk,Liverpool,L25 6EE,North West,yes
104717,341,Liverpool,Archbishop Beck Catholic College,http://www.archbishopbeck.com/,Liverpool,L9 7BF,North West,yes
104705,341,Liverpool,Archbishop Blanch CofE High School,http://www.abblanch.com,Liverpool,L7 6HQ,North West,yes
133441,341,Liverpool,Bank View High School,https://bvhs.co.uk/,Liverpool,L9 6AD,North West,yes
104611,341,Liverpool,Broadgreen Primary,http://www.broadgreenprimary.org.uk,Liverpool,L13 5UE,North West,yes
104713,341,Liverpool,Broughton Hall Catholic High School,https://www.broughtonhall.com,Liverpool,L12 9HJ,North West,yes
104698,341,Liverpool,Calderstones School,https://www.calderstones.co.uk,Liverpool,L18 3HS,North West,yes
104714,341,Liverpool,Cardinal Heenan Catholic High School,http://www.cardinal-heenan.org.uk,Liverpool,L12 9HZ,North West,yes
104625,341,Liverpool,Childwall Church of England Primary School,http://www.childwallce.co.uk,Liverpool,L16 0JD,North West,yes
104742,341,Liverpool,Clifford Holroyde Specialist Sen College,https://www.clifford-holroyde.co.uk,Liverpool,L14 7NX,North West,yes
131818,341,Liverpool,Fazakerley Primary School,www.fazakerleyprimary.co.uk/,Liverpool,L10 7LD,North West,yes
104610,341,Liverpool,Gwladys Street Primary and Nursery School,https://www.gwladysstreet.org/,Liverpool,L4 5RW,North West,yes
131065,341,Liverpool,North Liverpool Academy,http://northliverpoolacademy.co.uk/,Liverpool,L5 0SQ,North West,yes
131837,341,Liverpool,Our Lady and St Philomena's Catholic Primary School,http://www.olasp.co.uk,Liverpool,L9 6BU,North West,yes
133702,341,Liverpool,Phoenix Primary School,http://www.phoenixprimaryliverpool.co.uk/,Liverpool,L7 9LY,North West,yes
130961,341,Liverpool,Sandfield Park School,www.sandfieldparkschool.com,Liverpool,L12 1LH,North West,yes
131597,341,Liverpool,Smithdown Primary School,www.smithdownprimary.com/,Liverpool,L7 6LJ,North West,yes
104622,341,Liverpool,St Anne's (Stanley) Junior Mixed and Infant School,https://www.st-anne-stanley-school.co.uk/,Liverpool,L13 3BT,North West,yes
104681,341,Liverpool,St Anne's Catholic Primary School,http://www.stannescatholicprimary.com,Liverpool,L7 3HJ,North West,yes
104676,341,Liverpool,St Anthony of Padua Catholic Primary School,https://www.stanthonyofpadua.co.uk,Liverpool,L18 8BD,North West,yes
104648,341,Liverpool,St Clare's Catholic Primary School,http://www.mystclares.com,Liverpool,L15 0DW,North West,yes
104651,341,Liverpool,St Francis de Sales Catholic Infant and Nursery School,https://www.stfrancisdesalesinfants.org.uk,Liverpool,L4 3RX,North West,yes
104678,341,Liverpool,St Gregory's Catholic Primary School,http://www.stgregorysliverpool.co.uk,Liverpool,L27 7AG,North West,yes
104721,341,Liverpool,St Hilda's Church of England High School,https://www.st-hildas.co.uk,Liverpool,L17 3AL,North West,yes
104652,341,Liverpool,St Hugh's Catholic Primary School,https://www.sthughsprimary.co.uk,Liverpool,L7 6HE,North West,yes
104712,341,Liverpool,St Julie's Catholic High School,http://www.stjulies.org.uk/,Liverpool,L25 7TN,North West,yes
132793,341,Liverpool,St Matthew's Catholic Primary School,https://matthews.school/,Liverpool,L4 8UA,North West,yes
104679,341,Liverpool,St Paschal Baylon Catholic Primary School,https://www.paschalbaylon.org.uk,Liverpool,L16 2LN,North West,yes
104660,341,Liverpool,St Patrick's Catholic Primary School,https://www.stpatricksliverpool.co.uk/,Liverpool,L8 5UX,North West,yes
104661,341,Liverpool,St Paul's Catholic Junior School,http://www.spcj.co.uk/,Liverpool,L12 8SJ,North West,yes
104667,341,Liverpool,St Vincent de Paul Catholic Primary School,https://www.stvincentdepaulprimary.co.uk/,Liverpool,L1 5BY,North West,yes
135174,341,Liverpool,The Belvedere Academy,www.belvedereacademy.net,Liverpool,L8 3TF,North West,yes
104739,341,Liverpool,Woolton High School,https://wooltonhighschool.com/,Liverpool,L25 6JA,North West,yes
