urn,district_code,district_name,school_name,website,town,postcode,region,has_email_collected
105238,350,Bolton,All Saints CofE Primary School,https://www.all-saints.bolton.sch.uk,Bolton,BL4 7PY,North West,no
146535,350,Bolton,Beacon Primary School,www.beacon.bolton.sch.uk,Bolton,BL6 7AL,North West,no
105173,350,Bolton,Beaumont Primary School,https://beaumontprimaryschool.co.uk/,BOLTON,BL3 4RX,North West,no
142923,350,Bolton,Bishop Bridgeman CofE Primary School,www.bishopbridgeman.co.uk/,Bolton,BL3 6PY,North West,no
105211,350,Bolton,Blackrod Anglican/Methodist Primary School,https://www.blackrodchurchschool.com,Bolton,BL6 5DE,North West,no
105191,350,Bolton,Blackrod Primary School,https://www.blackrodprimary.co.uk,BOLTON,BL6 5SY,North West,no
105175,350,Bolton,Blackshaw Primary School,https://www.blackshaw.bolton.sch.uk,Bolton,BL2 6TE,North West,no
142340,350,Bolton,Bolton Muslim Girls School,https://www.bmgs.prospermat.co.uk/,Bolton,BL3 6TQ,North West,no
151025,350,Bolton,"Bolton Parish Church, Church of England Primary School",www.bolton-parish.bolton.sch.uk,Bolton,BL2 1JN,North West,no
145314,350,Bolton,Bolton St Catherine's Academy,https://www.boltonstcatherinesacademy.org.uk/,Bolton,BL2 4HU,North West,no
142030,350,Bolton,Bowness Primary School,http://www.bowness.bolton.sch.uk/,Bolton,BL3 1BT,North West,no
105148,350,Bolton,Brandwood Primary School,https://www.brandwoodprimaryschool.com/,Bolton,BL3 4BG,North West,no
105149,350,Bolton,Brownlow Fold Primary School,http://www.brownlow-fold.bolton.sch.uk/,Bolton,BL1 3DX,North West,no
144044,350,Bolton,Canon Slade School,http://www.canon-slade.bolton.sch.uk,Bolton,BL2 3BP,North West,no
105150,350,Bolton,Castle Hill Primary School,https://www.castle-hill.bolton.sch.uk/,Bolton,BL2 2JT,North West,no
105187,350,Bolton,Cherry Tree Primary School,www.theorchardsfederation.org.uk,Bolton,BL4 0NS,North West,no
148095,350,Bolton,Chorley New Road Primary Academy,http://www.cnr.bolton.sch.uk,Bolton,BL6 6EW,North West,no
105195,350,Bolton,Claypool Primary School,http://www.claypool.bolton.sch.uk,Bolton,BL6 6LN,North West,no
105154,350,Bolton,Devonshire Road Primary School,http://www.devonshire.bolton.sch.uk,Bolton,BL1 4ND,North West,no
138011,350,Bolton,Eagley Infant School,http://www.eagley-infant.bolton.sch.uk/,Bolton,BL7 9LN,North West,no
138152,350,Bolton,Eagley Junior School,https://eagleyjunior.org,Bolton,BL7 9AT,North West,no
105202,350,Bolton,Eatock Primary School,http://www.eatock.bolton.sch.uk/,Bolton,BL5 2ER,North West,no
140959,350,Bolton,"Eden Boys' School, Bolton",http://www.edenboysbolton.com/,Bolton,BL1 3QE,North West,no
105192,350,Bolton,Egerton Primary School,https://www.egerton.bolton.sch.uk,Bolton,BL7 9RE,North West,no
135770,350,Bolton,Essa Academy,https://esa.northerneducationtrust.org/,Bolton,BL3 3HH,North West,no
140973,350,Bolton,Essa Primary Academy,https://esp.northerneducationtrust.org/,BOLTON,BL3 3HH,North West,no
146410,350,Bolton,Firwood High School,www.firwood.bolton.sch.uk,Bolton,BL2 4HU,North West,no
142702,350,Bolton,Forwards Centre,https://www.boltonimpacttrust.org.uk/our-academies/forwards-centre,Bolton,BL2 5DX,North West,no
105155,350,Bolton,Gaskell Community Primary School,www.gaskell.bolton.sch.uk,Bolton,BL1 2QG,North West,no
105198,350,Bolton,Gilnow Primary School,https://www.gilnow.bolton.sch.uk/,Bolton,BL1 4LG,North West,no
105281,350,Bolton,Green Fold School,http://theorchardsfederation.org.uk,Bolton,BL4 0NS,North West,no
105189,350,Bolton,Hardy Mill Primary School,https://www.hardymill.bolton.sch.uk,Bolton,BL2 4EF,North West,no
143772,350,Bolton,Harper Green School,http://www.harper-green.bolton.sch.uk,Bolton,BL4 0DH,North West,no
137991,350,Bolton,Harwood Meadows Primary School,www.harwood-meadows.bolton.sch.uk,Bolton,BL2 3PS,North West,no
105168,350,Bolton,Haslam Park Primary School,https://www.haslam-park.bolton.sch.uk,Bolton,BL3 5QL,North West,no
105172,350,Bolton,Heathfield Primary School,https://heathfield.eschools.co.uk/website,Bolton,BL3 3TP,North West,no
105156,350,Bolton,High Lawn Primary School,https://www.high-lawn.bolton.sch.uk,Bolton,BL1 7EX,North West,no
105182,350,Bolton,Highfield Primary School,https://www.highfield.bolton.sch.uk,Bolton,BL4 0AP,North West,no
105219,350,Bolton,Holy Infant and St Anthony RC Primary School,https://www.holy-infants.bolton.sch.uk,Bolton,BL1 6QJ,North West,no
105233,350,Bolton,Horwich Parish CofE Primary School,http://www.horwichparish.net,Bolton,BL6 6AA,North West,no
105157,350,Bolton,Johnson Fold Community Primary School,http://www.johnsonfold.bolton.sch.uk,Bolton,BL1 5UG,North West,no
136135,350,Bolton,Kearsley Academy,http://www.ka.northerneducationtrust.org/,Bolton,BL4 8HY,North West,no
105186,350,Bolton,Kearsley West Primary School,https://www.kearsleywest.bolton.sch.uk,Bolton,BL4 9BZ,North West,no
147077,350,Bolton,King's Leadership Academy Bolton,www.kingsbolton.com,Bolton,BL3 3HL,North West,no
105169,350,Bolton,Ladybridge Community Primary School,https://www.ladybridgeprimaryschool.co.uk/,Bolton,BL3 4NB,North West,no
146406,350,Bolton,Ladywood School,www.ladywood.bolton.sch.uk,Bolton,BL3 1NG,North West,no
136395,350,Bolton,Lever Edge Primary Academy,www.leveredgeprimaryacademy.co.uk,Bolton,BL3 3HP,North West,no
142766,350,Bolton,Lever Park School,www.boltonimpacttrust.org.uk,Bolton,BL6 6DE,North West,no
131271,350,Bolton,Leverhulme Community Primary School,www.leverhulme.bolton.sch.uk,Bolton,BL2 6EE,North West,no
142296,350,Bolton,Little Lever School,http://www.little-lever.bolton.sch.uk/,Bolton,BL3 1BT,North West,no
151514,350,Bolton,Lostock Primary School,http://www.lostock.bolton.sch.uk/,Bolton,BL6 4PS,North West,no
105159,350,Bolton,Markland Hill Primary School,https://www.markland-hill.bolton.sch.uk,Bolton,BL1 5EJ,North West,no
143031,350,Bolton,Masefield Primary School,www.masefield.bolton.sch.uk,Bolton,BL3 1NG,North West,no
105171,350,Bolton,Moorgate Primary School,https://www.moorgate.bolton.sch.uk,Bolton,BL2 2RH,North West,no
151356,350,Bolton,Mount St Joseph RC High School a Voluntary Academy,https://www.msj.stoccat.org.uk/,Bolton,BL4 0HT,North West,no
105190,350,Bolton,Mytham Primary School,http://www.mytham.bolton.sch.uk,Bolton,BL3 1JG,North West,no
105160,350,Bolton,Oxford Grove Primary School,https://www.oxford-grove.bolton.sch.uk,Bolton,BL1 3EJ,North West,no
142719,350,Bolton,Park School Teaching Service,https://www.boltonimpacttrust.org.uk/our-academies/park-school-teaching-service,Bolton,BL1 4QR,North West,no
105161,350,Bolton,Pikes Lane Primary School,https://www.pikeslaneprimaryschool.co.uk/,Bolton,BL3 5HU,North West,no
141915,350,Bolton,Prestolee Primary School,www.prestolee.bolton.sch.uk/,Manchester,M26 1HJ,North West,no
133925,350,Bolton,Queensbridge Primary School,https://www.queensbridge.bolton.sch.uk/,Bolton,BL4 7BL,North West,no
143030,350,Bolton,Red Lane Primary School,http://www.red-lane.bolton.sch.uk,Bolton,BL2 5HP,North West,no
143773,350,Bolton,Rivington and Blackrod High School,http://www.rbhs.co.uk,Bolton,BL6 7RU,North West,no
105277,350,Bolton,Rumworth School,,Bolton,BL3 4TP,North West,no
134237,350,Bolton,SS Osmund and Andrew's R.C. Primary School,https://www.ssoarc.co.uk/,Bolton,BL2 6NW,North West,no
105243,350,Bolton,Sacred Heart R.C. Primary School,https://www.sacred-heart.bolton.sch.uk,Bolton,BL5 3DU,North West,no
105162,350,Bolton,Sharples Primary School,https://www.sharples-pri.bolton.sch.uk/,Bolton,BL1 8RU,North West,no
142232,350,Bolton,Sharples School,http://www.sharplesschool.co.uk/,Bolton,BL1 8SN,North West,no
140500,350,Bolton,Smithills School,http://www.smithillsschool.net/,Bolton,BL1 6JS,North West,no
105196,350,Bolton,Spindle Point Primary School,https://www.spindle-point.bolton.sch.uk,Bolton,BL4 8SE,North West,no
138957,350,Bolton,"Ss Simon & Jude CofE Primary School, Bolton",www.sssj.bolton.sch.uk,Bolton,BL3 2DT,North West,no
105236,350,Bolton,"St Andrew's CofE Primary School, Over Hulton",https://www.standrewsbolton.co.uk,Bolton,BL5 1EN,North West,no
105237,350,Bolton,St Bartholomew's CofE Primary School,https://www.st-barts.bolton.sch.uk,Bolton,BL5 3NZ,North West,no
136889,350,Bolton,St Bede Academy,www.stbedeacademy.org/,Bolton,BL3 3LJ,North West,no
105230,350,Bolton,"St Bernard's RC Primary School, Bolton",https://www.st-bernards.bolton.sch.uk,Bolton,BL3 4RX,North West,no
144045,350,Bolton,St Catherine's CofE Primary School,http://www.st-catherines.bolton.sch.uk,Bolton,BL6 5SJ,North West,no
105220,350,Bolton,St Columba's RC Primary School,https://www.stcolumbasrcprimary.co.uk,Bolton,BL2 3AR,North West,no
150179,350,Bolton,"St Ethelbert's Roman Catholic Primary School, a Voluntary Academy",https://www.stethelberts.stoccat.org.uk/,Bolton,BL3 5RL,North West,no
131038,350,Bolton,St George's CofE Primary School,http://www.st-georges.bolton.sch.uk/,Bolton,BL5 2FB,North West,no
147631,350,Bolton,"St Gregory's RC Primary School, A Voluntary Academy",www.stgregorys.stoccat.org.uk,Bolton,BL4 8AJ,North West,no
105209,350,Bolton,"St James CofE Primary School, Daisy Hill",http://www.st-james-daisy-hill.bolton.sch.uk/,Bolton,BL5 2JU,North West,no
142944,350,Bolton,"St James CofE Primary School, Farnworth",http://www.st-james-farnworth.bolton.sch.uk/,Bolton,BL4 9QB,North West,no
144046,350,Bolton,St James's Church of England High School,http://www.st-james.bolton.sch.uk/,Bolton,BL4 9RU,North West,no
151026,350,Bolton,"St John Church of England Primary School, Farnworth",www.st-johns-kearsley.bolton.sch.uk/,Bolton,BL4 8AP,North West,no
105223,350,Bolton,"St Joseph's RC Primary School, Halliwell, Bolton",https://www.st-josephrcp.bolton.sch.uk,Bolton,BL1 3EJ,North West,no
105203,350,Bolton,"St Mary's CofE Primary School, Deane",https://www.st-marys-deane.bolton.sch.uk,Bolton,BL3 4QP,North West,no
105205,350,Bolton,"St Matthew's CofE Primary School, Bolton",http://www.st-matthews.bolton.sch.uk/,Bolton,BL1 2JL,North West,no
105242,350,Bolton,"St Matthew's CofE Primary School, Little Lever",https://www.stmll.bolton.sch.uk,Bolton,BL3 1BQ,North West,no
146141,350,Bolton,St Maxentius CofE Primary School,www.st-maxentius.bolton.sch.uk,Bolton,BL2 4AE,North West,no
105214,350,Bolton,"St Michael's CofE Primary School, Great Lever",http://www.stmichaelscepbolton.co.uk,Bolton,BL3 2PL,North West,no
138851,350,Bolton,"St Paul's CofE Primary School, Astley Bridge",http://www.st-pauls.bolton.sch.uk,Bolton,BL1 8QA,North West,no
105225,350,Bolton,St Peter and St Paul RC Primary School,,Bolton,BL3 6HP,North West,no
105239,350,Bolton,St Peter's CofE Primary School,http://www.st-peters-farnworth.bolton.sch.uk,Bolton,BL4 9JT,North West,no
145751,350,Bolton,St Peter's Smithills Dean Church of England Primary School,www.spsd.bolton.sch.uk,Bolton,BL1 6LA,North West,no
105217,350,Bolton,"St Stephen and All Martyrs' CofE School, Lever Bridge",http://www.ssam.bolton.sch.uk,Bolton,BL2 1NZ,North West,no
105240,350,Bolton,St Stephen's CofE Primary School,https://www.ststephenskearsley.co.uk,Bolton,BL4 8PB,North West,no
151261,350,Bolton,St Teresa's RC Primary School a Voluntary Academy,https://www.stteresasbolton.stoccat.org.uk/,Bolton,BL3 1EN,North West,no
105218,350,Bolton,"St Thomas C of E Primary School, Halliwell",https://www.st-thomas-halliwell.bolton.sch.uk/,Bolton,BL1 3JB,North West,no
105234,350,Bolton,St Thomas CofE Primary School,http://www.st-thomas.bolton.sch.uk,Bolton,BL5 3HP,North West,no
105221,350,Bolton,St Thomas of Canterbury RC School,http://www.stoc.bolton.sch.uk,Bolton,BL1 5LH,North West,no
105226,350,Bolton,St William of York Catholic Primary School,https://www.st-williams.bolton.sch.uk,Bolton,BL3 3DE,North West,no
105163,350,Bolton,Sunning Hill Primary School,http://sunninghillprimary.net/,Bolton,BL3 6TR,North West,no
138399,350,Bolton,The Ferns Primary Academy,https://tfa.northerneducationtrust.org/,Bolton,BL4 0DA,North West,no
133926,350,Bolton,The Gates Primary School,www.thegates.bolton.sch.uk,Bolton,BL5 3QA,North West,no
105176,350,Bolton,The Oaks Primary School,https://www.theoaksbolton.co.uk/,Bolton,BL1 7HS,North West,no
142898,350,Bolton,"The Olive School, Bolton",www.olivebolton.com,Bolton,BL1 8HT,North West,no
139776,350,Bolton,The Olive Tree Primary School Bolton,http://www.theolivetreeprimary.com,Bolton,BL3 3NY,North West,no
105145,350,Bolton,The Orchards Nursery School,www.theorchardsfederation.org.uk,Bolton,BL4 0RA,North West,no
133980,350,Bolton,The Valley Community Primary School,www.thevalley.bolton.sch.uk,Bolton,BL1 8JG,North West,no
145854,350,Bolton,Tonge Moor Primary Academy,www.tongemooracademy.org,Bolton,BL2 2PF,North West,no
141941,350,Bolton,University Collegiate School,https://www.theucs.org.uk/,Bolton,BL3 5AG,North West,no
105232,350,Bolton,Walmsley CofE Primary School,https://www.walmsley.bolton.sch.uk,Bolton,BL7 9SA,North West,no
151024,350,Bolton,Washacre Primary Academy,https://www.washacreacademy.org/,Bolton,BL5 2NJ,North West,no
142758,350,Bolton,Youth Challenge Pru,www.boltonimpacttrust.org.uk,Bolton,BL1 6JT,North West,no
105152,350,Bolton,Church Road Primary School,https://church-road.bolton.sch.uk,Bolton,BL1 5RU,North West,yes
105153,350,Bolton,Clarendon Primary School,https://www.clarendon.bolton.sch.uk/,Bolton,BL3 6SN,North West,yes
105144,350,Bolton,Grosvenor Nursery School and Day Care Centre,https://www.grosvenor.bolton.sch.uk,Bolton,BL4 8AR,North West,yes
134646,350,Bolton,Ladybridge High School,http://www.ladybridgehigh.co.uk/,Bolton,BL3 4NG,North West,yes
105245,350,Bolton,Our Lady of Lourdes RC Primary School,https://www.ourlady.bolton.sch.uk/,Bolton,BL4 0BP,North West,yes
105246,350,Bolton,"St Brendan's RC Primary School, Harwood, Bolton",https://www.st-brendan.bolton.sch.uk,Bolton,BL2 4DZ,North West,yes
105249,350,Bolton,"St John the Evangelist RC Primary School, Bromley Cross, Bolton",https://www.st-johns-bromley-cross.bolton.sch.uk/,Bolton,BL7 9HT,North West,yes
105262,350,Bolton,St Joseph's RC High School,https://www.stjosephsbolton.org.uk,Bolton,BL6 6HW,North West,yes
105250,350,Bolton,St Mary's RC Primary School,https://www.st-marys-horwich.bolton.sch.uk,"Horwich, Bolton",BL6 6EP,North West,yes
105248,350,Bolton,"St Saviour CofE Primary School, Ringley",https://www.stsaviourschool.com,Manchester,M26 1EU,North West,yes
105276,350,Bolton,Thomasson Memorial School,https://www.thomasson.bolton.sch.uk,Bolton,BL3 3LA,North West,yes
105264,350,Bolton,Thornleigh Salesian College,http://www.thornleigh.bolton.sch.uk,Bolton,BL1 6PQ,North West,yes
105253,350,Bolton,Turton School,http://www.turton.uk.com/,Bolton,BL7 9LT,North West,yes
105252,350,Bolton,Westhoughton High School,http://www.westhoughton-high.org/,Bolton,BL5 3BZ,North West,yes
