urn,district_code,district_name,school_name,website,town,postcode,region,has_email_collected
150694,353,Oldham,Alexandra Park Junior School,,Oldham,OL8 2BE,North West,no
141333,353,Oldham,Alt Academy,www.alt.theharmonytrust.org,Oldham,OL8 2EL,North West,no
135258,353,Oldham,Bare Trees Primary School,www.baretreesprimary.com,Oldham,OL9 0DX,North West,no
147368,353,Oldham,Beal Vale Primary School,www.bealvaleprimary.com,Oldham,OL2 7SY,North West,no
150121,353,Oldham,Blackshaw Lane Primary & Nursery School,https://www.blackshawlaneprimary.co.uk/index.html,Oldham,OL2 6NT,North West,no
149609,353,Oldham,Broadfield Primary School,www.broadfield.oldham.sch.uk,Oldham,OL8 1LH,North West,no
105671,353,Oldham,Buckstones Primary School,https://www.buckstones.oldham.sch.uk/,Oldham,OL2 8HN,North West,no
105680,353,Oldham,Burnley Brow Community School,www.burnleybrow.co.uk,Oldham,OL9 0BY,North West,no
105693,353,Oldham,Christ Church CofE Primary School,http://www.christchurch-pri.oldham.sch.uk,Oldham,OL3 5RY,North West,no
105707,353,Oldham,Christ Church CofE Primary School,https://www.christchurchchad.co.uk,Oldham,OL9 9ED,North West,no
144627,353,Oldham,Co-op Academy Failsworth,failsworth.coopacademies.co.uk,Manchester,M35 9HA,North West,no
139704,353,Oldham,Coppice Primary Academy,http://www.coppiceprimaryacademy.co.uk/,Oldham,OL8 1AP,North West,no
105718,353,Oldham,Corpus Christi RC Primary School,https://www.corpuschristi.oldham.sch.uk/,Oldham,OL9 7HA,North West,no
133286,353,Oldham,Crompton Primary School,http://www.crompton.oldham.sch.uk,Oldham,OL2 7HD,North West,no
105669,353,Oldham,Delph Primary School,http://www.delphprimary.co.uk,Oldham,OL3 5HN,North West,no
105665,353,Oldham,Diggle School,https://www.diggleschool.co.uk,Oldham,OL3 5PU,North West,no
146316,353,Oldham,E-ACT Royton and Crompton Academy,https://roytoncrompton.e-act.org.uk,Oldham,OL2 6NT,North West,no
136115,353,Oldham,E-ACT the Oldham Academy North,http://theoldhamacademynorth.e-act.org.uk,Oldham,OL2 5BF,North West,no
142271,353,Oldham,East Crompton St George's CofE School,http://www.stgeorges-primary.co.uk,Oldham,OL2 8AX,North West,no
105710,353,Oldham,East Crompton St James CofE Primary School,www.stjames-primary.co.uk/,Oldham,OL2 7TD,North West,no
146813,353,Oldham,Fir Bank Primary School,http://www.firbankprimary.co.uk,Oldham,OL2 6SJ,North West,no
142425,353,Oldham,Freehold Community Academy,www.freeholdprimaryacademy.co.uk,Oldham,OL9 7RG,North West,no
105666,353,Oldham,Friezland Primary School,https://www.friezlandschool.co.uk/,Oldham,OL3 7LN,North West,no
105645,353,Oldham,Glodwick Infant and Nursery School,www.glodwick.oldham.sch.uk/,Greater Manchester,OL4 1AJ,North West,no
145537,353,Oldham,Greenacres Primary Academy,www.greenacres.oldham.sch.uk,Oldham,OL4 2AX,North West,no
105667,353,Oldham,Greenfield Primary School,http://www.greenfieldprimaryschool.com/,Oldham,OL3 7AA,North West,no
105723,353,Oldham,Greenfield St Mary's CofE School,www.greenfieldstmary.oldham.sch.uk/,Oldham,OL3 7DW,North West,no
140579,353,Oldham,Greenhill Academy,www.greenhill.theharmonytrust.org,Oldham,OL4 1RR,North West,no
143762,353,Oldham,Halcyon Way School,https://www.halcyonway.co.uk/,Oldham Ol9 9QE,,North West,no
150562,353,Oldham,Hey-with-Zion Primary School,www.heywithzion.oldham.sch.uk,Oldham,OL4 3LQ,North West,no
136223,353,Oldham,Hodge Clough Primary School,www.hodgecloughprimary.oldham.sch.uk/,Oldham,OL1 4JX,North West,no
140388,353,Oldham,Hollinwood Academy,www.hollinwoodacademy.org,Oldham,OL8 3PT,North West,no
135720,353,Oldham,Holy Cross Ceva Primary School,www.holycross-primary.co.uk,Oldham,OL1 3EZ,North West,no
149454,353,Oldham,Holy Family RC Primary School,www.holyfamily.oldham.sch.uk/,Oldham,OL8 3NG,North West,no
105701,353,Oldham,Holy Rosary RC Junior Infant and Nursery School,https://www.holyrosary.oldham.sch.uk/,Oldham,OL8 2SR,North West,no
105691,353,Oldham,Holy Trinity CofE Dobcross Primary School,http://www.dobcross.oldham.sch.uk,Oldham,OL3 5BP,North West,no
105679,353,Oldham,Horton Mill Community Primary School,,Oldham,OL4 1GL,North West,no
143304,353,Oldham,Kingfisher Special School,www.kingfisher.oldham.sch.uk,Oldham,OL9 9QR,North West,no
134759,353,Oldham,Kingsland School,www.kingslandschool.org,Oldham,OL1 4HX,North West,no
105670,353,Oldham,Knowsley Junior School,www.knowsley.oldham.sch.uk/,Oldham,OL4 4BH,North West,no
148848,353,Oldham,Littlemoor Primary School,www.littlemoor.oldham.sch.uk/,Oldham,OL4 2RR,North West,no
142471,353,Oldham,Lyndhurst Primary and Nursery School,www.lyndhurstprimaryschool.co.uk,Oldham,OL8 4JD,North West,no
105649,353,Oldham,Mather Street Primary School,https://www.matherstreet.oldham.sch.uk,Manchester,M35 0DT,North West,no
142550,353,Oldham,Mayfield Primary School,http://www.mayfield.oldham.sch.uk,Oldham,OL1 4LG,North West,no
147453,353,Oldham,Medlock Valley Primary School,www.medlockvalley.oldham.sch.uk,Oldham,OL8 2PN,North West,no
105648,353,Oldham,Mills Hill Primary School,https://www.millshill.oldham.sch.uk,Oldham,OL9 0NH,North West,no
138697,353,Oldham,New Bridge School,www.newbridgeschool.net,Oldham,OL8 3PH,North West,no
141248,353,Oldham,North Chadderton School,http://www.northchaddertonschool.co.uk,Oldham,OL9 0BN,North West,no
142412,353,Oldham,Northmoor Academy,,Oldham,OL9 6AQ,North West,no
146767,353,Oldham,Oasis Academy Clarksfield,www.oasisacademyclarksfield.org,Oldham,OL4 1NG,North West,no
145723,353,Oldham,Oasis Academy Leesbrook,www.oasisacademyleesbrook.org,Oldham,OL4 5JE,North West,no
137479,353,Oldham,Oasis Academy Limeside,www.oasisacademylimeside.org,Oldham,OL8 3SB,North West,no
136027,353,Oldham,Oasis Academy Oldham,http://www.oasisacademyoldham.org/,Oldham,OL8 4JZ,North West,no
145002,353,Oldham,Oldham Sixth Form College,www.osfc.ac.uk,Oldham,OL8 1XU,North West,no
105663,353,Oldham,Propps Hall Junior Infant and Nursery School,http://www.proppshall.oldham.sch.uk,Manchester,M35 0ND,North West,no
139651,353,Oldham,Richmond Academy,www.richmond.theharmonytrust.org/,Oldham,OL9 6HY,North West,no
140100,353,Oldham,Roundthorn Primary Academy,www.roundthornprimaryacademy.co.uk/,Oldham,OL4 5LN,North West,no
135341,353,Oldham,Royton Hall Primary School,www.roytonhall-pri.oldham.sch.uk/,Oldham,OL2 6RW,North West,no
105659,353,Oldham,Rushcroft Primary School,https://www.rushcroftprimary.com,Oldham,OL2 7YL,North West,no
105736,353,Oldham,Saddleworth School,http://www.saddleworth.oldham.sch.uk,Oldham,OL3 5NU,North West,no
149461,353,Oldham,"Saint John Henry Newman Roman Catholic College, A Voluntary Academy",http://www.newmanrc.oldham.sch.uk/,Oldham,OL9 9QY,North West,no
105656,353,Oldham,South Failsworth Community Primary School,https://www.southfailsworth.oldham.sch.uk,Manchester,M35 0NY,North West,no
143472,353,Oldham,Spring Brook Academy,www.springbrookacademy.org,Oldham,M35 0DQ,North West,no
105668,353,Oldham,Springhead Infant and Nursery School,https://www.springhead.oldham.sch.uk/,Oldham,OL4 4QT,North West,no
105721,353,Oldham,Ss Aidan and Oswald's Roman Catholic Primary School,https://ssaoschool.co.uk/,Oldham,OL2 5PQ,North West,no
105700,353,Oldham,St Agnes CofE Primary School,https://www.stagnes.oldham.sch.uk,Oldham,OL4 5RU,North West,no
105715,353,Oldham,St Anne's CofE (Aided) Primary School,https://www.stannesroyton.oldham.sch.uk/,Oldham,OL2 5DH,North West,no
144000,353,Oldham,St Anne's CofE Lydgate Primary School,http://www.stannescelydgate.oldham.sch.uk,Oldham,OL4 4DS,North West,no
105725,353,Oldham,St Anne's RC Primary School,https://www.stannesrc.co.uk,Oldham,OL4 1HP,North West,no
140589,353,Oldham,St Chad's Church of England Primary School,http://www.stchads.oldham.sch.uk,Oldham,OL3 6EE,North West,no
149868,353,Oldham,"St Edwards Roman Catholic Primary, a Voluntary Academy",www.st-edwards.oldham.sch.uk,Oldham,OL4 3LQ,North West,no
105722,353,Oldham,St Herbert's RC School,https://www.stherberts.education,Oldham,OL9 9SN,North West,no
105702,353,Oldham,St Hilda's CofE Primary School,www.sthildas.oldham.sch.uk,Oldham,OL1 2HJ,North West,no
150039,353,Oldham,St Hugh's CofE Primary School,www.st-hughs.oldham.sch.uk,Oldham,OL4 5NZ,North West,no
146670,353,Oldham,St John's Church of England Primary School,https://www.stjohns.oldham.sch.uk/,Manchester,M35 9PY,North West,no
105719,353,Oldham,St Joseph's RC Junior Infant and Nursery School,https://www.st-josephs.oldham.sch.uk/,Oldham,OL2 8SZ,North West,no
105708,353,Oldham,St Luke's CofE Primary School,https://www.st-lukes.oldham.sch.uk/,Oldham,OL9 9HT,North West,no
105705,353,Oldham,St Margaret's CofE Junior Infant and Nursery School,http://www.stmargarets.oldham.sch.uk,Oldham,OL8 4QS,North West,no
105703,353,Oldham,St Martin's CofE Junior Infant and Nursery School,http://www.st-martinsoldham.co.uk/,Oldham,OL8 2PY,North West,no
105711,353,Oldham,St Mary's CofE Primary School High Crompton,http://www.stmaryscecrompton.oldham.sch.uk/,Oldham,OL2 7PP,North West,no
151360,353,Oldham,"St Mary's RC Primary School, a Voluntary Academy",www.st-marys.oldham.sch.uk,Manchester,M35 0NW,North West,no
151460,353,Oldham,St Matthew's CofE Primary School,www.stmatthewschadderton.co.uk/,Oldham,OL9 0BN,North West,no
151455,353,Oldham,"St Patrick's RC Primary School, a Voluntary Academy",www.st-patricks.oldham.sch.uk,Oldham,OL8 1EF,North West,no
150014,353,Oldham,St Thomas CofE Primary School,http://www.stthomaswernethprimary.co.uk/,Oldham,OL8 1SE,North West,no
105695,353,Oldham,St Thomas Moorside CofE (VA) Primary School,https://www.stthomasmoorside.co.uk,Oldham,OL1 4RL,North West,no
105714,353,Oldham,St Thomas' Leesfield CofE Primary School,www.leesfield.oldham.sch.uk/,Oldham,OL4 5AT,North West,no
151472,353,Oldham,St. Paul's CofE Primary School,http://www.stpauls-school.co.uk/,Oldham,OL2 5LU,North West,no
136825,353,Oldham,St. Theresa's RC Primary School,www.sttheresas.oldham.sch.uk,Oldham,OL1 4NA,North West,no
105686,353,Oldham,Stanley Road Primary School,https://www.stanleyroad.oldham.sch.uk,Oldham,OL9 7HX,North West,no
137133,353,Oldham,The Blue Coat CofE School,https://www.blue-coat.org/,Oldham,OL1 3SQ,North West,no
149137,353,Oldham,The Brian Clarke Church of England Academy,https://www.brian-clarke.org/,Oldham,OL9 6BP,North West,no
137294,353,Oldham,The Crompton House Church of England Academy,http://www.cromptonhouse.org,Oldham,OL2 7HS,North West,no
137039,353,Oldham,The Hathershaw College,www.hathershaw.org.uk,Oldham,OL8 3EP,North West,no
105738,353,Oldham,The Radclyffe School,https://theradclyffeschool.co.uk,Oldham,OL9 0LS,North West,no
145922,353,Oldham,The Springboard Project,www.springboardproject.org,Oldham,OL1 1AN,North West,no
151315,353,Oldham,Thornham St. James CofE Primary School,www.stjamesthornham.oldham.sch.uk,Oldham,OL2 6XT,North West,no
146811,353,Oldham,Thorp Primary School,www.thorp.oldham.sch.uk,Oldham,OL2 5TY,North West,no
144508,353,Oldham,Waterhead Academy,www.waterheadacademy.co.uk,Oldham,OL4 3NY,North West,no
140597,353,Oldham,Werneth Primary School,www.wernethprimary.org.uk,Oldham,OL8 4BL,North West,no
141401,353,Oldham,Westwood Academy,www.westwood.theharmonytrust.org/,Oldham,OL9 6BH,North West,no
105658,353,Oldham,Whitegate End Primary and Nursery School,https://www.whitegateend-oldham.co.uk/,Oldham,OL9 8EB,North West,no
144507,353,Oldham,Willowpark Primary Academy,www.willowparkacademy.org,Oldham,OL1 4LJ,North West,no
105688,353,Oldham,Woodhouses Voluntary Primary School,,Manchester,M35 9WL,North West,no
144025,353,Oldham,Woodlands Primary Academy,woodlandsprimaryacademy.org,Oldham,OL1 4HU,North West,no
105627,353,Oldham,Beever Primary School,https://www.beever.oldham.sch.uk,Oldham,OL1 3QU,North West,yes
134784,353,Oldham,Higher Failsworth Primary School,www.higher-failsworth.oldham.sch.uk,Oldham,M35 9EA,North West,yes
105638,353,Oldham,Limehurst Community Primary School,https://www.limehurst.oldham.sch.uk,Oldham,OL8 3JQ,North West,yes
133712,353,Oldham,Yew Tree Community School,www.yewtree.oldham.sch.uk,Oldham,OL9 8LD,North West,yes
