urn,district_code,district_name,school_name,website,town,postcode,region,has_email_collected
144982,354,Rochdale,"Alice Ingham Catholic Primary School, A Voluntary Academy",www.aliceingham.stoccat.org.uk,Rochdale,OL16 2NU,North West,no
105786,354,Rochdale,Alkrington Primary School,http://www.alkrington.rochdale.sch.uk,Manchester,M24 1JZ,North West,no
105829,354,Rochdale,All Saints Church of England Primary School,http://www.allsaintsce.rochdale.sch.uk,Rochdale,OL12 0EL,North West,no
105811,354,Rochdale,All Souls Church of England Primary School,http://www.allsoulsce.rochdale.sch.uk,Heywood,OL10 4DF,North West,no
105783,354,Rochdale,Ashfield Valley Primary School,http://www.ashfieldvalley.rochdale.sch.uk,Rochdale,OL11 1TA,North West,no
137471,354,Rochdale,Bamford Academy,www.bamfordacademy.co.uk,Manchester,OL11 5PS,North West,no
105780,354,Rochdale,Belfield Community School,http://www.belfield.rochdale.sch.uk,Rochdale,OL16 2XW,North West,no
105787,354,Rochdale,Boarshaw Community Primary School,http://www.boarshawprimary.co.uk,MANCHESTER,M24 2PB,North West,no
133446,354,Rochdale,Bowlee Park Community Primary School,www.bowleepark.rochdale.sch.uk,Manchester,M24 4LA,North West,no
134220,354,Rochdale,Broadfield Community Primary School,www.broadfield.rochdale.sch.uk/,Rochdale,OL16 1QT,North West,no
105861,354,Rochdale,Brownhill School,https://www.theblc.org.uk,Rochdale,OL12 0PZ,North West,no
105779,354,Rochdale,Caldershaw Primary School,https://www.caldershaw.rochdale.sch.uk/,Rochdale,OL12 7QL,North West,no
105844,354,Rochdale,Cardinal Langley Roman Catholic High School,https://www.clrchs.co.uk,Manchester,M24 2GL,North West,no
105765,354,Rochdale,Castleton Primary School,http://www.castleton-rochdale.frogos.net,Rochdale,OL11 2QD,North West,no
141365,354,Rochdale,Deeplish Primary Academy,www.deeplishprimaryacademy.co.uk,Rochdale,OL11 1LT,North West,no
148596,354,Rochdale,Edgar Wood Academy,www.edgarwood.org,Heywood,OL10 2QN,North West,no
105791,354,Rochdale,Elm Wood Primary School,https://www.elmwoodps.co.uk,Manchester,M24 2EG,North West,no
150227,354,Rochdale,Falinge Park High School,http://www.falingepark.com,Rochdale,OL12 6LD,North West,no
105768,354,Rochdale,Greenbank Primary School,http://www.greenbank.rochdale.sch.uk,Rochdale,OL12 0HZ,North West,no
105800,354,Rochdale,Hamer Community Primary School,http://www.hamerprimary.co.uk,Rochdale,OL16 2SU,North West,no
105796,354,Rochdale,Harwood Park Primary School,http://www.harwoodpark.rochdale.sch.uk/,Heywood,OL10 1DG,North West,no
105850,354,Rochdale,Healey Foundation Primary School,http://www.healey.rochdale.sch.uk,Rochdale,OL12 0ST,North West,no
151156,354,Rochdale,Heap Bridge Village Primary School,www.heapbridge.co.uk/,Bury,BL9 7JP,North West,no
105792,354,Rochdale,Hollin Primary School,https://www.hollin.rochdale.sch.uk,Manchester,M24 6JG,North West,no
140091,354,Rochdale,Hollingworth Academy,http://hollingworthacademy.co.uk/,Rochdale,OL16 3DR,North West,no
105830,354,Rochdale,"Holy Family Roman Catholic Primary School, Rochdale",https://www.holyfamilyrc.rochdale.sch.uk/,Rochdale,OL11 2DA,North West,no
105814,354,Rochdale,Holy Trinity Church of England Primary School,http://www.holytrinityce.rochdale.sch.uk/,Littleborough,OL15 9DB,North West,no
105798,354,Rochdale,Hopwood Community Primary School,https://www.hopwoodcommunityprimary.co.uk,Heywood,OL10 2HN,North West,no
105757,354,Rochdale,Howard Street Nursery School,http://www.howardstreet.rochdale.sch.uk/,Rochdale,OL12 0PP,North West,no
141400,354,Rochdale,Kentmere Primary Academy,www.kentmereacademy.co.uk,Rochdale,OL12 9EE,North West,no
148790,354,Rochdale,Kingsway Park High School,http://www.kingswaypark.org/,Rochdale,OL16 4XA,North West,no
150431,354,Rochdale,Little Heaton Church of England Primary School,,Manchester,M24 4PU,North West,no
105785,354,Rochdale,Littleborough Community Primary School,http://www.littleborough.rochdale.sch.uk/,Littleborough,OL15 9HW,North West,no
105777,354,Rochdale,Lowerplace Primary School,https://www.lowerplace.rochdale.sch.uk,Rochdale,OL16 4UU,North West,no
105778,354,Rochdale,Marland Hill Community Primary School,https://www.marlandhillprimary.co.uk/,Rochdale,OL11 4QW,North West,no
147369,354,Rochdale,Matthew Moss High School,http://www.mmhs.co.uk,Rochdale,OL11 3LU,North West,no
105821,354,Rochdale,Middleton Parish Church School,http://www.middletonparishce.rochdale.sch.uk/,Manchester,M24 5DL,North West,no
143319,354,Rochdale,Middleton Technology School,http://www.middtech.com/,Manchester,M24 2GT,North West,no
105823,354,Rochdale,Milnrow Parish Church of England Primary School,http://www.milnrowparishce.rochdale.sch.uk/,Rochdale,OL16 3JT,North West,no
148436,354,Rochdale,Moorhouse Academy,https://www.moorhouseacademy.co.uk/,Rochdale,OL16 4DR,North West,no
105789,354,Rochdale,Newhey Community Primary School,http://www.newhey.rochdale.sch.uk/,Rochdale,OL16 4JX,North West,no
147875,354,Rochdale,Newhouse Academy,http://www.newhouseacademy.co.uk,Heywood,OL10 2NT,North West,no
135201,354,Rochdale,Newlands School,,Manchester,M24 6JG,North West,no
151320,354,Rochdale,Norden Primary Academy,http://www.norden.rochdale.sch.uk/,Rochdale,OL12 7RQ,North West,no
148847,354,Rochdale,Oulder Hill Leadership Academy,,Rochdale,OL11 5EF,North West,no
147941,354,Rochdale,"Our Lady & St Paul's RC Primary School, A Voluntary Academy",http://www.olsp.stoccat.org.uk,Heywood,OL10 3PD,North West,no
105799,354,Rochdale,Parkfield Primary School,https://www.parkfieldprimary.com/,Manchester,M24 4AF,North West,no
135202,354,Rochdale,Redwood,,Rochdale,OL11 5EW,North West,no
133409,354,Rochdale,Rochdale Pupil Referral Service,https://www.theblc.org.uk,Rochdale,OL16 2XW,North West,no
144463,354,Rochdale,Rochdale Sixth Form College,,Rochdale,OL12 6HY,North West,no
105828,354,Rochdale,Sacred Heart Roman Catholic Primary School Rochdale,https://www.sacred-heart-school.org.uk/,Rochdale,OL16 4AW,North West,no
149510,354,Rochdale,Sandbrook Community Primary School,www.sandbrook.rochdale.sch.uk/,Rochdale,OL11 2LR,North West,no
105766,354,Rochdale,Shawclough Community Primary School,http://www.shawclough.rochdale.sch.uk/,Rochdale,OL12 6DE,North West,no
105847,354,Rochdale,Smithy Bridge Foundation Primary School,https://www.sbs.rochdale.sch.uk/,Littleborough,OL15 0ES,North West,no
105776,354,Rochdale,Spotland Primary School,http://www.spotland.rochdale.sch.uk/,Rochdale,OL12 6QG,North West,no
135200,354,Rochdale,Springside,,Manchester,OL16 2SU,North West,no
144690,354,Rochdale,St Andrew's Church of England Primary School and Nursery,http://www.standrewsce.rochdale.sch.uk/,Rochdale,OL12 9QA,North West,no
149873,354,Rochdale,"St Cuthbert's Roman Catholic High School, a Voluntary Academy",http://www.stcuthberts.stoccat.org.uk,Rochdale,OL16 4RX,North West,no
105802,354,Rochdale,St Edward's Church of England Primary School,http://www.stedwardsce.rochdale.sch.uk/,Rochdale,OL11 3AR,North West,no
105808,354,Rochdale,St Gabriel's Church of England Primary School,http://www.stgabrielsce.co.uk,Manchester,M24 2BE,North West,no
105825,354,Rochdale,"St Gabriel's Roman Catholic Primary School, Rochdale",https://www.stgabrielsrc.com/,Rochdale,OL11 2TN,North West,no
144689,354,Rochdale,St James' Church of England Primary School,www.stjameswardle.co.uk,Rochdale,OL12 9JW,North West,no
150323,354,Rochdale,"St John's Church of England Primary School, Thornham",http://www.thornhamce.rochdale.sch.uk/,Slattocks,M24 2SB,North West,no
105826,354,Rochdale,"St John's Roman Catholic Primary School, Rochdale",http://www.stjohnsrc.rochdale.sch.uk/,Rochdale,OL11 1EZ,North West,no
150675,354,Rochdale,"St Joseph's Roman Catholic Primary School Rochdale, a Voluntary Academy",http://www.stjosephsrcprimary.rochdale.sch.uk/,Heywood,OL10 2AA,North West,no
105805,354,Rochdale,St Luke's Church of England Primary School,https://www.stlukesceprimary.co.uk,Heywood,OL10 4XB,North West,no
105815,354,Rochdale,St Margaret's Church of England Primary School,http://www.stmargaretsce.rochdale.sch.uk/,Heywood,OL10 3RD,North West,no
151362,354,Rochdale,"St Mary's Church of England Primary School, Balderstone",www.stmarysce.rochdale.sch.uk,Rochdale,OL11 2HB,North West,no
105816,354,Rochdale,"St Mary's Roman Catholic Primary School, Littleborough",http://www.stmarysrclboro.rochdale.sch.uk/,Littleborough,OL15 8DU,North West,no
105818,354,Rochdale,"St Mary's Roman Catholic Primary School, Middleton",https://www.stmrc.co.uk,Manchester,M24 5GL,North West,no
105822,354,Rochdale,"St Michael's Church of England Primary School, Alkrington",http://www.stmichaelscemidd.rochdale.sch.uk/,Manchester,M24 1GD,North West,no
105813,354,Rochdale,"St Michael's Church of England Primary School, Bamford",http://www.stmichaelscebam.rochdale.sch.uk/,Heywood,OL10 4BB,North West,no
144934,354,Rochdale,St Patrick's Roman Catholic Primary School,www.stpatricksprimary.stoccat.org.uk,Rochdale,OL12 0ET,North West,no
105803,354,Rochdale,St Peter's Church of England Primary School,http://www.stpetersce.rochdale.sch.uk/,Rochdale,OL16 5JQ,North West,no
105817,354,Rochdale,"St Peter's Roman Catholic Primary School, Rochdale",https://www.stpetersrc.rochdale.sch.uk,Manchester,M24 1FL,North West,no
105820,354,Rochdale,"St Thomas More Roman Catholic Primary School, Middleton, Rochdale",https://www.stthomasmorerc.co.uk,Manchester,M24 1PY,North West,no
105824,354,Rochdale,St Thomas' Church of England Primary School,http://www.stthomasce.rochdale.sch.uk/,Rochdale,OL16 3QZ,North West,no
105831,354,Rochdale,"St Vincent's Roman Catholic Primary School, Rochdale",http://www.st-vincents.rochdale.sch.uk,Rochdale,OL12 7QL,North West,no
105810,354,Rochdale,Stansfield Hall Church of England / Methodist Church Primary School,http://www.stansfieldhall.rochdale.sch.uk/,Littleborough,OL15 9PR,North West,no
105760,354,Rochdale,Sunny Brow Nursery School,https://www.sunnybrow.rochdale.sch.uk,Manchester,M24 4AD,North West,no
140055,354,Rochdale,Wardle Academy,http://www.wardleacademy.co.uk/,Rochdale,OL12 9RD,North West,no
105781,354,Rochdale,Whittaker Moss Primary School,http://www.whittakermoss.rochdale.sch.uk/,Rochdale,OL11 5XP,North West,no
135017,354,Rochdale,Woodland Community Primary School,www.woodland.rochdale.sch.uk/,Heywood,OL10 3BX,North West,no
105764,354,Rochdale,Brimrod Community Primary School,http://www.brimrodprimary.rochdale.sch.uk,Rochdale,OL11 4NB,North West,yes
105846,354,Rochdale,Crossgates Primary School,https://www.crossgates.rochdale.sch.uk/,Rochdale,OL16 3HB,North West,yes
105770,354,Rochdale,Heybrook Primary School,https://www.heybrook.org,Rochdale,OL12 9BJ,North West,yes
131726,354,Rochdale,Holy Family Roman Catholic and Church of England College,www.hfch.co.uk,Heywood,OL10 2AA,North West,yes
105773,354,Rochdale,Meanwood Community Nursery and Primary School,http://www.meanwood.rochdale.sch.uk/,Rochdale,OL12 7DJ,North West,yes
135313,354,Rochdale,St Anne's Church of England Academy,http://www.stannesacademy.org.uk/,Manchester,M24 6XN,North West,yes
105849,354,Rochdale,"St John Fisher Roman Catholic Primary School, Rochdale",https://www.st-johnfisher.rochdale.sch.uk,Manchester,M24 2PB,North West,yes
