urn,district_code,district_name,school_name,website,town,postcode,region,has_email_collected
106074,356,Stockport,Abingdon Primary School,https://www.abingdon.stockport.sch.uk/,Stockport,SK5 7ET,North West,no
106024,356,Stockport,Adswood Primary School,https://www.adswood-pri.stockport.sch.uk/,Stockport,SK3 8PQ,North West,no
135746,356,Stockport,Alexandra Park Primary School,www.alexandrapark-pri.stockport.sch.uk,Stockport,SK3 9RF,North West,no
106102,356,Stockport,All Saints Church of England Primary School Marple,www.allsaints-pri.stockport.sch.uk/,Stockport,SK6 7BQ,North West,no
106103,356,Stockport,All Saints Church of England Primary School Stockport,https://www.allsaints.stockport.sch.uk,Stockport,SK4 1ND,North West,no
106100,356,Stockport,Arden Primary School,https://www.arden.stockport.sch.uk,Stockport,SK6 2EX,North West,no
106027,356,Stockport,Banks Lane Infant School,https://www.bankslaneinfants.org.uk/,Stockport,SK1 4PR,North West,no
151152,356,Stockport,Bolshaw Primary School,www.bolshaw.stockport.sch.uk/,Cheadle,SK8 3LW,North West,no
131554,356,Stockport,Bradshaw Hall Primary School,www.bradshawhall.stockport.sch.uk,Cheadle,SK8 6AN,North West,no
106139,356,Stockport,Bramhall High School,http://bhsweb.co.uk/,Stockport,SK7 2JT,North West,no
145054,356,Stockport,Bredbury Green Primary School,www.bredburygreenprimary.com,Stockport,SK6 3DG,North West,no
147723,356,Stockport,Bredbury St. Marks CofE Primary School,https://www.st-marks.stockport.sch.uk/,Stockport,SK6 1BX,North West,no
106032,356,Stockport,Bridge Hall Primary School,https://www.bridgehall.stockport.sch.uk,Stockport,SK3 8LX,North West,no
106091,356,Stockport,Cale Green Primary School,https://www.calegreen.stockport.sch.uk,Stockport,SK3 8JG,North West,no
106172,356,Stockport,Castle Hill High School,https://www.castlehill.stockport.sch.uk,Stockport,SK2 5DS,North West,no
106111,356,Stockport,Cheadle Catholic Infant School,https://www.cheadle-inf.stockport.sch.uk/,Cheadle,SK8 6DB,North West,no
106112,356,Stockport,Cheadle Catholic Junior School,https://www.cheadle-jun.stockport.sch.uk,Cheadle,SK8 6DB,North West,no
133326,356,Stockport,Cheadle Heath Primary School,www.cheadleheathprimary.co.uk/,Stockport,SK3 0RJ,North West,no
137843,356,Stockport,Cheadle Hulme High School,www.chhs.stockport.org.uk,Cheadle,SK8 7JY,North West,no
145870,356,Stockport,Cheadle Hulme Primary School,www.cheadlehulmeprimary.org.uk,Stockport,SK8 5GB,North West,no
106038,356,Stockport,Cheadle Village Primary School,www.cheadleprimaryschool.co.uk/,Cheadle,SK8 1BB,North West,no
150460,356,Stockport,Dial Park Primary School,www.dialparkprimaryschool.co.uk/,Stockport,SK2 5LB,North West,no
106098,356,Stockport,Didsbury Road Primary School,https://www.didsburyroad.stockport.sch.uk/,Stockport,SK4 3HB,North West,no
106045,356,Stockport,Etchells Primary School,https://www.etchells.stockport.sch.uk,Cheadle,SK8 3DL,North West,no
106046,356,Stockport,Fairway Primary School,https://www.fairway.stockport.sch.uk/,Stockport,SK2 5DR,North West,no
141275,356,Stockport,Gatley Primary School,www.gatleyprimary.com,Stockport,SK8 4NB,North West,no
106048,356,Stockport,Great Moor Infant School,https://www.greatmoor-inf.stockport.sch.uk/,Stockport,SK2 7DG,North West,no
106049,356,Stockport,Great Moor Junior School,https://www.greatmoor-jun.stockport.sch.uk/,Stockport,SK2 7DG,North West,no
106050,356,Stockport,Greave Primary School,https://www.greaveprimary.co.uk/,Stockport,SK6 1HR,North West,no
106143,356,Stockport,Harrytown Catholic High School,https://www.harrytownschool.org,Stockport,SK6 3BU,North West,no
137923,356,Stockport,Hazel Grove High School,www.hazelgrovehigh.co.uk,Stockport,SK7 5JX,North West,no
151030,356,Stockport,Hazel Grove Primary School,www.hazelgrove-pri.stockport.sch.uk/,Stockport,SK7 4JH,North West,no
106173,356,Stockport,Heaton School,https://www.heaton.stockport.sch.uk,Stockport,SK4 4RE,North West,no
106051,356,Stockport,High Lane Primary School,https://www.highlane.stockport.sch.uk/,Stockport,SK6 8JQ,North West,no
134623,356,Stockport,Highfields College,www.HighfieldsCollege.org.uk,Stockport,SK5 8DR,North West,no
106052,356,Stockport,Hursthead Infant School,https://www.hursthead-inf.stockport.sch.uk,Cheadle,SK8 7PZ,North West,no
140925,356,Stockport,Hursthead Junior School,www.hursthead-jun.stockport.sch.uk/,Cheadle,SK8 7PZ,North West,no
106054,356,Stockport,Ladybridge Primary School,https://www.ladybridge.stockport.sch.uk/,Cheadle,SK8 2JF,North West,no
106055,356,Stockport,Ladybrook Primary School,https://www.ladybrook.stockport.sch.uk/,Stockport,SK7 2LT,North West,no
106097,356,Stockport,Lane End Primary School,https://www.laneend.stockport.sch.uk,Stockport,SK8 7AL,North West,no
106056,356,Stockport,Lark Hill Primary School,https://www.larkhill-pri.stockport.sch.uk/,Stockport,SK3 9PH,North West,no
145893,356,Stockport,Laurus Cheadle Hulme,www.lauruscheadlehulme.org.uk,Cheadle,SK8 5GB,North West,no
151136,356,Stockport,Laurus Grace,,Stockport,SK7 5JX,North West,no
150462,356,Stockport,Lisburne School,www.lisburneschool.stockport.sch.uk,Stockport,SK2 5GP,North West,no
106057,356,Stockport,Ludworth Primary School,https://www.ludworth.org.uk,Stockport,SK6 5DU,North West,no
106093,356,Stockport,Lum Head Primary School,https://www.lumhead.stockport.sch.uk/,Cheadle,SK8 4RR,North West,no
151031,356,Stockport,Marple Hall School,www.marplehall.stockport.sch.uk,Stockport,SK6 6LB,North West,no
145688,356,Stockport,Meadowbank Primary School,www.meadowbankprimary.com,Cheadle,SK8 2LE,North West,no
137542,356,Stockport,Mellor Primary School,www.mellor.stockport.sch.uk,Stockport,SK6 5PL,North West,no
106059,356,Stockport,Mersey Vale Primary School,https://www.merseyvale.stockport.sch.uk/,Stockport,SK4 2BZ,North West,no
106023,356,Stockport,Moat House,https://www.moathouse.stockport.sch.uk,Stockport,SK4 1SZ,North West,no
134883,356,Stockport,Moorfield Primary School,www.moorfield.stockport.sch.uk,Stockport,SK7 5HP,North West,no
106090,356,Stockport,Moss Hey Primary School,http://mossheyprimary.co.uk,Stockport,SK7 1DS,North West,no
106062,356,Stockport,Nevill Road Infant School,https://www.nevillroad-inf.stockport.sch.uk,Stockport,SK7 3ET,North West,no
106063,356,Stockport,Nevill Road Junior School,https://www.nevillroad-jun.stockport.sch.uk,Stockport,SK7 3ET,North West,no
150461,356,Stockport,Norbury Hall Primary School,www.norburyhallprimary.co.uk/,Stockport,SK7 6LE,North West,no
106065,356,Stockport,Norris Bank Primary School,https://www.norrisbank.stockport.sch.uk/,Stockport,SK4 2NF,North West,no
106113,356,Stockport,North Cheshire Jewish Primary School,https://www.ncjps.org.uk,Cheadle,SK8 4RZ,North West,no
106073,356,Stockport,Oak Tree Primary School,https://www.oaktree.stockport.sch.uk/,Stockport,SK8 5HH,North West,no
150471,356,Stockport,Oakgrove School,,Cheadle,SK8 3BU,North West,no
106114,356,Stockport,Our Lady's Catholic Primary School,https://www.ourladys.stockport.sch.uk,Stockport,SK3 9HX,North West,no
106094,356,Stockport,Outwood Primary School,https://www.outwood.stockport.sch.uk,Cheadle,SK8 3ND,North West,no
150735,356,Stockport,Pear Tree Specialist Support High School,https://www.peartreeschool.org.uk/,Stockport,SK8 5NW,North West,no
106089,356,Stockport,Pownall Green Primary School,https://www.pownallgreen.co.uk,Stockport,SK7 2EB,North West,no
149936,356,Stockport,Priestnall School,www.priestnallschool.org.uk/,Stockport,SK4 3HP,North West,no
106071,356,Stockport,Prospect Vale Primary School,https://www.prospectvale.stockport.sch.uk,Cheadle,SK8 3RJ,North West,no
106072,356,Stockport,Queensgate Primary School,https://www.queensgate.stockport.sch.uk/,Stockport,SK7 1NE,North West,no
145133,356,Stockport,Reddish Vale High School,www.reddish.stockport.sch.uk,Stockport,SK5 7HD,North West,no
151029,356,Stockport,Romiley Primary School,www.romileyprimary.com/,Stockport,SK6 4NE,North West,no
106076,356,Stockport,Rose Hill Primary School,https://www.rosehill.stockport.sch.uk,Stockport,SK6 6DW,North West,no
106115,356,Stockport,St Ambrose Catholic Primary School,https://www.st-ambrose.stockport.sch.uk/,Stockport,SK3 8LQ,North West,no
147942,356,Stockport,St Anne's RC Voluntary Academy,https://www.stannes.academy/,Stockport,SK4 2QP,North West,no
106116,356,Stockport,St Bernadette's Catholic Primary School,https://www.st-bernadettes.stockport.sch.uk/,Stockport,SK5 8AR,North West,no
106117,356,Stockport,St Christopher's Catholic Primary School,http://www.st-christophers.stockport.sch.uk,Stockport,SK6 3AX,North West,no
147516,356,Stockport,St Elisabeth's Church of England Primary,http://www.st-elisabeths.stockport.sch.uk,Stockport,SK5 6BL,North West,no
131306,356,Stockport,St George's Church of England Primary School,www.st-georges.stockport.sch.uk/,Stockport,SK2 6NX,North West,no
106142,356,Stockport,St James' Catholic High School,http://www.stjamescheadle.co.uk,Cheadle,SK8 6PZ,North West,no
106105,356,Stockport,St John's Church of England Primary School,https://www.st-johns.stockport.sch.uk,Stockport,SK4 3DG,North West,no
149935,356,Stockport,"St Joseph's Catholic Primary School, a Voluntary Academy",www.st-josephs-pri.stockport.sch.uk,Stockport,SK1 1EF,North West,no
150473,356,Stockport,"St Joseph's Roman Catholic Primary School, Reddish, a Voluntary Academy",www.stjosephsreddish.org,Stockport,SK5 6BG,North West,no
146189,356,Stockport,St Mary's Catholic Voluntary Academy,https://www.stmarysmarplebridge.srscmat.co.uk/,Stockport,SK6 5BR,North West,no
106106,356,Stockport,St Mary's Church of England Primary School,https://www.st-marys-reddish.stockport.sch.uk,Stockport,SK5 7DR,North West,no
150203,356,Stockport,"St Mary's Roman Catholic Primary School, a Voluntary Academy",,Stockport,SK4 1RF,North West,no
140417,356,Stockport,St Matthew's Church of England Primary School,www.cdatstmatthewsprimary.co.uk/,Stockport,SK3 9EA,North West,no
106108,356,Stockport,St Paul's Church of England Primary School Brinnington,https://www.st-pauls.stockport.sch.uk,Stockport,SK5 8AA,North West,no
106125,356,Stockport,St Peter's Catholic Primary School,https://www.st-peters.stockport.sch.uk,Stockport,SK7 5PL,North West,no
106126,356,Stockport,St Philip's Catholic Primary School,https://www.stphilipsstockport.co.uk,Stockport,SK2 5LB,North West,no
106127,356,Stockport,St Simon's Catholic Primary School,https://www.st-simons.stockport.sch.uk,Stockport,SK7 4LH,North West,no
106128,356,Stockport,St Thomas' Church of England Primary School Heaton Chapel,https://www.st-thomasheaton.stockport.sch.uk,Stockport,SK4 4QG,North West,no
106109,356,Stockport,St Thomas' Church of England Primary School Stockport,https://www.st-thomas.stockport.sch.uk/,Stockport,SK1 3PJ,North West,no
106129,356,Stockport,"St Winifred's Roman Catholic Primary School, Stockport",https://www.st-winifreds.stockport.sch.uk/,Stockport,SK4 3JH,North West,no
135262,356,Stockport,Stockport Academy,www.stockport-academy.org,Stockport,SK3 0UP,North West,no
106135,356,Stockport,Stockport School,https://www.stockportschool.net,Stockport,SK2 6BW,North West,no
142509,356,Stockport,The Kingsway School,http://www.kingsway.stockport.sch.uk,Cheadle,SK8 4QX,North West,no
106022,356,Stockport,The Pendlebury Centre,,Stockport,SK3 0RJ,North West,no
106079,356,Stockport,Thorn Grove Primary School,https://www.thorngroveprimary.co.uk,Cheadle,SK8 7LD,North West,no
106080,356,Stockport,Tithe Barn Primary School,www.tithebarnschool.com,Stockport,SK4 3NG,North West,no
106081,356,Stockport,Torkington Primary School,https://www.torkington.stockport.sch.uk/,Stockport,SK7 6NR,North West,no
131083,356,Stockport,Vale View Primary School,https://valeview-stockport.frogos.net/app/os#!/home,Stockport,SK5 6TP,North West,no
106168,356,Stockport,Valley School,http://www.valley.stockport.sch.uk/,Stockport,SK7 1EN,North West,no
106082,356,Stockport,Vernon Park Primary School,https://www.vernonpark.stockport.sch.uk,Stockport,SK1 2NF,North West,no
106083,356,Stockport,Warren Wood Primary School,https://www.warrenwood.stockport.sch.uk,Stockport,SK2 5XU,North West,no
148327,356,Stockport,Werneth School,www.wernethschool.com,Stockport,SK6 3BX,North West,no
132121,356,Stockport,Westmorland Primary School,www.westmorlandprimary.co.uk,Stockport,SK5 8HH,North West,no
106084,356,Stockport,Whitehill Primary School,https://www.whitehill.stockport.sch.uk/,Stockport,SK4 1PB,North West,no
131889,356,Stockport,Windlehurst School,www.windlehurst.stockport.sch.uk,Stockport,SK6 7HZ,North West,no
149080,356,Stockport,Woodford Primary School,https://www.woodfordprimary.org.uk/,Stockport,SK7 1GX,North West,no
106028,356,Stockport,Banks Lane Junior School,https://www.bankslane-jun.stockport.sch.uk,Stockport,SK1 4PR,North West,yes
106034,356,Stockport,Broadstone Hall Primary School,https://www.broadstonehallschool.co.uk,Stockport,SK4 5JD,North West,yes
106036,356,Stockport,Brookside Primary School,http://brooksideprimary.com,Stockport,SK6 8DB,North West,yes
106021,356,Stockport,Freshfield Nursery School,https://www.freshfield.stockport.sch.uk,Stockport,SK4 3NB,North West,yes
106015,356,Stockport,Hollywood Park Nursery School,https://www.hollywoodpark.stockport.sch.uk,Stockport,SK3 0BJ,North West,yes
106016,356,Stockport,Lark Hill Nursery School,https://www.larkhill-nur.stockport.sch.uk,Stockport (Greater Manchester),SK3 9PH,North West,yes
106018,356,Stockport,Reddish Vale Nursery School,https://www.reddishvalenursery.stockport.sch.uk,Stockport,SK5 7EU,North West,yes
134779,356,Stockport,Woodley Primary School,www.woodley-pri.stockport.sch.uk/,Stockport,SK6 1LH,North West,yes
