urn,district_code,district_name,school_name,website,town,postcode,region,has_email_collected
106505,359,Wigan,"All Saints Catholic Primary School, Golborne, Wigan",https://www.golborneallsaints.co.uk,Warrington,WA3 3LU,North West,no
106518,359,Wigan,Aspull Church Primary School,https://www.aspullchurch.wigan.sch.uk,Wigan,WN2 1QT,North West,no
138233,359,Wigan,Atherton High School,http://www.athertonhigh.com/,Atherton,M46 0AY,North West,no
144371,359,Wigan,Atherton St George's CofE Primary School,www.saintgeorges.wigan.sch.uk/,Manchester,M46 0HJ,North West,no
140053,359,Wigan,Bedford Hall Methodist Primary School,https://www.bedfordhall.wigan.sch.uk/,Leigh,WN7 3DJ,North West,no
106523,359,Wigan,Bedford High School,http://www.bedfordhighschool.co.uk/,Leigh,WN7 2LU,North West,no
106399,359,Wigan,Beech Hill Community Primary School,www.beechill.wigan.sch.uk/,Wigan,WN6 7PT,North West,no
106470,359,Wigan,Bickershaw CofE Primary School,https://www.bickershaw.wigan.sch.uk,Wigan,WN2 4AE,North West,no
106438,359,Wigan,Bryn St Peter's CofE Primary School,https://www.brynsaintpeters.co.uk,Wigan,WN4 0DL,North West,no
142028,359,Wigan,Canon Sharples Church of England Primary School and Nursery,,Wigan,WN2 1BP,North West,no
106521,359,Wigan,Cansfield High School,http://www.cansfield.wigan.sch.uk,Wigan,WN4 9TP,North West,no
106472,359,Wigan,Castle Hill St Philip's CofE Primary School,https://www.castlehill.wigan.sch.uk/,Wigan,WN2 4DH,North West,no
106443,359,Wigan,Chowbent Primary School,http://www.chowbent.wigan.sch.uk,Manchester,M46 9FP,North West,no
106512,359,Wigan,"Christ Church CofE Primary School, Pennington",https://www.christchurchprimaryschool.co.uk/,Leigh,WN7 4HB,North West,no
146797,359,Wigan,Dean Trust Rose Bridge,https://www.deantrustrosebridge.co.uk/,Wigan,WN1 3HD,North West,no
144519,359,Wigan,Dean Trust Wigan,http://www.deantrustwigan.co.uk/,Wigan,WN5 0DQ,North West,no
106398,359,Wigan,Douglas Valley Nursery School,,Wigan,WN1 3SU,North West,no
137448,359,Wigan,Fred Longworth High School,https://flhs.org.uk/,Manchester,M29 8JN,North West,no
106433,359,Wigan,Garrett Hall Primary School,https://www.garretthall.wigan.sch.uk,Manchester,M29 7EY,North West,no
106431,359,Wigan,Gilded Hollins Community School,https://www.gildedhollins.wigan.sch.uk/,Leigh,WN7 3PQ,North West,no
147101,359,Wigan,Golborne Community Primary School,www.golborneprimary.co.uk/,Warrington,WA3 3NN,North West,no
106525,359,Wigan,Golborne High School,http://www.golbornehigh.wigan.sch.uk/,Warrington,WA3 3EL,North West,no
138110,359,Wigan,Hawkley Hall High School,http://hhhs.net/,Wigan,WN3 5NY,North West,no
145713,359,Wigan,Highfield St Matthew's Church of England Primary School,www.highfieldsaintmatthews.wigan.sch.uk/,Wigan,WN3 6BL,North West,no
106471,359,Wigan,Hindley All Saints CofE Primary School,https://www.hindleyallsaints.co.uk,Wigan,WN2 3QS,North West,no
141642,359,Wigan,Hindley Green Community Primary School,www.hindleygreen.wigan.sch.uk/,Wigan,WN2 4SS,North West,no
106441,359,Wigan,Hindsford CofE Primary School,http://www.hindsfordprimary.net,Manchester,M46 9BL,North West,no
149190,359,Wigan,Holy Family Catholic Academy,www.holyfamilywigan.co.uk,Wigan,WN2 5JF,North West,no
106504,359,Wigan,Holy Family Catholic Primary School,https://www.boothstownholyfamily.wigan.sch.uk/,Manchester,M28 1AG,North West,no
106491,359,Wigan,"Holy Family Catholic Primary School, New Springs, Wigan",https://www.aspullholyfamily.co.uk/,Wigan,WN2 1EL,North West,no
106543,359,Wigan,Hope School,https://www.hope.wigan.sch.uk,Wigan,WN3 6SP,North West,no
106476,359,Wigan,Ince CofE Primary School,https://www.ince.wigan.sch.uk,Wigan,WN2 2AL,North West,no
134297,359,Wigan,"Landgate School, Bryn",https://landgateschool.co.uk/,Wigan,WN4 0EP,North West,no
144609,359,Wigan,Leigh CofE Primary School,https://www.leighceprimary.co.uk/,Leigh,WN7 1LP,North West,no
106517,359,Wigan,Leigh St John's CofE Primary,https://www.leighstjohnsprimary.wigan.sch.uk,Leigh,WN7 1RY,North West,no
106516,359,Wigan,Leigh St Mary's CofE Primary School,https://www.leighstmarys.co.uk,Leigh,WN7 1YE,North West,no
140087,359,Wigan,Leigh Westleigh Methodist Primary School,https://www.westleighmethodist.wigan.sch.uk/,Leigh,WN7 5NJ,North West,no
137783,359,Wigan,Lowton Church of England High School,http://www.lowtonhs.wigan.sch.uk/,Warrington,WA3 1DU,North West,no
106486,359,Wigan,Lowton St Mary's CofE (Voluntary Aided) Primary School,https://lowtonstmarysceprimary.net,WARRINGTON,WA3 1EW,North West,no
106405,359,Wigan,Mab's Cross Primary School,https://www.mabscross.co.uk,Wigan,WN1 1XL,North West,no
143498,359,Wigan,Marus Bridge Primary School,www.marusbridge.co.uk,Wigan,WN3 6SP,North West,no
106425,359,Wigan,Meadowbank Primary School & Children's Centre,www.athertonmeadowbankblogs.net,Manchester,M46 0HX,North West,no
106436,359,Wigan,Millbrook Primary School,http://millbrook.wigan.sch.uk,Wigan,WN6 8DL,North West,no
106430,359,Wigan,Nicol Mere School,http://www.nicolmere.wigan.sch.uk,Wigan,WN4 8DF,North West,no
131530,359,Wigan,Oakfield High School and College,http://www.oakfield.wigan.sch.uk,Wigan,WN2 4XA,North West,no
143389,359,Wigan,Orrell Holgate Academy,http://www.holgate.wigan.sch.uk,Wigan,WN5 8SJ,North West,no
143388,359,Wigan,Orrell Lamberhead Green Academy,www.lamberheadgreen.wigan.sch.uk/,Wigan,WN5 0AW,North West,no
106490,359,Wigan,Our Lady's RC Primary School Wigan,https://www.aspullourladys.wigan.sch.uk,Wigan,WN2 1RU,North West,no
148526,359,Wigan,Outwood Academy Hindley,,Wigan,WN2 4LG,North West,no
106426,359,Wigan,Parklee Community School,www.parklee.wigan.sch.uk/,Wigan,M46 0AR,North West,no
139300,359,Wigan,Platt Bridge Community School,www.plattbridge.wigan.sch.uk/,Wigan,WN2 5NG,North West,no
106424,359,Wigan,R L Hughes Primary School,http://www.rlhughes.wigan.sch.uk,Wigan,WN4 9QL,North West,no
131295,359,Wigan,Rowan Tree Primary School,https://www.rowantree.wigan.sch.uk/,Manchester,M46 9HP,North West,no
106461,359,Wigan,Sacred Heart Catholic Primary School,http://www.sacredheart.wigan.sch.uk,WIGAN,WN6 7RH,North West,no
106502,359,Wigan,Sacred Heart Catholic Primary School Leigh,http://www.leighsacredheart.wigan.sch.uk,Leigh,WN7 1UX,North West,no
106499,359,Wigan,Sacred Heart RC Primary School,http://www.athertonsacredheart.wigan.sch.uk,Manchester,M46 9BN,North West,no
106529,359,Wigan,Shevington High School,http://www.shevingtonhigh.org.uk,Wigan,WN6 8AB,North West,no
106429,359,Wigan,Shevington Vale Primary School,www.shevingtonvale.org.uk/,Wigan,WN6 9JP,North West,no
106463,359,Wigan,"St Aidan's Catholic Primary School, Wigan",https://www.saintaidansprimary.org.uk/,Wigan,WN3 6EE,North West,no
106510,359,Wigan,St Ambrose Barlow Catholic Primary School,https://www.saintambrosebarlow.co.uk/,Manchester,M29 7DY,North West,no
106494,359,Wigan,St Benedict's Catholic Primary School Hindley,http://www.saintbenedicts.wigan.sch.uk,Wigan,WN2 3DG,North West,no
106508,359,Wigan,St Bernadette's Catholic Primary School,https://www.saintbernadettes.wigan.sch.uk/,Wigan,WN6 8BD,North West,no
106464,359,Wigan,St Catharine's CofE Primary School,https://www.stcatharinesprimary.co.uk/,Wigan,WN1 3LP,North West,no
106507,359,Wigan,"St Catherine's Catholic Primary School, Lowton",https://www.lowtonstcatherines.co.uk/,Warrington,WA3 2PQ,North West,no
131228,359,Wigan,St Cuthbert's Catholic Primary School Wigan,www.saintcuthberts.wigan.sch.uk/,WIGAN,WN5 9LW,North West,no
146511,359,Wigan,St David Haigh and Aspull CofE Primary School,http://www.saintdavids.wigan.sch.uk,Wigan,WN2 1PA,North West,no
106540,359,Wigan,"St Edmund Arrowsmith Catholic High School, Ashton-in-Makerfield",http://www.arrowsmith.wigan.sch.uk,Wigan,WN4 9PF,North West,no
106506,359,Wigan,St Gabriel's Catholic Primary School,http://www.saintgabrielsprimary.co.uk,Leigh,WN7 2XG,North West,no
106492,359,Wigan,St James' Catholic Primary School Orrell,https://www.orrellsaintjames.wigan.sch.uk/,Wigan,WN5 7AA,North West,no
145107,359,Wigan,St James' Church of England Primary School,www.saintjames.wigan.sch.uk/,Wigan,WN3 5XE,North West,no
106535,359,Wigan,St John Fisher Catholic High School,https://sjfhs.co.uk,Wigan,WN6 7RN,North West,no
141641,359,Wigan,"St John's Church of England Primary School, Abram",www.abramsaintjohns.wigan.sch.uk,Wigan,WN2 5QE,North West,no
141644,359,Wigan,"St John's Church of England Primary School, Hindley Green",www.hindleygreensaintjohns.wigan.sch.uk/,Wigan,WN2 4SD,North West,no
106451,359,Wigan,St John's CofE Primary School,,Wigan,WN5 0DT,North West,no
106484,359,Wigan,St John's CofE Primary School Mosley Common,https://www.saintjohnsmosleycommon.wigan.sch.uk/,Manchester,M28 1AE,North West,no
106501,359,Wigan,St Joseph's Catholic Primary School Leigh,http://www.saintjosephs.wigan.sch.uk,Leigh,WN7 2PW,North West,no
130384,359,Wigan,St Jude's Catholic Primary School Wigan,www.saintjudes.wigan.sch.uk/,Wigan,WN3 5AN,North West,no
106485,359,Wigan,St Luke's CofE Primary School,http://saintlukes.wigan.sch.uk,Warrington,WA3 2PW,North West,no
106493,359,Wigan,St Marie's Catholic Primary School Standish,https://www.saintmaries.wigan.sch.uk/,Wigan,WN6 0LF,North West,no
144340,359,Wigan,St Mark's CofE Primary School,https://www.saintmarks.wigan.sch.uk/,Wigan,WN5 9DS,North West,no
106459,359,Wigan,St Mary and St John Catholic Primary School,https://www.saintmaryandjohn.wigan.sch.uk/,Wigan,WN1 1XL,North West,no
106538,359,Wigan,St Mary's Catholic High School,http://stmaryschs.org.uk/,Manchester,M29 7EE,North West,no
106447,359,Wigan,St Mary's CofE Primary School,https://www.saintmarys.wigan.sch.uk/,Wigan,WN2 3NX,North West,no
106478,359,Wigan,"St Michael's CofE Primary School, Howe Bridge",https://www.howebridgestmichaels.co.uk/,Manchester,M46 0PA,North West,no
106488,359,Wigan,St Oswald's Catholic Primary School,https://www.stoswaldswigan.co.uk,Wigan,WN4 9AZ,North West,no
106460,359,Wigan,St Patrick's Catholic Primary School,http://www.saintpatricks.wigan.sch.uk,Wigan,WN1 3RZ,North West,no
146399,359,Wigan,St Paul's Church of England Primary School,www.stpaulswigan.org.uk,Wigan,WN3 6SB,North West,no
106537,359,Wigan,St Peter's Catholic High School,http://www.saintpetershigh.wigan.sch.uk,Wigan,WN5 8NU,North West,no
141643,359,Wigan,"St Peter's Church of England Primary School, Hindley",http://www.hindleysaintpeters.wigan.sch.uk,Wigan,WN2 3HY,North West,no
106515,359,Wigan,"St Philip's CofE Primary School, Atherton",http://www.saintphilips.wigan.sch.uk,Manchester,M46 9FD,North West,no
106498,359,Wigan,St Richard's Roman Catholic Primary School Atherton,https://www.saintrichards.wigan.sch.uk/,Manchester,M46 0HA,North West,no
106482,359,Wigan,St Stephen's CofE Primary School,www.astleyststephen.org.uk/,Manchester,M29 7BT,North West,no
106487,359,Wigan,St Thomas CofE Junior and Infant School,http://www.golbornesaintthomas.wigan.sch.uk,Warrington,WA3 3TH,North West,no
106465,359,Wigan,St Thomas CofE Primary School,https://www.ashtonsaintthomas.wigan.sch.uk/,Wigan,WN4 8PQ,North West,no
106448,359,Wigan,"St Thomas' CofE Primary School, Leigh",http://www.leighsaintthomas.wigan.sch.uk/,Leigh,WN7 2AS,North West,no
106509,359,Wigan,St Wilfrids Catholic Primary School,https://www.ashtonsaintwilfrids.wigan.sch.uk,Wigan,WN4 8SJ,North West,no
106497,359,Wigan,St William's Catholic Primary School,,Wigan,WN2 2DG,North West,no
143812,359,Wigan,Standish Community High School,https://www.standishchs.org.uk,Wigan,WN6 0NX,North West,no
106468,359,Wigan,Standish Lower Ground St Anne's CofE Primary School,https://www.saintannes.wigan.sch.uk/,Wigan,WN6 8JP,North West,no
139883,359,Wigan,Standish St Wilfrid's Church of England Primary Academy,www.saintwilfrids.wigan.sch.uk/,Wigan,WN6 0XB,North West,no
138699,359,Wigan,The Byrchall High School,http://www.byrchall.wigan.sch.uk,Wigan,WN4 9PQ,North West,no
106534,359,Wigan,The Deanery Church of England High School and Sixth Form College,https://www.deanery.wigan.sch.uk,Wigan,WN1 1HQ,North West,no
146087,359,Wigan,The Westleigh School,https://thewestleighschool.co.uk/,Leigh,WN7 5NL,North West,no
140627,359,Wigan,Three Towers Alternative Provision Academy,www.ttapa.net,"Hindley, Wigan",WN2 3RX,North West,no
106503,359,Wigan,Twelve Apostles Catholic Primary School,https://www.twelveapostlesleigh.co.uk,Select,WN7 5JS,North West,no
138036,359,Wigan,Tyldesley Primary School,http://www.tyldesley.wigan.sch.uk,Manchester,M29 7PY,North West,no
131331,359,Wigan,Tyldesley St George's Central CofE Primary School and Nursery,www.saintgeorgescentral.wigan.sch.uk/,Manchester,M29 8DH,North West,no
134742,359,Wigan,Westfield Community School,www.westfield.wigan.sch.uk,Wigan,WN5 9XN,North West,no
106481,359,Wigan,Westleigh St Paul's CofE Primary School,https://www.westleighstpauls.co.uk,Leigh,WN7 5JN,North West,no
106449,359,Wigan,Wigan St Andrew's CofE Junior and Infant School,http://www.wiganstandrews.net,Wigan,WN6 7AU,North West,no
106407,359,Wigan,Winstanley Community Primary School,https://www.winstanley.wigan.sch.uk/,Wigan,WN3 6JP,North West,no
106417,359,Wigan,Britannia Bridge Primary School,https://www.britanniabridge.co.uk/,Wigan,WN3 4SD,North West,yes
106415,359,Wigan,Hindley Junior and Infant School,https://www.hindley.wigan.sch.uk/,Wigan,WN2 3PN,North West,yes
106397,359,Wigan,Hindley Nursery School,https://www.hindleynurseryschool.co.uk,Wigan,WN2 4LG,North West,yes
106418,359,Wigan,Leigh Central Primary School,http://www.leighcentral.wigan.sch.uk,Leigh,WN7 1UY,North West,yes
135841,359,Wigan,Leigh St Peter's CofE Primary School,www.leighsaintpeters.wigan.sch.uk/,Leigh,WN7 4TP,North West,yes
106421,359,Wigan,Lowton Junior and Infant School,http://www.lowtonprimary.wigan.sch.uk,Warrington,WA3 2AW,North West,yes
106428,359,Wigan,Lowton West Primary School,http://www.lowtonwest.wigan.sch.uk/,Warrington,WA3 2ED,North West,yes
106403,359,Wigan,Marsh Green Primary School,https://www.marshgreenprimary.co.uk/,Wigan,WN5 0EF,North West,yes
135199,359,Wigan,Newbridge Learning Community,www.newbridge.wigan.sch.uk,Wigan,WN2 3TL,North West,yes
106422,359,Wigan,Newton Westpark Primary School,https://www.newtonwestpark.co.uk,Leigh,WN7 5JY,North West,yes
106412,359,Wigan,Orrell Newfold Community Primary School,http://www.newfold.wigan.sch.uk,Wigan,WN5 7BD,North West,yes
130955,359,Wigan,"Sacred Heart Catholic Primary School, Hindley Green",www.hindleygreensacredheart.co.uk/,Wigan,WN2 4HD,North West,yes
106404,359,Wigan,Wigan Worsley Mesnes Community Primary School,https://www.worsleymesnes.wigan.sch.uk/,Wigan,WN3 5HN,North West,yes
132155,359,Wigan,Willow Grove Primary School,http://www.willowgroveprimary.org.uk,Wigan,WN4 8XF,North West,yes
106427,359,Wigan,Wood Fold Primary School,https://www.woodfold.wigan.sch.uk/,Wigan,WN6 0TS,North West,yes
106402,359,Wigan,Woodfield Primary School,https://www.woodfield.wigan.sch.uk/,Wigan,WN1 2NT,North West,yes
