urn,district_code,district_name,school_name,website,town,postcode,region,has_email_collected
150802,371,Doncaster,Adwick Primary School,www.adwickprimaryschool.org.uk,Doncaster,DN6 7LW,Yorkshire and the Humber,no
138314,371,Doncaster,Armthorpe Academy,https://www.armthorpeacademy.org.uk/,Doncaster,DN3 2DA,Yorkshire and the Humber,no
138705,371,Doncaster,Armthorpe Shaw Wood Academy,www.shawwoodacademy.co.uk,Doncaster,DN3 2DG,Yorkshire and the Humber,no
137066,371,Doncaster,Ash Hill Academy,http://www.ashhillacademy.org.uk/,DONCASTER,DN7 6JH,Yorkshire and the Humber,no
146706,371,Doncaster,Askern Littlemoor Infant Academy,www.askernlittlemoor.com,Doncaster,DN6 0PZ,Yorkshire and the Humber,no
146672,371,Doncaster,Askern Moss Road Infant Academy,www.askernmossroad.com,Doncaster,DN6 0NE,Yorkshire and the Humber,no
146370,371,Doncaster,Astrea Academy Woodfields,https://www.astreawoodfields.org/,Doncaster,DN4 8ND,Yorkshire and the Humber,no
144950,371,Doncaster,Atlas Academy,www.astreaatlas.org,Doncaster,DN1 3QP,Yorkshire and the Humber,no
137335,371,Doncaster,Auckley School,http://www.auckley.doncaster.sch.uk,Doncaster,DN9 3JN,Yorkshire and the Humber,no
147864,371,Doncaster,Bader Academy,www.baderacademy.org,Doncaster,DN3 2EW,Yorkshire and the Humber,no
143962,371,Doncaster,Balby Central Primary Academy,www.balbycentralprimary.co.uk,Doncaster,DN4 0LL,Yorkshire and the Humber,no
150040,371,Doncaster,Barnburgh Primary Academy,www.barnburghacademy.com,Doncaster,DN5 7EZ,Yorkshire and the Humber,no
138163,371,Doncaster,Barnby Dun Primary Academy,http://www.barnbydunprimaryacademy.co.uk,Doncaster,DN3 1BG,Yorkshire and the Humber,no
106737,371,Doncaster,Bawtry Mayflower Primary School,https://www.bawtrymayflower.school/,Doncaster,DN10 6PU,Yorkshire and the Humber,no
144076,371,Doncaster,Bentley High Street Primary School,www.bentleyhighstreet.co.uk/,Doncaster,DN5 0AA,Yorkshire and the Humber,no
106751,371,Doncaster,Bentley New Village Primary School,www.bentleynewvillage.co.uk/,Doncaster,DN5 0NU,Yorkshire and the Humber,no
144412,371,Doncaster,Bessacarr Primary,http://www.bessacarr.doncaster.sch.uk/,Doncaster,DN4 7DT,Yorkshire and the Humber,no
106767,371,Doncaster,Branton St Wilfrid's Church of England Primary School,https://www.branton-st-wilfrids-primary.co.uk,Doncaster,DN3 3NB,Yorkshire and the Humber,no
146919,371,Doncaster,Brooke Primary Academy,https://brookeprimaryacademy.org.uk/,Doncaster,DN8 5PQ,Yorkshire and the Humber,no
138116,371,Doncaster,Campsmount Academy,www.campsmount.com,Doncaster,DN6 9AS,Yorkshire and the Humber,no
145771,371,Doncaster,Canon Popham CofE Primary Academy,www.canon-popham.vox-cms.com/,Doncaster,DN3 2PP,Yorkshire and the Humber,no
148408,371,Doncaster,Carcroft Primary School,www.carcroftprimary.co.uk/,Doncaster,DN6 8DR,Yorkshire and the Humber,no
140353,371,Doncaster,Carr Lodge Academy,www.carrlodgeacademy.org,Doncaster,DN4 8GA,Yorkshire and the Humber,no
144483,371,Doncaster,Castle Academy,www.astreacastle.org,Doncaster,DN12 3DW,Yorkshire and the Humber,no
137765,371,Doncaster,Conisbrough Ivanhoe Primary Academy,www.ivanhoeschool.co.uk/,Doncaster,DN12 3LR,Yorkshire and the Humber,no
106722,371,Doncaster,Copley Junior School,http://www.copley.doncaster.sch.uk,Doncaster,DN5 7SD,Yorkshire and the Humber,no
147582,371,Doncaster,Coppice School,www.coppiceschool.com,Doncaster,DN7 6JH,Yorkshire and the Humber,no
138008,371,Doncaster,Crookesbroom Primary Academy,www.cpacademy.org.uk,Doncaster,DN7 6JP,Yorkshire and the Humber,no
143514,371,Doncaster,Denaby Main Primary Academy,www.astreadenabymain.org,Doncaster,DN12 4HZ,Yorkshire and the Humber,no
137472,371,Doncaster,Don Valley Academy,http://www.donvalleyacademy.org.uk/,Doncaster,DN5 9DD,Yorkshire and the Humber,no
147838,371,Doncaster,Doncaster UTC,,Doncaster,DN1 3BF,Yorkshire and the Humber,no
138907,371,Doncaster,Dunsville Primary School,www.dunsville.doncaster.sch.uk/,Doncaster,DN7 4HX,Yorkshire and the Humber,no
142933,371,Doncaster,Edenthorpe Hall Primary Academy,https://astreaedenthorpehall.org/,Doncaster,DN3 2LS,Yorkshire and the Humber,no
144347,371,Doncaster,Edlington Victoria Academy,https://www.edlingtonvictoria.co.uk/,Doncaster,DN12 1BN,Yorkshire and the Humber,no
137482,371,Doncaster,Grange Lane Infant Academy,http://www.gliacademy.org.uk/,Doncaster,DN11 0QY,Yorkshire and the Humber,no
144656,371,Doncaster,Green Top,www.greentopschool.co.uk,Doncaster,DN8 5LB,Yorkshire and the Humber,no
137842,371,Doncaster,Hall Cross Academy,http://hallcrossacademy.co.uk/,Doncaster,DN1 2HY,Yorkshire and the Humber,no
145080,371,Doncaster,Hatchell Wood Primary Academy,www.hatchellwood.com,Doncaster,DN4 6SL,Yorkshire and the Humber,no
138007,371,Doncaster,Hatfield Woodhouse Primary School,http://www.hatfieldwoodhouse.org.uk,Doncaster,DN7 6NH,Yorkshire and the Humber,no
147797,371,Doncaster,Hawthorn Primary School,www.hawthorn.doncaster.sch.uk/,Doncaster,DN4 6LQ,Yorkshire and the Humber,no
106746,371,Doncaster,Hayfield Lane Primary School,http://www.hayfieldlane.org,Doncaster,DN9 3NB,Yorkshire and the Humber,no
147515,371,Doncaster,Heatherwood School,www.heatherwoodschool.org,Doncaster,DN2 6HQ,Yorkshire and the Humber,no
143194,371,Doncaster,Hexthorpe Primary School,www.astreahexthorpe.org,Doncaster,DN4 0HH,Yorkshire and the Humber,no
138083,371,Doncaster,Highfields Primary Academy,www.highfieldspa.org.uk,Doncaster,DN6 7JB,Yorkshire and the Humber,no
144539,371,Doncaster,Highwoods Academy,www.highwoods.doncaster.sch.uk/,Mexborough,S64 9ES,Yorkshire and the Humber,no
144077,371,Doncaster,Hill Top Academy,www.hilltop-primary.co.uk/,Doncaster,DN12 1PL,Yorkshire and the Humber,no
141056,371,Doncaster,Holy Family Catholic Primary School,www.holyfamily.doncaster.sch.uk/,Doncaster,DN7 5BL,Yorkshire and the Humber,no
144536,371,Doncaster,Hooton Pagnell All Saints Church of England Primary School,www.hpcofe.co.uk,Doncaster,DN5 7BT,Yorkshire and the Humber,no
137899,371,Doncaster,Hungerhill School,https://www.hungerhillschool.com/,Doncaster,DN3 2JY,Yorkshire and the Humber,no
145079,371,Doncaster,Intake Primary Academy,www.astreaintake.org,Doncaster,DN2 6EW,Yorkshire and the Humber,no
143876,371,Doncaster,Kingfisher Primary Academy,https://www.astrea-kingfisher.org/,Doncaster,DN2 4PY,Yorkshire and the Humber,no
138922,371,Doncaster,Kirk Sandall Infant School,http://www.ksinfantschool.co.uk,Doncaster,DN3 1JT,Yorkshire and the Humber,no
141684,371,Doncaster,Kirk Sandall Junior School,https://kirksandalljunior.schooljotter2.com/,Doncaster,DN3 1JG,Yorkshire and the Humber,no
131341,371,Doncaster,Kirkby Avenue Primary School,www.kirkbyavenueprimaryschool.co.uk,Doncaster,DN5 9TF,Yorkshire and the Humber,no
147553,371,Doncaster,Lakeside Primary Academy,www.lakesidedoncaster.com,Doncaster,DN4 5ES,Yorkshire and the Humber,no
135502,371,Doncaster,Maple Medical PRU,https://maplemedical.org.uk/,Doncaster,DN4 9HT,Yorkshire and the Humber,no
146948,371,Doncaster,Marshland Primary Academy,https://marshlandprimaryacademy.org.uk,Doncaster,DN8 4SB,Yorkshire and the Humber,no
143581,371,Doncaster,Mexborough St John the Baptist CofE Primary School,http://www.mexboroughstjohn.co.uk,Mexborough,S64 0BE,Yorkshire and the Humber,no
145930,371,Doncaster,Montagu Academy,www.montaguacademy.org.uk,Mexborough,S64 9PH,Yorkshire and the Humber,no
142464,371,Doncaster,Morley Place Academy,,Doncaster,DN12 3LZ,Yorkshire and the Humber,no
144714,371,Doncaster,New College Doncaster,,Doncaster,DN9 3HG,Yorkshire and the Humber,no
148689,371,Doncaster,New Pastures Primary School,www.newpasturesprimary.org.uk,Mexborough,S64 0LT,Yorkshire and the Humber,no
147829,371,Doncaster,North Ridge Community School,http://www.northridgeschool.org,Doncaster,DN6 7EF,Yorkshire and the Humber,no
147134,371,Doncaster,Norton Infant School,nortoninfantschool.org,Doncaster,DN6 9DG,Yorkshire and the Humber,no
147130,371,Doncaster,Norton Junior School,www.njsch.uk,Doncaster,DN6 9DG,Yorkshire and the Humber,no
149350,371,Doncaster,Our Lady of Mount Carmel Catholic Primary School,http://www.ourladymountcarmel.doncaster.sch.uk/,Doncaster,DN2 5JG,Yorkshire and the Humber,no
106770,371,Doncaster,Our Lady of Perpetual Help Catholic Primary School,https://www.ourladys.doncaster.sch.uk/,Doncaster,DN5 0RP,Yorkshire and the Humber,no
144469,371,Doncaster,Our Lady of Sorrows Catholic Voluntary Academy,www.ourladysorrows.doncaster.sch.uk,Doncaster,DN3 2DB,Yorkshire and the Humber,no
135963,371,Doncaster,Outwood Academy Adwick,http://www.adwick.outwood.com/,Doncaster,DN6 7SF,Yorkshire and the Humber,no
143938,371,Doncaster,Outwood Academy Danum,www.danum.outwood.com,Doncaster,DN2 5QD,Yorkshire and the Humber,no
148388,371,Doncaster,Outwood Primary Academy Woodlands,https://www.woodlands.outwood.com/,Doncaster,DN6 7RG,Yorkshire and the Humber,no
146583,371,Doncaster,Owston Park Primary Academy,https://www.owston.doncaster.sch.uk/,Doncaster,DN6 8PU,Yorkshire and the Humber,no
106728,371,Doncaster,Park Primary School,https://park.doncaster.sch.uk/,Doncaster,DN2 4JP,Yorkshire and the Humber,no
144346,371,Doncaster,Pennine View School,http://pennineviewschool.co.uk/,Doncaster,DN12 3LR,Yorkshire and the Humber,no
137455,371,Doncaster,Pheasant Bank Academy,www.pheasantbankacademy.org.uk,Doncaster,DN11 0PQ,Yorkshire and the Humber,no
147576,371,Doncaster,Plover Primary School,www.plover.doncaster.sch.uk/,Doncaster,DN2 6JL,Yorkshire and the Humber,no
140585,371,Doncaster,Richmond Hill Primary Academy,www.richmond.doncaster.sch.uk,Doncaster,DN5 7SB,Yorkshire and the Humber,no
137603,371,Doncaster,Ridgewood School,http://www.ridgewoodschool.co.uk,Doncaster,DN5 7UB,Yorkshire and the Humber,no
144348,371,Doncaster,Rosedale Primary School,www.rosedale.doncaster.sch.uk,Doncaster,DN5 8RL,Yorkshire and the Humber,no
136675,371,Doncaster,Rossington All Saints Academy,http://www.theallsaints.net/,Not Yet Obtained,DN11 0BZ,Yorkshire and the Humber,no
144345,371,Doncaster,Rossington St Michael's CofE Primary School,rsmprimary.co.uk,Doncaster,DN11 0EZ,Yorkshire and the Humber,no
137629,371,Doncaster,Rowena Academy,www.rowenaacademy.org.uk,Doncaster,DN12 3JY,Yorkshire and the Humber,no
146463,371,Doncaster,Sandringham Primary School,http://www.sandringham.school,Doncaster,DN2 5LS,Yorkshire and the Humber,no
149581,371,Doncaster,Scawsby Junior Academy,https://www.scawsbyjunioracademy.co.uk,Doncaster,DN5 8NQ,Yorkshire and the Humber,no
106703,371,Doncaster,Scawsby Saltersgate Infant School,http://www.saltersgate-inf.doncaster.sch.uk,Doncaster,DN5 8NQ,Yorkshire and the Humber,no
148777,371,Doncaster,Scawthorpe Castle Hills Primary Academy,www.castlehillsacademy.com,Doncaster,DN5 9ED,Yorkshire and the Humber,no
106747,371,Doncaster,Scawthorpe Sunnyfields Primary School,https://www.sunnyfields.doncaster.sch.uk,Doncaster,DN5 9EW,Yorkshire and the Humber,no
147620,371,Doncaster,Sheep Dip Lane Academy,www.sheepdiplane.doncaster.sch.uk,Doncaster,DN7 4AU,Yorkshire and the Humber,no
144364,371,Doncaster,Sir Thomas Wharton Academy,https://www.stwcc.co.uk/,Doncaster,DN12 1HH,Yorkshire and the Humber,no
144410,371,Doncaster,Southfield Primary,southfield.doncaster.sch.uk,Doncaster,DN3 3BN,Yorkshire and the Humber,no
146998,371,Doncaster,Spa Academy Askern,spaacademyaskern.com,Doncaster,DN6 0AQ,Yorkshire and the Humber,no
106707,371,Doncaster,Sprotbrough Orchard Infant School,www.orchardinfants.wordpress.com/,Doncaster,DN5 7RN,Yorkshire and the Humber,no
148974,371,Doncaster,St Alban's Catholic Primary and Nursery School,https://www.st-albans.doncaster.sch.uk,Doncaster,DN12 4AQ,Yorkshire and the Humber,no
106762,371,Doncaster,St Francis Xavier Catholic Primary School,http://www.xavier.doncaster.sch.uk,Doncaster,DN4 0JN,Yorkshire and the Humber,no
106769,371,Doncaster,St Joseph and St Teresa's Catholic Primary School,http://www.sjst.co.uk,Doncaster,DN6 7QN,Yorkshire and the Humber,no
140340,371,Doncaster,"St Joseph's School, a Catholic Voluntary Academy",www.st-josephs.doncaster.sch.uk/,Doncaster,DN11 0NB,Yorkshire and the Humber,no
106773,371,Doncaster,"St Mary's Catholic Primary School, Edlington",https://www.st-marys-pri.doncaster.sch.uk/,Doncaster,DN12 1DL,Yorkshire and the Humber,no
138704,371,Doncaster,St Oswald's CofE Academy,www.stoswaldsacademy.co.uk,Doncaster,DN9 3EQ,Yorkshire and the Humber,no
149348,371,Doncaster,St Peter's Catholic Primary School,www.stpeterdoncaster.co.uk,Doncaster,DN4 5EP,Yorkshire and the Humber,no
141141,371,Doncaster,"St Wilfrid's Academy, Doncaster",www.stwilfridsacademy.org.uk,Doncaster,DN4 6AH,Yorkshire and the Humber,no
106718,371,Doncaster,Stainforth Kirton Lane Primary School,www.kirtonlane.doncaster.sch.uk/,Doncaster,DN7 5BG,Yorkshire and the Humber,no
136672,371,Doncaster,The Hayfield School,https://thehayfieldschool.co.uk,Doncaster,DN9 3HG,Yorkshire and the Humber,no
146639,371,Doncaster,The Laurel Academy,https://www.laurelacademy.org.uk/,Mexborough,S64 9SD,Yorkshire and the Humber,no
150367,371,Doncaster,The Mallard Academy,,Doncaster,DN4 9HU,Yorkshire and the Humber,no
140865,371,Doncaster,The McAuley Catholic High School,http://www.mcauley.org.uk/,Doncaster,DN3 3QF,Yorkshire and the Humber,no
106725,371,Doncaster,Tickhill Estfeld Primary School,https://www.estfeld.doncaster.sch.uk/,Doncaster,DN11 9JA,Yorkshire and the Humber,no
106777,371,Doncaster,Tickhill St Mary's Church of England Primary and Nursery School,https://www.tickhillstmarys.co.uk/,Doncaster,DN11 9LZ,Yorkshire and the Humber,no
151172,371,Doncaster,Tornedale Infant Academy,www.tornedaleacademy.com,Doncaster,DN11 0NQ,Yorkshire and the Humber,no
149582,371,Doncaster,Town Field Primary School,http://www.townfield.doncaster.sch.uk,Doncaster,DN1 2JS,Yorkshire and the Humber,no
144411,371,Doncaster,Tranmoor Primary,www.tranmoor.doncaster.sch.uk,Doncaster,DN3 3DB,Yorkshire and the Humber,no
149494,371,Doncaster,Travis St Lawrence Church of England Primary School,www.travis.doncaster.sch.uk/,Doncaster,DN7 6QE,Yorkshire and the Humber,no
135007,371,Doncaster,Trinity Academy,http://www.trinity-academy.org.uk/,Doncaster,DN8 5BY,Yorkshire and the Humber,no
106715,371,Doncaster,Wadworth Primary School,https://www.wadworthprimary.org.uk,Doncaster,DN11 9AP,Yorkshire and the Humber,no
106756,371,Doncaster,Warmsworth Primary School,https://www.warmsworth.doncaster.sch.uk/,Doncaster,DN4 9RG,Yorkshire and the Humber,no
145933,371,Doncaster,Waverley Academy,https://www.astreawaverley.org,Doncaster,DN4 0UB,Yorkshire and the Humber,no
147373,371,Doncaster,West Road Primary Academy,http://www.westroadprimary.co.uk,Doncaster,DN8 4LH,Yorkshire and the Humber,no
145935,371,Doncaster,Willow Primary School,https://www.willowprimaryschool.co.uk/,Doncaster,DN4 7EZ,Yorkshire and the Humber,no
106726,371,Doncaster,Windhill Primary School,https://www.windhillprimary.co.uk,Mexborough,S64 0PQ,Yorkshire and the Humber,no
143451,371,Doncaster,Woodfield Primary School,www.woodfieldprimaryschool.co.uk,Doncaster,DN4 8LA,Yorkshire and the Humber,no
143916,371,Doncaster,XP East,,Doncaster,DN4 5NG,Yorkshire and the Humber,no
140964,371,Doncaster,XP School,www.xpschool.org,Doncaster,DN4 5NG,Yorkshire and the Humber,no
106676,371,Doncaster,Arksey Primary School,https://www.arkseyprimary.co.uk,Doncaster,DN5 0TE,Yorkshire and the Humber,yes
135942,371,Doncaster,De Warenne Academy,http://www.dewarenne.org.uk/,Doncaster,DN12 3JY,Yorkshire and the Humber,yes
133637,371,Doncaster,Long Toft Primary School,www.longtoft-doncaster.co.uk,Doncaster,DN7 5AB,Yorkshire and the Humber,yes
135547,371,Doncaster,Stone Hill School,www.stonehillschool.org,Doncaster,DN5 7UB,Yorkshire and the Humber,yes
106666,371,Doncaster,The Levett School,https://www.levett.doncaster.sch.uk,Doncaster,DN5 7SB,Yorkshire and the Humber,yes
106750,371,Doncaster,Thorne King Edward Primary School,https://www.kingedward.doncaster.sch.uk/,Doncaster,DN8 4BY,Yorkshire and the Humber,yes
106677,371,Doncaster,Toll Bar Primary School,https://www.tollbar.doncaster.sch.uk,Doncaster,DN5 0QR,Yorkshire and the Humber,yes
