urn,district_code,district_name,school_name,website,town,postcode,region,has_email_collected
142768,372,Rotherham,Abbey School,www.abbeyschool.org,Rotherham,S61 2RA,Yorkshire and the Humber,no
144325,372,Rotherham,Anston Brook Primary School,www.anstonbrook.co.uk/,Sheffield,S25 4DN,Yorkshire and the Humber,no
141537,372,Rotherham,Anston Greenlands Primary School,www.anstongreenlands.org,Sheffield,S25 4HD,Yorkshire and the Humber,no
146467,372,Rotherham,Anston Hillcrest Primary School,www.anstonhillcrestprimary.co.uk/,Sheffield,S25 5GR,Yorkshire and the Humber,no
145095,372,Rotherham,Anston Park Infant School,www.anstonparkinfant.co.uk,Sheffield,S25 2QZ,Yorkshire and the Humber,no
150959,372,Rotherham,Anston Park Junior School,,Sheffield,S25 2QZ,Yorkshire and the Humber,no
106826,372,Rotherham,Arnold Nursery School and Children's Centre,https://www.thearnoldcentre.co.uk,Rotherham,S65 2LY,Yorkshire and the Humber,no
136718,372,Rotherham,Aston Academy,http://www.astonacademy.org,Sheffield,S26 4SF,Yorkshire and the Humber,no
141590,372,Rotherham,Aston All Saints CofE (A) Primary School,www.astoncofe.co.uk/,Sheffield,S26 2BL,Yorkshire and the Humber,no
106859,372,Rotherham,Aston Fence Junior and Infant School,https://www.astonfence.co.uk,Sheffield,S13 9ZD,Yorkshire and the Humber,no
143054,372,Rotherham,Aston Hall Junior and Infant School,http://www.astonhallschool.co.uk/,Sheffield,S26 2AX,Yorkshire and the Humber,no
143055,372,Rotherham,Aston Lodge Primary School,www.astonlodgeprimary.org,Sheffield,S26 2BL,Yorkshire and the Humber,no
106828,372,Rotherham,Aughton Early Years Centre,https://www.aughtoneyc.rotherham.sch.uk,Sheffield,S26 3XH,Yorkshire and the Humber,no
143482,372,Rotherham,Aughton Junior Academy,www.aughtonacademy.org,Sheffield,S26 3XQ,Yorkshire and the Humber,no
106833,372,Rotherham,Badsley Primary School,https://www.badsleyprimary.org,Rotherham,S65 2QS,Yorkshire and the Humber,no
106834,372,Rotherham,Blackburn Primary School,https://www.blackburnprimaryschool.org.uk/,Rotherham,S61 2BU,Yorkshire and the Humber,no
141488,372,Rotherham,Bramley Grange Primary School,www.bramleygrangeprimaryschool.org.uk,Rotherham,S66 2SY,Yorkshire and the Humber,no
106895,372,Rotherham,Bramley Sunnyside Infant School,https://www.bramleysunnysideinfant.co.uk/,Rotherham,S66 3QW,Yorkshire and the Humber,no
150215,372,Rotherham,Bramley Sunnyside Junior School,www.bsjs.co.uk/,ROTHERHAM,S66 3QW,Yorkshire and the Humber,no
144324,372,Rotherham,Brampton Cortonwood Infant School,www.bramptoncortonwoodinfants.co.uk,Barnsley,S73 0XH,Yorkshire and the Humber,no
144197,372,Rotherham,Brampton Ellis CofE Primary School,www.bramptonellis.co.uk,Rotherham,S63 6AN,Yorkshire and the Humber,no
136301,372,Rotherham,Brinsworth Academy,http://www.brinsworthacademy.org.uk/,Rotherham,S60 5EJ,Yorkshire and the Humber,no
147374,372,Rotherham,Brinsworth Howarth Primary School,www.brinsworthhowarth.co.uk,Rotherham,S60 5JR,Yorkshire and the Humber,no
106864,372,Rotherham,Brinsworth Manor Infant School,https://www.brinsworthmanorinfants.co.uk,ROTHERHAM,S60 5BX,Yorkshire and the Humber,no
143320,372,Rotherham,Brinsworth Manor Junior School,www.bmaj.rotherham.sch.uk/,Rotherham,S60 5BX,Yorkshire and the Humber,no
143057,372,Rotherham,Brinsworth Whitehill Primary School,www.brinsworthwhitehill.org,Rotherham,S60 5HT,Yorkshire and the Humber,no
145928,372,Rotherham,Brookfield Junior Academy,https://www.brookfieldjunioracademy.org/,Mexborough,S64 8TQ,Yorkshire and the Humber,no
106835,372,Rotherham,Broom Valley Community School,https://www.broomvalleycommunityschool.co.uk,Rotherham,S60 2QU,Yorkshire and the Humber,no
140109,372,Rotherham,Canklow Woods Primary School,www.canklowwoods.rotherham.sch.uk,Rotherham,S60 2XJ,Yorkshire and the Humber,no
142978,372,Rotherham,Catcliffe Primary School,https://www.learnerstrust.org/cps,Rotherham,S60 5SW,Yorkshire and the Humber,no
143545,372,Rotherham,Clifton Community School,,Rotherham,S65 2SN,Yorkshire and the Humber,no
139223,372,Rotherham,Coleridge Primary,www.coleridgeprimary.org,Rotherham,S65 1LW,Yorkshire and the Humber,no
143481,372,Rotherham,Crags Community School,www.crags-community-school.org.uk/,Rotherham,S66 7QJ,Yorkshire and the Humber,no
150938,372,Rotherham,Dinnington High School,www.dinningtonhigh.co.uk/,Sheffield,S25 2NZ,Yorkshire and the Humber,no
139225,372,Rotherham,East Dene Primary,www.eastdene.org/,Rotherham,S65 2DF,Yorkshire and the Humber,no
140378,372,Rotherham,Eastwood Village Primary School,www.eastwoodvillageprimary.org,Rotherham,S65 1RD,Yorkshire and the Humber,no
149188,372,Rotherham,Elements Academy,www.elementsacademy.uk.com,Sheffield,S25 2NF,Yorkshire and the Humber,no
148013,372,Rotherham,Ferham Primary School,www.ferhamprimary.org.uk/,Rotherham,S61 1AP,Yorkshire and the Humber,no
141589,372,Rotherham,Flanderwell Primary School,www.flanderwell.co.uk,Rotherham,S66 2JF,Yorkshire and the Humber,no
149198,372,Rotherham,Foljambe Primary School,,Rotherham,S65 4HQ,Yorkshire and the Humber,no
141901,372,Rotherham,Greasbrough Primary School,,Rotherham,S61 4RB,Yorkshire and the Humber,no
146492,372,Rotherham,Harthill Primary School,www.harthillprimary.co.uk/,Sheffield,S26 7YH,Yorkshire and the Humber,no
106851,372,Rotherham,Herringthorpe Infant School,http://www.herringthorpeinfantschool.co.uk,Rotherham,S65 2JW,Yorkshire and the Humber,no
141788,372,Rotherham,Herringthorpe Junior School,www.herringthorpejuniors.com/,Rotherham,S65 2JW,Yorkshire and the Humber,no
142977,372,Rotherham,High Greave Infant School,www.learnerstrust.org/HGI,Rotherham,S65 3LZ,Yorkshire and the Humber,no
142976,372,Rotherham,High Greave Junior School,www.learnerstrust.org/hgs,Rotherham,S65 3LZ,Yorkshire and the Humber,no
149118,372,Rotherham,Highfield Farm Primary School,https://www.highfieldfarmprimary.co.uk,Rotherham,S63 6NF,Yorkshire and the Humber,no
142795,372,Rotherham,Hilltop School,https://www.maltbyhilltop.org/,Rotherham,S66 8AZ,Yorkshire and the Humber,no
142797,372,Rotherham,Kelford School,www.kelfordschool.com,Rotherham,S61 2NU,Yorkshire and the Humber,no
143894,372,Rotherham,Kilnhurst Primary School,http://www.kilnhurstprimary.org,Mexborough,S64 5TA,Yorkshire and the Humber,no
145273,372,Rotherham,Kilnhurst St Thomas' CofE Primary Academy,http://www.stthomas-kilnhurst.co.uk/,Mexborough,S64 5UA,Yorkshire and the Humber,no
106845,372,Rotherham,Kimberworth Community Primary School,https://www.kimberworthprimary.org.uk/,Rotherham,S61 1HE,Yorkshire and the Humber,no
146470,372,Rotherham,Kiveton Park Infant School,www.kivetonparkinfants.co.uk,Sheffield,S26 6QP,Yorkshire and the Humber,no
146582,372,Rotherham,Kiveton Park Meadows Junior School,http://www.kivetonparkmeadowsjuniors.co.uk,Sheffield,S26 5QT,Yorkshire and the Humber,no
146068,372,Rotherham,Laughton All Saints' CofE Primary School,https://laughtonallsaints.org/,Sheffield,S25 1YF,Yorkshire and the Humber,no
146411,372,Rotherham,Laughton Junior and Infant School,www.laughtonjandi.co.uk,Sheffield,S25 1YP,Yorkshire and the Humber,no
141539,372,Rotherham,Listerdale Junior Academy,http://www.listerdaleacademy.org,Rotherham,S65 3HN,Yorkshire and the Humber,no
136042,372,Rotherham,Maltby Academy,www.maltbyacademy.com,Rotherham,S66 8AB,Yorkshire and the Humber,no
141729,372,Rotherham,Maltby Lilly Hall Academy,www.maltbylillyhallacademy.com,Rotherham,S66 8AU,Yorkshire and the Humber,no
141366,372,Rotherham,Maltby Manor Academy,www.maltbymanoracademy.com,Rotherham,S66 8JN,Yorkshire and the Humber,no
140583,372,Rotherham,Maltby Redwood Academy,www.maltbyredwood.com,Rotherham,S66 8DL,Yorkshire and the Humber,no
147920,372,Rotherham,Meadow View Primary School,www.meadowviewprimary.co.uk,Rotherham,S61 2JD,Yorkshire and the Humber,no
150133,372,Rotherham,Milton School,www.miltonschool.org.uk,Mexborough,S64 8QG,Yorkshire and the Humber,no
145017,372,Rotherham,Monkwood Primary School,www.monkwoodprimary.org,Rotherham,S62 7JD,Yorkshire and the Humber,no
151166,372,Rotherham,Newman School,https://www.newman.teameducation.org,Rotherham,S60 3LX,Yorkshire and the Humber,no
140459,372,Rotherham,Oakwood High School,http://www.oakwood.ac,Rotherham,S60 2UH,Yorkshire and the Humber,no
106942,372,Rotherham,Our Lady and St Joseph's Catholic Primary School,https://www.ourlady-stjosephs.rotherham.sch.uk/,Rotherham,S63 7HG,Yorkshire and the Humber,no
141731,372,Rotherham,Ravenfield Primary Academy,www.ravenfieldprimaryacademy.com,Rotherham,S65 4LZ,Yorkshire and the Humber,no
140799,372,Rotherham,Rawmarsh Ashwood Primary School,http://www.ashwoodprimary.org,Rotherham,S62 6HT,Yorkshire and the Humber,no
140553,372,Rotherham,Rawmarsh Community School,http://www.rawmarsh.org/,Rotherham,S62 7GA,Yorkshire and the Humber,no
106827,372,Rotherham,Rawmarsh Nursery School and Childrens Centre,https://www.rawmarshchildrenscentre.co.uk,Rotherham,S62 6AD,Yorkshire and the Humber,no
106875,372,Rotherham,Rawmarsh Rosehill Junior School,http://www.rjsch.uk,Rotherham,S62 5QH,Yorkshire and the Humber,no
106876,372,Rotherham,Rawmarsh Ryecroft Infant School,http://www.rawmarshryecroftinfantschool.co.uk,Rotherham,S62 5QW,Yorkshire and the Humber,no
144490,372,Rotherham,Rawmarsh Sandhill Primary School,www.rawmarshsandhill.org,Rotherham,S62 5LH,Yorkshire and the Humber,no
106910,372,Rotherham,Rawmarsh Thorogate Junior and Infant School,https://www.thorogateschool.co.uk,Rotherham,S62 7HS,Yorkshire and the Humber,no
147738,372,Rotherham,Redscope Primary School,www.redscopeprimaryschool.co.uk,Rotherham,S61 3JT,Yorkshire and the Humber,no
145740,372,Rotherham,Rockingham Junior and Infant School,www.rockinghamji.co.uk,Rotherham,S61 4HY,Yorkshire and the Humber,no
137823,372,Rotherham,Rotherham Aspire,rotherhamaspire.org,Rotherham,S62 5AF,Yorkshire and the Humber,no
144195,372,Rotherham,Roughwood Primary School,www.roughwoodprimary.org,Rotherham,S61 3HL,Yorkshire and the Humber,no
106962,372,Rotherham,Saint Pius X Catholic High School A Specialist School in Humanities,http://www.saintpiusx.school/,Rotherham,S63 7PQ,Yorkshire and the Humber,no
106858,372,Rotherham,Sitwell Infant School,https://www.sitwellinfantschool.co.uk,Rotherham,S60 3LA,Yorkshire and the Humber,no
141060,372,Rotherham,Sitwell Junior School,www.sitwelljunior.uk,Rotherham,S60 3LA,Yorkshire and the Humber,no
142139,372,Rotherham,Springwood Junior Academy,www.springwoodacademy.org,Sheffield,S26 2AL,Yorkshire and the Humber,no
141455,372,Rotherham,St Alban's CofE (Aided) Primary School,http://www.wsap.academy,Rotherham,S66 1EU,Yorkshire and the Humber,no
147938,372,Rotherham,St Ann's Primary School,https://www.stannsrotherham.co.uk/,Rotherham,S65 1PD,Yorkshire and the Humber,no
139876,372,Rotherham,St Bede's Catholic Primary School,www.stbedescatholicprimary.co.uk,Rotherham,S61 1PD,Yorkshire and the Humber,no
138329,372,Rotherham,St Bernard's Catholic High School,www.sbch.org.uk,Rotherham,S65 3BE,Yorkshire and the Humber,no
139877,372,Rotherham,St Gerard's Catholic Primary School,www.stgerardsprimary.org/,Rotherham,S65 4AE,Yorkshire and the Humber,no
106944,372,Rotherham,St Joseph's Catholic Primary School,http://www.rsjp.org.uk,Rotherham,S62 6JY,Yorkshire and the Humber,no
140590,372,Rotherham,St Joseph's Catholic Primary School,www.stjosephs-dinnington.co.uk,Sheffield,S25 2QD,Yorkshire and the Humber,no
139880,372,Rotherham,St Mary's Catholic Primary School,www.stmarysherringthorpe.co.uk/,Rotherham,S65 2NU,Yorkshire and the Humber,no
139881,372,Rotherham,St Mary's Catholic Primary School (Maltby),www.stmarysmaltby.co.uk/,Rotherham,S66 7JU,Yorkshire and the Humber,no
149610,372,Rotherham,Swallownest Primary School,www.swallownestprimary.org,Sheffield,S26 4UR,Yorkshire and the Humber,no
143141,372,Rotherham,Swinton Academy,www.swintonacademy.org,Mexborough,S64 8JW,Yorkshire and the Humber,no
143652,372,Rotherham,Swinton Fitzwilliam Primary School,https://www.swinton-fitzwilliam.org/,Mexborough,S64 8HF,Yorkshire and the Humber,no
143321,372,Rotherham,Swinton Queen Primary School,http://www.swintonqueenprimary.org.uk,Mexborough,S64 8NE,Yorkshire and the Humber,no
149642,372,Rotherham,The Willows School,www.thewillowsschool.co.uk,Rotherham,S66 9NT,Yorkshire and the Humber,no
145230,372,Rotherham,Thomas Rotherham College,www.trc.ac.uk,Rotherham,S60 2BE,Yorkshire and the Humber,no
106849,372,Rotherham,Thornhill Primary School,https://www.thornhillprimary.org.uk/,Rotherham,S61 1TD,Yorkshire and the Humber,no
147739,372,Rotherham,Thorpe Hesley Primary School,www.thorpehesleyprimary.rotherham.sch.uk/,Rotherham,S61 2PL,Yorkshire and the Humber,no
148547,372,Rotherham,Thrybergh Academy,www.thrybergh.com,Rotherham,S65 4BP,Yorkshire and the Humber,no
141588,372,Rotherham,Thrybergh Fullerton Church of England Primary Academy,http://www.thryberghfullerton.co.uk,Rotherham,S65 4BL,Yorkshire and the Humber,no
140993,372,Rotherham,Thrybergh Primary School,www.thryberghprimary.org,Rotherham,S65 4JG,Yorkshire and the Humber,no
146866,372,Rotherham,Thurcroft Infant School,www.thurcroftinfants.co.uk/,ROTHERHAM,S66 9NT,Yorkshire and the Humber,no
138357,372,Rotherham,Thurcroft Junior Academy,www.thurcroftacademy.org/,Rotherham,S66 9DD,Yorkshire and the Humber,no
106907,372,Rotherham,Todwick Primary School,https://www.todwickps.org,Sheffield,S26 1HJ,Yorkshire and the Humber,no
144557,372,Rotherham,Treeton Church of England Primary School,www.treetoncofe.co.uk/,Rotherham,S60 5QS,Yorkshire and the Humber,no
141587,372,Rotherham,Trinity Croft CofE Primary Academy,http://www.trinitycroft.co.uk,Rotherham,S65 3QJ,Yorkshire and the Humber,no
136331,372,Rotherham,Wales High School,http://www.waleshigh.com/,Sheffield,S26 5QQ,Yorkshire and the Humber,no
106883,372,Rotherham,Wales Primary School,https://www.walesprimary.co.uk,Sheffield,S26 5QG,Yorkshire and the Humber,no
145848,372,Rotherham,Wath Academy,www.wathacademy.com,Rotherham,S63 7NW,Yorkshire and the Humber,no
143544,372,Rotherham,Wath Central Primary School,www.wathcentral.co.uk,Rotherham,S63 7HG,Yorkshire and the Humber,no
143480,372,Rotherham,Wath Church of England Primary School,http://www.wathcofe.co.uk,Rotherham,S63 6PY,Yorkshire and the Humber,no
140170,372,Rotherham,Wath Victoria Primary School,www.wathvictoriaprimary.co.uk,Rotherham,S63 7AD,Yorkshire and the Humber,no
147871,372,Rotherham,Waverley Junior Academy,www.waverleyjunioracademy.org,Rotherham,S60 8DD,Yorkshire and the Humber,no
144198,372,Rotherham,Wentworth CofE Junior and Infant School,www.wentworthcofe.co.uk,Rotherham,S62 7TX,Yorkshire and the Humber,no
140115,372,Rotherham,Whiston Junior and Infant School,www.whistonjunior-infant.co.uk/,Rotherham,S60 4DX,Yorkshire and the Humber,no
140116,372,Rotherham,Whiston Worrygoose Junior and Infant School,www.whistonworrygoose.com,Rotherham,S60 4AG,Yorkshire and the Humber,no
141337,372,Rotherham,Wickersley Northfield Primary School,www.wickersleynorthfieldprimary.co.uk,Rotherham,S66 2HL,Yorkshire and the Humber,no
140646,372,Rotherham,Wickersley School and Sports College,www.wickersley.net,Rotherham,S66 1JL,Yorkshire and the Humber,no
139992,372,Rotherham,Wingfield Academy,http://www.wingfield.rotherham.sch.uk/,Rotherham,S61 4AU,Yorkshire and the Humber,no
141853,372,Rotherham,Winterhill School,www.winterhill.org.uk,Rotherham,S61 2BD,Yorkshire and the Humber,no
144323,372,Rotherham,Woodsetts Primary School,www.woodsettsprimary.co.uk/,Worksop,S81 8SB,Yorkshire and the Humber,no
141771,372,Rotherham,Dinnington Community Primary School,http://www.dcpschool.co.uk/,Sheffield,S25 2RE,Yorkshire and the Humber,yes
