urn,district_code,district_name,school_name,website,town,postcode,region,has_email_collected
107188,380,Bradford,Abbey Green Nursery School,www.abbeygreen.org,Bradford,BD8 8HT,Yorkshire and the Humber,no
149120,380,Bradford,All Saints CofE Primary School,www.allsaints.bradford.sch.uk,Bradford,BD5 0NG,Yorkshire and the Humber,no
145173,380,Bradford,Appleton Academy,www.appletonacademy.co.uk,Bradford,BD12 8AL,Yorkshire and the Humber,no
149937,380,Bradford,Ashlands Primary School,www.ashlandsprimary.org.uk,Ilkley,LS29 8JY,Yorkshire and the Humber,no
143565,380,Bradford,Atlas Community Primary School,http://www.atlasprimary.co.uk/,Bradford,BD8 8DL,Yorkshire and the Humber,no
149161,380,Bradford,Baildon Church of England Primary School,www.baildonce.co.uk,Shipley,BD17 6TE,Yorkshire and the Humber,no
149093,380,Bradford,Baildon Glen Primary School,https://www.baildonglenacademy.co.uk/,Shipley,BD17 7LY,Yorkshire and the Humber,no
107248,380,Bradford,Bankfoot Primary School,https://www.bankfootprimary.co.uk/,Bradford,BD5 9NR,Yorkshire and the Humber,no
142836,380,Bradford,Barkerend Primary Leadership Academy,https://www.barkerendprimary.com/,Bradford,BD3 0QT,Yorkshire and the Humber,no
143092,380,Bradford,Beckfoot Allerton Primary School and Nursery,www.beckfootallerton.org,Bradford,BD15 7HB,Yorkshire and the Humber,no
143094,380,Bradford,Beckfoot Heaton Primary,www.beckfootheaton.org,Bradford,BD9 6LL,Yorkshire and the Humber,no
146281,380,Bradford,Beckfoot Nessfield,,Keighley,BD22 6NP,Yorkshire and the Humber,no
143112,380,Bradford,Beckfoot Oakbank,www.oakbank.org.uk,Keighley,BD22 7DU,Yorkshire and the Humber,no
144891,380,Bradford,Beckfoot Phoenix,https://www.beckfootphoenix.org/,Keighley,BD22 6HZ,Yorkshire and the Humber,no
144890,380,Bradford,Beckfoot Priestthorpe Primary School & Nursery,https://www.beckfootpriestthorpe.org,Bingley,BD16 4JS,Yorkshire and the Humber,no
139975,380,Bradford,Beckfoot School,www.beckfoot.org,Bingley,BD16 1EE,Yorkshire and the Humber,no
143114,380,Bradford,Beckfoot Thornton,www.beckfootthornton.org,Bradford,BD13 3BH,Yorkshire and the Humber,no
142031,380,Bradford,Beckfoot Upper Heaton,http://www.beckfootupperheaton.org/,Bradford,BD9 6AL,Yorkshire and the Humber,no
150011,380,Bradford,Beechcliffe Special School,http://www.beechcliffeschool.org/,Keighley,BD20 6ED,Yorkshire and the Humber,no
138087,380,Bradford,Belle Vue Girls' Academy,https://bvgacademy.co.uk/,Bradford,BD9 6NA,Yorkshire and the Humber,no
107224,380,Bradford,Blakehill Primary School,https://www.blakehillprimary.co.uk/,Bradford,BD10 8QN,Yorkshire and the Humber,no
149232,380,Bradford,Bowling Park Primary School,https://www.bowlingpark.school/,Bradford,BD5 8BT,Yorkshire and the Humber,no
107250,380,Bradford,Brackenhill Primary School,https://www.brackenhill.bradford.sch.uk/,Bradford,BD7 4HA,Yorkshire and the Humber,no
135367,380,Bradford,Bradford Academy,www.bradfordacademy.co.uk,Bradford,BD4 7QJ,Yorkshire and the Humber,no
146851,380,Bradford,Bradford Alternative Provision Academy,www.bradfordapacademy.co.uk,Shipley,BD18 3JE,Yorkshire and the Humber,no
140429,380,Bradford,Bradford Forster Academy,http://www.bradfordforsteracademy.co.uk/,Bradford,BD4 8RG,Yorkshire and the Humber,no
140204,380,Bradford,Bradford Girls' Grammar School,www.bggs.com,Bradford,BD9 6RB,Yorkshire and the Humber,no
147067,380,Bradford,Bronte Girls' Academy,bga.iexel.org.uk/,Bradford,BD4 7EB,Yorkshire and the Humber,no
150002,380,Bradford,Burley Oaks Primary School,http://www.burleyoaks.co.uk,Ilkley,LS29 7EJ,Yorkshire and the Humber,no
142825,380,Bradford,Buttershaw Business & Enterprise College Academy,www.buttershaw.net,Bradford,BD6 3PX,Yorkshire and the Humber,no
144050,380,Bradford,Byron Primary School,https://www.byronprimary.org.uk,Bradford,BD3 0AB,Yorkshire and the Humber,no
132815,380,Bradford,Canterbury Nursery School and Centre for Children and Families,www.canterburynurseryschool.co.uk,Bradford,BD5 9HL,Yorkshire and the Humber,no
147100,380,Bradford,Carlton Bolling,http://www.carltonbolling.co.uk,Bradford,BD3 0DU,Yorkshire and the Humber,no
136198,380,Bradford,Carlton Keighley,https://carltonkeighley.org.uk/,Keighley,BD20 6EB,Yorkshire and the Humber,no
147939,380,Bradford,Carlton Mills,https://carltonmillsprimary.org/,Bradford,BD9 5AT,Yorkshire and the Humber,no
149732,380,Bradford,Carrwood Primary School,www.carrwoodprimaryschool.co.uk,Bradford,BD4 0EQ,Yorkshire and the Humber,no
149583,380,Bradford,Cavendish Primary School,www.cavendishprimaryacademy.co.uk,Bradford,BD2 2DU,Yorkshire and the Humber,no
139201,380,Bradford,Christ Church Church of England Academy,www.christchurchacademy.org.uk,Shipley,BD18 2NT,Yorkshire and the Humber,no
145180,380,Bradford,Clayton St John CofE Primary School,www.claytonce.co.uk,Bradford,BD14 6DD,Yorkshire and the Humber,no
148869,380,Bradford,Clayton Village Primary School,www.claytonvillageprimary.org.uk/,Bradford,BD14 6AD,Yorkshire and the Humber,no
147117,380,Bradford,Co-op Academy Delius,delius.coopacademies.co.uk,Bradford,BD3 8QX,Yorkshire and the Humber,no
147177,380,Bradford,Co-op Academy Grange,https://grange.coopacademies.co.uk/,Bradford,BD5 9ET,Yorkshire and the Humber,no
145752,380,Bradford,Co-op Academy Parkland,https://parkland.coopacademies.co.uk/,Bradford,BD10 9BG,Yorkshire and the Humber,no
149643,380,Bradford,Co-op Academy Penny Oaks,https://www.pennyoaks.coopacademies.co.uk/,Bradford,BD3 9ND,Yorkshire and the Humber,no
147709,380,Bradford,Co-op Academy Princeville,https://princeville.coopacademies.co.uk,Bradford,BD7 2AH,Yorkshire and the Humber,no
139978,380,Bradford,Co-op Academy Southfield,https://southfield.coopacademies.co.uk,Bradford,BD5 9ET,Yorkshire and the Humber,no
143096,380,Bradford,Copthorne Primary School,https://copthorneacademy.co.uk,Bradford,BD7 3AY,Yorkshire and the Humber,no
148159,380,Bradford,Cottingley Village Primary School,www.cottingleyvillageprimary.org.uk,Bingley,BD16 1SY,Yorkshire and the Humber,no
107253,380,Bradford,Crossflatts Primary School,https://www.crossflatts.bradford.sch.uk/web,Bingley,BD16 2EP,Yorkshire and the Humber,no
146581,380,Bradford,Crossley Hall Primary School,www.crossleyhallprimary.co.uk,Bradford,BD8 0HJ,Yorkshire and the Humber,no
146049,380,Bradford,Cullingworth Village Primary School,www.cullingworth.bradford.sch.uk,Bradford,BD13 5DA,Yorkshire and the Humber,no
143567,380,Bradford,Denholme Primary School,www.denholme.bradford.sch.uk/,Bradford,BD13 4AY,Yorkshire and the Humber,no
146198,380,Bradford,Dixons Cottingley Academy,www.dixonsco.com,Bingley,BD16 1TZ,Yorkshire and the Humber,no
137277,380,Bradford,Dixons Kings Academy,http://www.dixonska.com/,Bradford,BD7 2AN,Yorkshire and the Humber,no
141375,380,Bradford,Dixons Manningham Academy,www.dixonsmn.com/,Bradford,BD8 8HY,Yorkshire and the Humber,no
140358,380,Bradford,Dixons Marchbank Primary,www.dixonsmb.com,Bradford,BD3 8QQ,Yorkshire and the Humber,no
141002,380,Bradford,Dixons McMillan Academy,http://www.dixonsma.com/,Bradford,BD5 0JD,Yorkshire and the Humber,no
138252,380,Bradford,Dixons Music Primary,www.dixonsmp.com,Bradford,BD5 0BE,Yorkshire and the Humber,no
143704,380,Bradford,"Dixons Sixth Form, Bradford",https://www.dixons6a.com/,Bradford,BD5 7JR,Yorkshire and the Humber,no
138251,380,Bradford,Dixons Trinity Academy,http://www.dixonsta.com,Bradford,BD5 0BE,Yorkshire and the Humber,no
145072,380,Bradford,East Morton CofE Primary School,www.eastmortonceprimary.co.uk/,Keighley,BD20 5SE,Yorkshire and the Humber,no
150563,380,Bradford,Eastburn Primary School,www.eastburn.bradford.sch.uk,Keighley,BD20 8UX,Yorkshire and the Humber,no
146223,380,Bradford,Eastwood Community School,www.eastwoodcommunityschool.org.uk,Keighley,BD21 3JL,Yorkshire and the Humber,no
147204,380,Bradford,"Eden Boys' Leadership Academy, Bradford",www.edenboysbradford.com,Bradford,BD8 9AR,Yorkshire and the Humber,no
107255,380,Bradford,Eldwick Primary School,https://www.eldwick.bradford.sch.uk,Bingley,BD16 3LE,Yorkshire and the Humber,no
107249,380,Bradford,Fagley Primary School,https://www.fagley.bradford.sch.uk,Bradford,BD2 3PU,Yorkshire and the Humber,no
107238,380,Bradford,Farfield Primary and Nursery School,https://www.farfieldprimary.co.uk,Bradford,BD6 2BS,Yorkshire and the Humber,no
144862,380,Bradford,Farnham Primary School,http://www.farnhamprimary.org.uk,Bradford,BD7 3HU,Yorkshire and the Humber,no
136962,380,Bradford,Feversham Girls' Secondary Academy,https://www.fga.iexel.org.uk/,Bradford,BD3 0LT,Yorkshire and the Humber,no
138867,380,Bradford,Feversham Primary Academy,http://www.fevershamprimaryacademy.org/,Bradford,BD3 9EG,Yorkshire and the Humber,no
107204,380,Bradford,Frizinghall Primary School,https://www.frizinghall.bradford.sch.uk/,Bradford,BD9 4HP,Yorkshire and the Humber,no
143573,380,Bradford,Green Lane Primary School,www.greenlane.bradford.sch.uk/,Bradford,BD8 8HT,Yorkshire and the Humber,no
146593,380,Bradford,Greengates Primary Academy,www.ggpa.org.uk,Bradford,BD10 9AX,Yorkshire and the Humber,no
148201,380,Bradford,Grove House Primary School,https://grovehouseprimary.co.uk,Bradford,BD2 4ED,Yorkshire and the Humber,no
149011,380,Bradford,Hanson Academy,,Bradford,BD2 1JP,Yorkshire and the Humber,no
140076,380,Bradford,Harden Primary School,www.hardenprimaryacademy.co.uk/,Bingley,BD16 1LJ,Yorkshire and the Humber,no
142949,380,Bradford,Haworth Primary School,http://haworthprimary.co.uk,Keighley,BD22 8DW,Yorkshire and the Humber,no
139977,380,Bradford,Hazelbeck Special School,www.hazelbeck.org,Bingley,BD16 1EE,Yorkshire and the Humber,no
107321,380,Bradford,Heaton St Barnabas' CofE Aided Primary School,www.hstb.co.uk,Bradford,BD9 4DA,Yorkshire and the Humber,no
142582,380,Bradford,High Crags Primary Leadership Academy,www.highcragsprimary.com,Shipley,BD18 2ES,Yorkshire and the Humber,no
143533,380,Bradford,High Park School,www.highpark.org.uk,Bradford,BD9 6RY,Yorkshire and the Humber,no
144860,380,Bradford,Hollingwood Primary School,www.hollingwood.org,Bradford,BD7 4BE,Yorkshire and the Humber,no
145303,380,Bradford,Holybrook Primary School,,Bradford,BD10 0EF,Yorkshire and the Humber,no
143982,380,Bradford,Holycroft Primary School,http://www.holycroftprimary.org.uk,Keighley,BD21 1JF,Yorkshire and the Humber,no
131357,380,Bradford,Home Farm Primary School,www.homefarm.bradford.sch.uk/,Bradford,BD6 3NR,Yorkshire and the Humber,no
143093,380,Bradford,Horton Grange Primary School,www.hortongrangeacademy.co.uk,Bradford,BD7 2EU,Yorkshire and the Humber,no
143095,380,Bradford,Horton Park Primary School,www.hortonparkprimary.co.uk,Bradford,BD5 9LQ,Yorkshire and the Humber,no
136905,380,Bradford,Ilkley Grammar School,http://www.ilkleygrammarschool.com,Ilkley,LS29 8TR,Yorkshire and the Humber,no
142590,380,Bradford,Immanuel College,https://www.immanuelcollege.org/,Bradford,BD10 9AQ,Yorkshire and the Humber,no
140111,380,Bradford,Iqra Primary Academy,https://ia.iexel.org.uk/,Bradford,BD8 8DA,Yorkshire and the Humber,no
107339,380,Bradford,Keighley St Andrew's CofE Primary School and Nursery,www.keighleystandrews.co.uk,Keighley,BD21 2ND,Yorkshire and the Humber,no
149586,380,Bradford,Knowleswood Primary School,www.knowleswood.co.uk,Bradford,BD4 9AE,Yorkshire and the Humber,no
150969,380,Bradford,Lady Royd Primary School,www.ladyroydprimary.com,Bradford,BD9 6RB,Yorkshire and the Humber,no
142681,380,Bradford,Laisterdyke Leadership Academy,www.laisterdykeleadershipacademy.com,Bradford,BD3 8HE,Yorkshire and the Humber,no
143564,380,Bradford,Lapage Primary School and Nursery,www.lapageprimaryschool.co.uk/,Bradford,BD3 8QX,Yorkshire and the Humber,no
144861,380,Bradford,Laycock Primary School,www.laycockprimary.co.uk/,Keighley,BD22 0PP,Yorkshire and the Humber,no
142950,380,Bradford,Lees Primary School,http://www.lees.bradford.sch.uk,Keighley,BD22 9DL,Yorkshire and the Humber,no
107241,380,Bradford,Ley Top Primary School,https://www.leytopprimary.co.uk,Bradford,BD15 7PQ,Yorkshire and the Humber,no
150016,380,Bradford,Lidget Green Primary School,www.lidgetgreen.net,Bradford,BD7 2QN,Yorkshire and the Humber,no
107187,380,Bradford,Lilycroft Nursery School,https://www.lilycroftnurseryschool.com,Bradford,BD9 5AD,Yorkshire and the Humber,no
143572,380,Bradford,Lilycroft Primary School,http://www.lilycroftprimaryschool.co.uk/,Bradford,BD9 5AD,Yorkshire and the Humber,no
107265,380,Bradford,Long Lee Primary School,https://www.longleeprimary.org.uk/,Keighley,BD21 4RU,Yorkshire and the Humber,no
146584,380,Bradford,Lower Fields Primary Academy,www.lfpa.org.uk,Bradford,BD4 8RG,Yorkshire and the Humber,no
143568,380,Bradford,Margaret McMillan Primary School,www.mmps.bradford.sch.uk,Bradford,BD9 5DF,Yorkshire and the Humber,no
148268,380,Bradford,Marshfield Primary,www.marshfield-primary.co.uk/,Bradford,BD5 9DS,Yorkshire and the Humber,no
150872,380,Bradford,Meadow Bank Community School,meadowbankcommunityschool.org.uk,Bradford,BD4 8DX,Yorkshire and the Humber,no
149938,380,Bradford,Menston Primary School,www.menstonprimary.co.uk,Ilkley,LS29 6NY,Yorkshire and the Humber,no
139229,380,Bradford,Merlin Top Primary Academy,www.mta.northerneducationtrust.org,Keighley,BD22 6HZ,Yorkshire and the Humber,no
107189,380,Bradford,Midland Road Nursery School,https://www.midlandroadnursery.org.uk,Bradford,BD8 7DJ,Yorkshire and the Humber,no
149233,380,Bradford,Miriam Lord Primary School,www.miriamlord.co.uk,Bradford,BD8 8RG,Yorkshire and the Humber,no
107437,380,Bradford,Myrtle Park Primary,http://www.myrtleparkprimary.co.uk,Bingley,BD16 1HB,Yorkshire and the Humber,no
143689,380,Bradford,New College Bradford,https://ncbradford.ac.uk/,Bradford,BD5 0DX,Yorkshire and the Humber,no
107218,380,Bradford,Newby Primary School,http://www.newbyprimary.co.uk,Bradford,BD5 7DQ,Yorkshire and the Humber,no
132185,380,Bradford,Newhall Park Primary School,www.newhallparkprimary.net/,Bradford,BD4 6AF,Yorkshire and the Humber,no
142948,380,Bradford,Oakworth Primary School,www.oakworthprimary.co.uk,Keighley,BD22 7HX,Yorkshire and the Humber,no
139995,380,Bradford,Oasis Academy Lister Park,http://www.oasisacademylisterpark.org/,Bradford,BD8 7ND,Yorkshire and the Humber,no
149519,380,Bradford,Oastlers School,www.oastlers.com,Bradford,BD4 7RH,Yorkshire and the Humber,no
147150,380,Bradford,Oldfield Primary School,www.oldfieldprimarykeighley.co.uk,Keighley,BD22 0HZ,Yorkshire and the Humber,no
139474,380,Bradford,One In A Million Free School,http://www.OIAM.org/freeschool,Bradford,BD8 7DX,Yorkshire and the Humber,no
148256,380,Bradford,"Our Lady and St Brendan's Catholic Primary School, A Voluntary Academy",www.ourladyandstbrendans.co.uk/,Bradford,BD10 0QA,Yorkshire and the Humber,no
141059,380,Bradford,Our Lady of Victories Catholic School,www.olv.bcwcat.co.uk,Keighley,BD22 6JP,Yorkshire and the Humber,no
142946,380,Bradford,Oxenhope CofE Primary School,http://www.oxenhopeprimary.org.uk,Keighley,BD22 9LH,Yorkshire and the Humber,no
150425,380,Bradford,Park Aspire Alternative Provision Academy,https://parkaspire.co.uk/,Bradford,BD5 8DB,Yorkshire and the Humber,no
150001,380,Bradford,Parkside School,http://www.parksideschool.net,Bradford,BD13 5AD,Yorkshire and the Humber,no
143569,380,Bradford,Parkwood Primary School,www.parkwood.bradford.sch.uk/,Keighley,BD21 4QH,Yorkshire and the Humber,no
107247,380,Bradford,Poplars Farm Primary School,https://www.poplarsfarm.bradford.sch.uk/,Bradford,BD2 1LQ,Yorkshire and the Humber,no
137320,380,Bradford,Rainbow Primary Leadership Academy,https://www.rainbowprimary.com/,Bradford,BD5 0HD,Yorkshire and the Humber,no
143511,380,Bradford,Reevy Hill Primary School,www.reevyhill.co.uk,Bradford,BD6 3ST,Yorkshire and the Humber,no
107340,380,Bradford,Riddlesden St Mary's CofE Primary School,www.riddlesdenstmarys.net,Keighley,BD20 5AB,Yorkshire and the Humber,no
138675,380,Bradford,Ryecroft Primary Academy,www.ryecroftpa.org.uk,Bradford,BD4 0LS,Yorkshire and the Humber,no
107219,380,Bradford,Sandy Lane Primary School,https://www.sandylaneprimary.co.uk,Bradford,BD15 9JU,Yorkshire and the Humber,no
139358,380,Bradford,Shibden Head Primary Academy,http://www.shibdenheadprimaryacademy.co.uk,Bradford,BD13 2ND,Yorkshire and the Humber,no
146536,380,Bradford,Shipley CofE Primary School,www.shipleyceprimary.org.uk,Shipley,BD18 2PT,Yorkshire and the Humber,no
140639,380,Bradford,Shirley Manor Primary School,http://www.shirleymanor.co.uk,Bradford,BD12 8SA,Yorkshire and the Humber,no
146798,380,Bradford,Southmere Primary Academy,www.smpa.org.uk,Bradford,BD7 3NR,Yorkshire and the Humber,no
141062,380,Bradford,St Anne's Catholic Primary School,www.stannesrc.net/,Keighley,BD21 3AD,Yorkshire and the Humber,no
147981,380,Bradford,"St Anthony's Catholic Primary School, A Voluntary Academy",http://stac.bcwcat.co.uk,Bradford,BD14 6HW,Yorkshire and the Humber,no
147982,380,Bradford,"St Anthony's Catholic Primary School, A Voluntary Academy",https://sas.bcwcat.co.uk,Shipley,BD18 1HD,Yorkshire and the Humber,no
148520,380,Bradford,"St Bede's and St Joseph's Catholic College, A Voluntary Academy",http://sbsj.co.uk/,Bradford,BD9 4BQ,Yorkshire and the Humber,no
148258,380,Bradford,"St Columba's Catholic Primary School, a Voluntary Academy",www.stcolumbas.bradford.sch.uk/,Bradford,BD4 9PY,Yorkshire and the Humber,no
147923,380,Bradford,"St Cuthbert and the First Martyrs' Catholic Primary School, A Voluntary Academy",www.scfm.bcwcat.co.uk,Bradford,BD9 5AT,Yorkshire and the Humber,no
107190,380,Bradford,St Edmund's Nursery School & Children's Centre,http://www.stedmundsbradford.org.uk/,Bradford,BD8 9QW,Yorkshire and the Humber,no
147922,380,Bradford,"St Francis Catholic Primary School, A Voluntary Academy",https://fra.bcwcat.co.uk,Bradford,BD2 4ES,Yorkshire and the Humber,no
142945,380,Bradford,St John the Evangelist Catholic Primary School,https://sje.bcwcat.co.uk,Bradford,BD6 3DQ,Yorkshire and the Humber,no
145220,380,Bradford,St John's CofE Primary School,http://www.stjohnsceprimary.co.uk,Bradford,BD4 6JF,Yorkshire and the Humber,no
143032,380,Bradford,St Joseph's Catholic Primary School,https://sjk.bcwcat.co.uk,Keighley,BD21 1AR,Yorkshire and the Humber,no
147924,380,Bradford,"St Joseph's Catholic Primary School, A Voluntary Academy",https://sjb.bcwcat.co.uk/,Bingley,BD16 4HQ,Yorkshire and the Humber,no
148101,380,Bradford,"St Joseph's Catholic Primary School, A Voluntary Academy",www.sjbr.bcwcat.co.uk,Bradford,BD5 0RB,Yorkshire and the Humber,no
107305,380,Bradford,St Luke's CofE Primary School,www.stlukes.bradford.sch.uk/,Bradford,BD2 3NS,Yorkshire and the Humber,no
148478,380,Bradford,"St Matthew's Catholic Primary School, a Voluntary Academy",https://stm.bcwcat.co.uk,Bradford,BD15 7NE,Yorkshire and the Humber,no
151462,380,Bradford,St Matthew's CofE Primary School and Nursery,www.stmatthewsprimary.org.uk/,Bradford,BD5 8FG,Yorkshire and the Humber,no
138916,380,Bradford,St Oswald's Church of England Primary Academy,http://www.stoswalds.bradford.sch.uk/,Bradford,BD7 3JT,Yorkshire and the Humber,no
141098,380,Bradford,St Philip's CofE Primary School,www.stphilipsceacademy.co.uk,Bradford,BD8 9JL,Yorkshire and the Humber,no
107323,380,Bradford,St Stephen's CofE Primary School,www.ststephens.bradford.sch.uk/,Bradford,BD5 7HU,Yorkshire and the Humber,no
142947,380,Bradford,"St Walburga's Catholic Primary School, A Voluntary Academy",https://wal.bcwcat.co.uk,Shipley,BD18 4RL,Yorkshire and the Humber,no
148102,380,Bradford,"St William's Catholic Primary School, A Voluntary Academy",www.stwilliamsbcw.greenhousecms.co.uk,Bradford,BD8 9RG,Yorkshire and the Humber,no
142951,380,Bradford,"St Winefride's Catholic Primary School, A Voluntary Academy",https://win.bcwcat.co.uk,Bradford,BD6 1SR,Yorkshire and the Humber,no
148477,380,Bradford,"St. Clare's Catholic Primary School, A Voluntary Academy",cla.bcwcat.co.uk,Bradford,BD2 3JD,Yorkshire and the Humber,no
107268,380,Bradford,Stanbury Village School,http://www.stanburyvillageschool.co.uk,Keighley,BD22 0HA,Yorkshire and the Humber,no
107237,380,Bradford,Stocks Lane Primary School,https://www.stockslaneprimary.co.uk,Bradford,BD13 2RH,Yorkshire and the Humber,no
107220,380,Bradford,Swain House Primary School,https://www.swainhouse.co.uk,Bradford,BD2 1JL,Yorkshire and the Humber,no
107221,380,Bradford,Thackley Primary School,http://www.thackleyschool.com,Bradford,BD10 8PJ,Yorkshire and the Humber,no
143847,380,Bradford,The Academy At St. James,www.academystjames.com,Bradford,BD15 7YD,Yorkshire and the Humber,no
149299,380,Bradford,"The Holy Family Catholic School, a Voluntary Academy",www.holyfamilyschool.uk,Keighley,BD20 6LH,Yorkshire and the Humber,no
139353,380,Bradford,The Sacred Heart Catholic Primary School,http://sacredheartilkley.org,Ilkley,LS29 8NL,Yorkshire and the Humber,no
145936,380,Bradford,Thornbury Primary Leadership Academy,https://www.thornburyprimary.com,Bradford,BD3 7AU,Yorkshire and the Humber,no
143944,380,Bradford,Thornton Primary School,www.thorntonprimary.co.uk,Bradford,BD13 3NN,Yorkshire and the Humber,no
148288,380,Bradford,Thorpe Primary,www.thorpeprimary.org.uk/,Bradford,BD10 9PY,Yorkshire and the Humber,no
142761,380,Bradford,Tong Leadership Academy,,Bradford,BD4 6NR,Yorkshire and the Humber,no
148545,380,Bradford,Trinity Academy Bradford,https://bradford.trinitymat.org,Bradford,BD13 2AS,Yorkshire and the Humber,no
149673,380,Bradford,Trinity All Saints CofE VA Primary School,www.trinityallsaintsbingley.org.uk,Bingley,BD16 2PP,Yorkshire and the Humber,no
143571,380,Bradford,Victoria Primary School,www.victoria.bradford.sch.uk,Keighley,BD21 2RD,Yorkshire and the Humber,no
107230,380,Bradford,Wellington Primary School,https://www.wellingtonprimaryschool.co.uk/,Bradford,BD2 3DE,Yorkshire and the Humber,no
143566,380,Bradford,Westbourne Primary School,www.westbourne.bradford.sch.uk/,Bradford,BD8 7PL,Yorkshire and the Humber,no
142824,380,Bradford,Westminster Church of England Primary Academy,http://westminsterschool.co.uk/,Bradford,BD3 0HW,Yorkshire and the Humber,no
139046,380,Bradford,Whetley Academy,http://www.whetleyacademy.org.uk/,Bradford,BD8 9HZ,Yorkshire and the Humber,no
107233,380,Bradford,Wibsey Primary School,https://www.wibseyprimary.co.uk/,Bradford,BD6 1RL,Yorkshire and the Humber,no
144006,380,Bradford,Wilsden Primary School,www.wilsdenprimary.co.uk,Bradford,BD15 0AE,Yorkshire and the Humber,no
145225,380,Bradford,Woodlands Church of England Primary Academy,www.woodlandsprimary.org.uk/,Bradford,BD12 7EZ,Yorkshire and the Humber,no
144492,380,Bradford,Woodside Academy,www.woodsideacademy.co.uk,Bradford,BD6 2PG,Yorkshire and the Humber,no
143510,380,Bradford,Worth Valley Primary School,www.worthvalleyprimary.co.uk,Keighley,BD22 7AX,Yorkshire and the Humber,no
107246,380,Bradford,Worthinghead Primary School,http://www.worthingheadprimary.com,Bradford,BD12 9EL,Yorkshire and the Humber,no
146512,380,Bradford,Wycliffe CofE Primary School,https://wycliffeprimary.org/,Shipley,BD18 3HZ,Yorkshire and the Humber,no
107286,380,Bradford,Addingham Primary School,http://www.addingham.bradford.sch.uk,Ilkley,LS29 0NR,Yorkshire and the Humber,yes
107309,380,Bradford,All Saints' CofE Primary School,www.allsaintsilkley.bradford.sch.uk,Ilkley,LS29 9BE,Yorkshire and the Humber,yes
107281,380,Bradford,Ben Rhydding Primary School,https://www.benrhyddingprimary.co.uk,Ilkley,LS29 8QH,Yorkshire and the Humber,yes
107439,380,Bradford,Bingley Grammar School,http://www.bingleygrammar.org,Bingley,BD16 2RS,Yorkshire and the Humber,yes
107313,380,Bradford,Burley and Woodhead CofE Primary School,www.burleywoodhead.com,Ilkley,LS29 7RQ,Yorkshire and the Humber,yes
135228,380,Bradford,Chellow Heights Special School,www.chellowheightsschool.co.uk,Bradford,BD9 6AL,Yorkshire and the Humber,yes
135866,380,Bradford,Dixons Allerton Academy,http://www.dixonsaa.com,Bradford,BD8 0DH,Yorkshire and the Humber,yes
130909,380,Bradford,Dixons City Academy,http://www.dixonsca.com,Bradford,BD5 7RR,Yorkshire and the Humber,yes
107432,380,Bradford,Foxhill Primary School,http://www.foxhillprimaryschool.co.uk,Bradford,BD13 1LN,Yorkshire and the Humber,yes
107293,380,Bradford,Girlington Primary School,www.girlingtonprimary.co.uk/,Bradford,BD8 9NR,Yorkshire and the Humber,yes
107434,380,Bradford,Hill Top CofE Primary School,https://www.hilltopcofeprimary.co.uk/,Bradford,BD12 0TL,Yorkshire and the Humber,yes
107186,380,Bradford,Hirst Wood Nursery School,https://www.hirstwoodnscc.co.uk,Shipley,BD18 4NJ,Yorkshire and the Humber,yes
107283,380,Bradford,Hoyle Court Primary School,http://www.hoylecourtprimary.co.uk,Shipley,BD17 6DN,Yorkshire and the Humber,yes
107320,380,Bradford,Idle CofE Primary School,http://www.idleprimaryschool.co.uk,Bradford,BD10 8LU,Yorkshire and the Humber,yes
107262,380,Bradford,Ingrow Primary School,https://ingrowprimary.co.uk/,Keighley,BD21 1BW,Yorkshire and the Humber,yes
107438,380,Bradford,Keelham Primary School,www.keelhamprimary.co.uk/,Bradford,BD13 4HH,Yorkshire and the Humber,yes
107431,380,Bradford,Killinghall Primary School,www.killinghall.bradford.sch.uk,Bradford,BD3 7JF,Yorkshire and the Humber,yes
107272,380,Bradford,Low Ash Primary School,http://www.lowash.bradford.sch.uk,Shipley,BD18 1AA,Yorkshire and the Humber,yes
107307,380,Bradford,Low Moor CofE Primary School,www.lowmoor.bradford.sch.uk/,Bradford,BD12 0NN,Yorkshire and the Humber,yes
101494,380,Bradford,Peel Park Primary School and Nursery,https://www.peelpark.eschools.co.uk,Bradford,BD2 4PR,Yorkshire and the Humber,yes
107433,380,Bradford,Russell Hall Primary School,http://www.russellhallprimary.co.uk,Bradford,BD13 2AW,Yorkshire and the Humber,yes
107270,380,Bradford,Saltaire Primary School,http://www.saltaireprimaryschool.co.uk,Shipley,BD18 4NR,Yorkshire and the Humber,yes
107287,380,Bradford,Sandal Primary School,https://www.sandalprimaryschool.co.uk/,Shipley,BD17 5DH,Yorkshire and the Humber,yes
107273,380,Bradford,Silsden Primary School,https://www.silsdenprimary.co.uk,Keighley,BD20 0JJ,Yorkshire and the Humber,yes
107319,380,Bradford,St Paul's CofE Primary School,http://www.stpaulsceprimary.com,Bradford,BD6 1ST,Yorkshire and the Humber,yes
107275,380,Bradford,Steeton Primary School,http://www.steeton.bradford.sch.uk,Keighley,BD20 6NN,Yorkshire and the Humber,yes
107185,380,Bradford,Strong Close Nursery School,https://www.strongclosenscc.co.uk,Keighley,BD21 4LW,Yorkshire and the Humber,yes
107395,380,Bradford,Titus Salt School,http://www.titussaltschool.co.uk,Bradford,BD17 5RH,Yorkshire and the Humber,yes
