urn,district_code,district_name,school_name,website,town,postcode,region,has_email_collected
140172,381,Calderdale,Abbey Park Academy,https://apa.northerneducationtrust.org/,Halifax,HX2 9DG,Yorkshire and the Humber,no
137337,381,Calderdale,Beech Hill School,www.beechhillschool.co.uk,Halifax,HX1 5TN,Yorkshire and the Humber,no
137392,381,Calderdale,Bolton Brow Primary Academy,http://www.boltonbrow.com,Sowerby Bridge,HX6 2BA,Yorkshire and the Humber,no
148202,381,Calderdale,Bowling Green Academy,http://www.bowlinggreenacademy.org.uk,Halifax,HX4 9HU,Yorkshire and the Humber,no
137987,381,Calderdale,Bradshaw Primary School,www.bradshawprimaryschool.org,Halifax,HX2 9PF,Yorkshire and the Humber,no
136604,381,Calderdale,Brighouse High School,http://www.brighouse.calderdale.sch.uk,Brighouse,HD6 2NY,Yorkshire and the Humber,no
137391,381,Calderdale,Burnley Road Academy,www.burnleyroadacademy.org,Hebden Bridge,HX7 5DE,Yorkshire and the Humber,no
107533,381,Calderdale,Cross Lane Primary and Nursery School,www.crosslaneschool.co.uk,Elland,HX5 0LP,Yorkshire and the Humber,no
145400,381,Calderdale,Dean Field Community Primary School,www.deanfieldschool.co.uk,Halifax,HX2 8DQ,Yorkshire and the Humber,no
138398,381,Calderdale,Field Lane Primary School,www.fieldlane.polarismat.org.uk,Brighouse,HD6 3JT,Yorkshire and the Humber,no
150564,381,Calderdale,Hebden Royd CofE Primary School,www.hebdenroydprimary.org.uk/,Hebden Bridge,HX7 6DS,Yorkshire and the Humber,no
150174,381,Calderdale,Heptonstall Junior Infant and Nursery School,http://www.heptonstallschool.org.uk/,Hebden Bridge,HX7 7NX,Yorkshire and the Humber,no
138302,381,Calderdale,"Holy Trinity Primary School, A Church of England Academy",http://www.holytrinitycofecalderdale.org.uk/,Halifax,HX1 2ES,Yorkshire and the Humber,no
107505,381,Calderdale,Holywell Green Primary School,http://www.holywellgreenschool.co.uk,Halifax,HX4 9AE,Yorkshire and the Humber,no
149545,381,Calderdale,Lee Mount Academy,http://www.leemount.calderdale.sch.uk/,Halifax,HX3 5EB,Yorkshire and the Humber,no
137036,381,Calderdale,Lightcliffe Academy,http://www.lightcliffeacademy.co.uk/,Halifax,HX3 8TL,Yorkshire and the Humber,no
144865,381,Calderdale,Lightcliffe C of E Primary School,http://www.lightcliffeceprimary.co.uk/,Halifax,HX3 8SH,Yorkshire and the Humber,no
149939,381,Calderdale,Luddenden CofE School,http://www.luddenden-ce.uk,Halifax,HX2 6PB,Yorkshire and the Humber,no
137699,381,Calderdale,Luddendenfoot Academy,http://www.luddfoot.polarismat.org.uk,Halifax,HX2 6AU,Yorkshire and the Humber,no
150385,381,Calderdale,Midgley School,http://www.midgleyschool.org.uk/,Halifax,HX2 6TX,Yorkshire and the Humber,no
134659,381,Calderdale,Moorside Community Primary School,http://www.moorside-primary.org.uk/,Halifax,HX2 8AP,Yorkshire and the Humber,no
139270,381,Calderdale,Mount Pellon Primary Academy,https://mpa.northerneducationtrust.org/,Halifax,HX1 4RG,Yorkshire and the Humber,no
107518,381,Calderdale,New Road Primary School,http://www.newroadprimarycalderdale.org.uk,Sowerby Bridge,HX6 1DY,Yorkshire and the Humber,no
107537,381,Calderdale,Norland CE School,http://www.norland.calderdale.sch.uk,Sowerby Bridge,HX6 3RN,Yorkshire and the Humber,no
137398,381,Calderdale,Old Earth Primary School,http://www.oldearth.co.uk/,Elland,HX5 9PL,Yorkshire and the Humber,no
150386,381,Calderdale,Old Town Primary School,http://www.oldtown.calderdale.sch.uk,Hebden Bridge,HX7 8RY,Yorkshire and the Humber,no
143115,381,Calderdale,Park Lane Academy,http://parklane.org.uk/,Halifax,HX3 9LG,Yorkshire and the Humber,no
137444,381,Calderdale,Rastrick High School,http://www.rastrick.polarismat.org.uk,Brighouse,HD6 3XB,Yorkshire and the Humber,no
141307,381,Calderdale,Ryburn Valley High School,http://www.rvhs.co.uk/,Sowerby Bridge,HX6 1DF,Yorkshire and the Humber,no
141479,381,Calderdale,Sacred Heart Catholic Voluntary Academy,http://www.sacredheart.calderdale.sch.uk/,Sowerby Bridge,HX6 1BL,Yorkshire and the Humber,no
137347,381,Calderdale,Salterlee Primary School,https://salterlee.polarismat.org.uk/,Halifax,HX3 7AY,Yorkshire and the Humber,no
137341,381,Calderdale,Scout Road Academy,www.scoutroadacademy.org.uk/,Hebden Bridge,HX7 5JR,Yorkshire and the Humber,no
138657,381,Calderdale,Siddal Primary School,https://siddal.polarismat.org.uk/,Halifax,HX3 9DL,Yorkshire and the Humber,no
149211,381,Calderdale,St Augustine's CofE School,https://www.st-augustines.uk/,Halifax,HX1 5PG,Yorkshire and the Humber,no
137545,381,Calderdale,"St John's (CofE) Primary Academy, Clifton",http://www.stjohnsacademyclifton.co.uk/,Brighouse,HD6 4HP,Yorkshire and the Humber,no
139040,381,Calderdale,St John's Primary School In Rishworth,http://www.stjohnsrishworth.org.uk,Sowerby Bridge,HX6 4QR,Yorkshire and the Humber,no
148479,381,Calderdale,St Joseph's Catholic Primary Academy,http://www.st-josephs.calderdale.sch.uk/,Halifax,HX3 6LA,Yorkshire and the Humber,no
148480,381,Calderdale,St Joseph's Catholic Primary Academy,http://www.stjosephsbrighouse.org.uk,Brighouse,HD6 2NT,Yorkshire and the Humber,no
147583,381,Calderdale,St Joseph's Roman Catholic Voluntary Academy,,Todmorden,OL14 5HP,Yorkshire and the Humber,no
141480,381,Calderdale,"St Malachy's Catholic Primary School, A Voluntary Academy",http://www.stmalachysprimary.org.uk,Halifax,HX2 8JY,Yorkshire and the Humber,no
148657,381,Calderdale,St Mary's Catholic Primary Academy,http://www.stmaryshalifax.co.uk/,Halifax,HX1 2ER,Yorkshire and the Humber,no
107538,381,Calderdale,St Mary's CofE (VC) J and I School,http://www.st-marys.calderdale.sch.uk/,Sowerby Bridge,HX6 3EJ,Yorkshire and the Humber,no
107570,381,Calderdale,St Michael and All Angels CofE Primary & Pre School,http://www.st-michaelangels.calderdale.sch.uk/,Halifax,HX3 7QU,Yorkshire and the Humber,no
148658,381,Calderdale,St Patrick's Catholic Primary Academy,www.stpatselland.org.uk/,Elland,HX5 0QY,Yorkshire and the Humber,no
149531,381,Calderdale,The Brooksbank School,https://www.thebrooksbankschool.co.uk/,Elland,HX5 0QG,Yorkshire and the Humber,no
150387,381,Calderdale,The Calder Learning Trust,https://www.calderlearningtrust.com,Hebden Bridge,HX7 5QN,Yorkshire and the Humber,no
139182,381,Calderdale,The Crossley Heath School,http://www.crossleyheath.org.uk,Halifax,HX3 0HG,Yorkshire and the Humber,no
136375,381,Calderdale,The Greetland Academy,www.greetlandacademy.org.uk,Halifax,HX4 8JB,Yorkshire and the Humber,no
140326,381,Calderdale,The Halifax Academy,http://www.thehalifaxacademy.org,Halifax,HX2 0BA,Yorkshire and the Humber,no
136788,381,Calderdale,The North Halifax Grammar School,http://www.nhgs.co.uk,Halifax,HX2 9SU,Yorkshire and the Humber,no
146204,381,Calderdale,The Whitley AP Academy,twapa.co.uk,Halifax,HX2 9SR,Yorkshire and the Humber,no
107540,381,Calderdale,Triangle CofE VC Primary School,http://www.triangleprimary.org.uk,Sowerby Bridge,HX6 3NJ,Yorkshire and the Humber,no
143651,381,Calderdale,Trinity Academy Akroydon,https://akroydon.trinitymat.org/,Halifax,HX3 6PU,Yorkshire and the Humber,no
144946,381,Calderdale,Trinity Academy Grammar,https://grammar.trinitymat.org/,Sowerby Bridge,HX6 2NW,Yorkshire and the Humber,no
136094,381,Calderdale,Trinity Academy Halifax,https://halifax.trinitymat.org,Halifax,HX2 9TZ,Yorkshire and the Humber,no
146959,381,Calderdale,Trinity Academy St Chad's,https://stchads.trinitymat.org/,Brighouse,HD6 2PA,Yorkshire and the Humber,no
148143,381,Calderdale,Trinity Academy St Peter's,https://stpeters.trinitymat.org/,Sowerby Bridge,HX6 1HB,Yorkshire and the Humber,no
139433,381,Calderdale,Trinity Sixth Form Academy,https://sixth.trinitymat.org/,Halifax,HX1 1UN,Yorkshire and the Humber,no
140107,381,Calderdale,Wainstalls School,http://www.wainstalls.org.uk,Halifax,HX2 7TE,Yorkshire and the Humber,no
146677,381,Calderdale,Warley Road Primary Academy,www.warleyroad.co.uk,Halifax,HX1 3TG,Yorkshire and the Humber,no
107495,381,Calderdale,Warley Town School,http://www.warleytown.org.uk,Halifax,HX2 7QD,Yorkshire and the Humber,no
145571,381,Calderdale,West Vale Academy,https://www.westvaleacademy.org.uk/,Halifax,HX4 8LS,Yorkshire and the Humber,no
136547,381,Calderdale,Whitehill Community Academy,www.whitehillacademy.org,Halifax,HX2 9RL,Yorkshire and the Humber,no
107528,381,Calderdale,Woodhouse Primary School,http://www.woodhouse.calderdale.sch.uk,Brighouse,HD6 3SX,Yorkshire and the Humber,no
107569,381,Calderdale,All Saints' CofE Primary School,www.allsaintsschoolhalifax.co.uk,Halifax,HX3 0SD,Yorkshire and the Humber,yes
107534,381,Calderdale,Ash Green Community Primary School,http://www.ashgreen.info,Halifax,HX2 8QD,Yorkshire and the Humber,yes
107499,381,Calderdale,Bailiffe Bridge Junior and Infant School,www.bailiffebridgeschool.org.uk,Brighouse,HD6 4DY,Yorkshire and the Humber,yes
107552,381,Calderdale,Barkisland CofE VA Primary School,www.barkislandcofeschool.org.uk,Halifax,HX4 0BD,Yorkshire and the Humber,yes
107500,381,Calderdale,Carr Green Primary School,http://www.carrgreenschool.org.uk,Brighouse,HD6 3LT,Yorkshire and the Humber,yes
107520,381,Calderdale,Castle Hill Primary School,www.castlehillprimary.co.uk,Todmorden,OL14 5SQ,Yorkshire and the Humber,yes
107507,381,Calderdale,Central Street Infant and Nursery School,http://www.centralstreet.org.uk,Hebden Bridge,HX7 6HB,Yorkshire and the Humber,yes
107554,381,Calderdale,"Christ Church CofE VA Junior School, Sowerby Bridge",http://www.christchurchjuniors.org.uk,Sowerby Bridge,HX6 2BJ,Yorkshire and the Humber,yes
107535,381,Calderdale,Christ Church Pellon CofE VC Primary School,http://www.christchurch-pellon.calderdale.sch.uk,Halifax,HX2 0QQ,Yorkshire and the Humber,yes
107525,381,Calderdale,Cliffe Hill Community Primary School,http://www.cliffehill.calderdale.sch.uk,Halifax,HX3 8TW,Yorkshire and the Humber,yes
107512,381,Calderdale,Colden Junior and Infant School,http://www.colden.calderdale.sch.uk,Hebden Bridge,HX7 7HW,Yorkshire and the Humber,yes
107480,381,Calderdale,Copley Primary School,https://www.copleynewroad.co.uk/,Halifax,HX3 0TP,Yorkshire and the Humber,yes
107521,381,Calderdale,"Cornholme Junior, Infant and Nursery School",https://www.cornholmeschool.co.uk,Todmorden,OL14 8PL,Yorkshire and the Humber,yes
107550,381,Calderdale,"Elland Church of England (Voluntary Aided) Junior, Infant and Nursery School",http://www.elland.calderdale.sch.uk/,Elland,HX5 0BB,Yorkshire and the Humber,yes
107478,381,Calderdale,Ferney Lee Primary School,http://www.ferneylee.calderdale.sch.uk/,Todmorden,OL14 5NR,Yorkshire and the Humber,yes
107591,381,Calderdale,Highbury School,http://www.highburyschool.co.uk,Brighouse,HD6 3LD,Yorkshire and the Humber,yes
107497,381,Calderdale,"Ling Bob Junior, Infant and Nursery School",http://www.lingbob.calderdale.sch.uk,Halifax,HX2 0QD,Yorkshire and the Humber,yes
107501,381,Calderdale,Longroyde Primary School,http://www.longroyde.org.uk,Brighouse,HD6 3AS,Yorkshire and the Humber,yes
107486,381,Calderdale,Northowram Primary School,http://northowram.calderdale.sch.uk/,Halifax,HX3 7EF,Yorkshire and the Humber,yes
107487,381,Calderdale,Parkinson Lane Community Primary School,www.parkinsonlane.com,Halifax,HX1 3XL,Yorkshire and the Humber,yes
107588,381,Calderdale,Ravenscliffe High School,http://www.ravenscliffe.calderdale.sch.uk,Halifax,HX3 0RZ,Yorkshire and the Humber,yes
107514,381,Calderdale,Ripponden Junior and Infant School,www.ripponden.calderdale.sch.uk,Sowerby Bridge,HX6 4AH,Yorkshire and the Humber,yes
107529,381,Calderdale,Riverside Junior School,www.riversidejunior.co.uk/,Hebden Bridge,HX7 8EE,Yorkshire and the Humber,yes
107490,381,Calderdale,Salterhebble Junior and Infant School,www.salterhebble.calderdale.sch.uk/,Halifax,HX3 0AU,Yorkshire and the Humber,yes
107482,381,Calderdale,Savile Park Primary School,http://savileparkprimary.org.uk,Halifax,HX1 3ER,Yorkshire and the Humber,yes
107522,381,Calderdale,Shade Primary School,http://www.shade.calderdale.sch.uk,Todmorden,OL14 7PD,Yorkshire and the Humber,yes
107513,381,Calderdale,Shelf Junior and Infant School,http://www.shelfjandi.com/,Halifax,HX3 7LT,Yorkshire and the Humber,yes
107548,381,Calderdale,St Andrew's Church of England (VA) Infant School,http://www.st-andrews-inf.calderdale.sch.uk,Brighouse,HD6 2HH,Yorkshire and the Humber,yes
107547,381,Calderdale,St Andrew's CofE (VA) Junior School,http://www.standrews.calderdale.sch.uk,Brighouse,HD6 2AN,Yorkshire and the Humber,yes
107510,381,Calderdale,Stubbings Infant School,www.stubbingsinfantschool.co.uk/,Hebden Bridge,HX7 8BP,Yorkshire and the Humber,yes
107556,381,Calderdale,"Todmorden CofE J, I & N School",http://www.todmordenprimary.org.uk,Todmorden,OL14 7BS,Yorkshire and the Humber,yes
107564,381,Calderdale,Todmorden High School,http://www.todhigh.co.uk/,Todmorden,OL14 7DG,Yorkshire and the Humber,yes
107519,381,Calderdale,Tuel Lane Infant School,www.tuellaneinfantschool.co.uk,Sowerby Bridge,HX6 2ND,Yorkshire and the Humber,yes
135862,381,Calderdale,Walsden St Peter's CE (VC) Primary School,www.walsden.calderdale.sch.uk,Todmorden,OL14 6RN,Yorkshire and the Humber,yes
107502,381,Calderdale,Withinfields Primary School,http://www.withinfields.calderdale.sch.uk,Halifax,HX3 9QJ,Yorkshire and the Humber,yes
107590,381,Calderdale,Wood Bank School,http://www.woodbank.calderdale.sch.uk/,Halifax,HX2 6PB,Yorkshire and the Humber,yes
