urn,district_code,district_name,school_name,website,town,postcode,region,has_email_collected
107727,382,Kirklees,All Hallows' CofE (VA) Primary School,http://www.allhallowsschool.org.uk/,Huddersfield,HD5 8XW,Yorkshire and the Humber,no
107782,382,Kirklees,All Saints Catholic College,www.aschc.com,Huddersfield,HD2 2JT,Yorkshire and the Humber,no
107628,382,Kirklees,Ashbrow School,http://www.ashbrowschool.org.uk,Huddersfield,HD2 1EX,Yorkshire and the Humber,no
138111,382,Kirklees,BBG Academy,http://www.bbgacademy.com,Birkenshaw,BD19 4BE,Yorkshire and the Humber,no
137424,382,Kirklees,Batley Girls' High School,http://www.batleygirls.co.uk/,Batley,WF17 0LD,Yorkshire and the Humber,no
137487,382,Kirklees,Batley Grammar School,http://www.batleygrammar.co.uk,Batley,WF17 0AD,Yorkshire and the Humber,no
150152,382,Kirklees,Batley Parish CofE Primary Academy,https://www.batleyparishprimary.co.uk,Batley,WF17 8PA,Yorkshire and the Humber,no
107728,382,Kirklees,Battyeford CofE (VC) Primary School,http://www.battyefordprimary.com/,Mirfield,WF14 9QH,Yorkshire and the Humber,no
142774,382,Kirklees,Beaumont Primary Academy,www.beaumontprimary.org.uk,Huddersfield,HD4 5JA,Yorkshire and the Humber,no
150568,382,Kirklees,Berry Brow Infant and Nursery Academy,http://www.berrybrow.co.uk,Huddersfield,HD4 7LP,Yorkshire and the Humber,no
143790,382,Kirklees,Birdsedge First School,www.birdsedgefirst.org,Huddersfield,HD8 8XR,Yorkshire and the Humber,no
107626,382,Kirklees,Birkby Junior School,,Huddersfield,HD1 6HE,Yorkshire and the Humber,no
107730,382,Kirklees,Birkenshaw Church of England Voluntary Controlled Primary School,http://www.birkenshawprimary.org.uk,Bradford,BD11 2JE,Yorkshire and the Humber,no
139356,382,Kirklees,Birstall Primary Academy,https://www.birstallprimaryacademy.co.uk/,Batley,WF17 9EE,Yorkshire and the Humber,no
140234,382,Kirklees,Boothroyd Primary Academy,http://www.boothroydprimaryacademy.co.uk,Dewsbury,WF13 3QE,Yorkshire and the Humber,no
145236,382,Kirklees,Brambles Primary Academy,http://www.bramblesprimaryacademy.org/,Huddersfield,HD1 5BU,Yorkshire and the Humber,no
107713,382,Kirklees,Brockholes Church of England Voluntary Controlled Junior and Infant School,http://brockholes.schooljotter2.com/,Holmfirth,HD9 7EB,Yorkshire and the Humber,no
107706,382,Kirklees,Bywell Church of England Voluntary Controlled Junior School,bywelljuniorschool.co.uk,Dewsbury,WF12 7LX,Yorkshire and the Humber,no
147584,382,Kirklees,Carlinghow Academy,https://www.carlinghowprincessroyal.co.uk/,Batley,WF17 8HT,Yorkshire and the Humber,no
146367,382,Kirklees,Castle Hall Academy,https://www.castlehall.com/,Mirfield,WF14 9PH,Yorkshire and the Humber,no
142420,382,Kirklees,Castle Hill School,www.castlehillschool.org.uk,Huddersfield,HD4 6JL,Yorkshire and the Humber,no
138584,382,Kirklees,Christ Church CE Academy,http://www.christchurchcofeacademy.co.uk,Huddersfield,HD2 1JP,Yorkshire and the Humber,no
107643,382,Kirklees,Clough Head Junior and Infant School,www.cloughheadpri.kgfl.dbprimary.com/,Huddersfield,HD7 4NW,Yorkshire and the Humber,no
147534,382,Kirklees,Co-op Academy Smithies Moor,https://smithiesmoor.coopacademies.co.uk/,Heckmondwike,WF16 9BB,Yorkshire and the Humber,no
140660,382,Kirklees,Colne Valley High School,http://www.thecvhs.co.uk/,Huddersfield,HD7 5SP,Yorkshire and the Humber,no
107697,382,Kirklees,Crossley Fields Junior and Infant School,https://www.crossleyfields.com,Mirfield,WF14 0BE,Yorkshire and the Humber,no
107725,382,Kirklees,Crowlees Church of England Voluntary Controlled Junior and Infant School,http://www.crowlees.co.uk/,Mirfield,WF14 9PD,Yorkshire and the Humber,no
107741,382,Kirklees,Cumberworth Church of England Voluntary Aided First School,www.cumberworthfirstschool.co.uk,Huddersfield,HD8 8NU,Yorkshire and the Humber,no
107742,382,Kirklees,Denby Church of England Voluntary Aided First School,www.denbyfirstschool.kirklees.sch.uk,Huddersfield,HD8 8UN,Yorkshire and the Humber,no
107688,382,Kirklees,Denby Dale First and Nursery School,www.denbydale.education,Huddersfield,HD8 8SG,Yorkshire and the Humber,no
140392,382,Kirklees,Diamond Wood Community Academy,www.diamondwoodacademy.co.uk/,Dewsbury,WF13 3AD,Yorkshire and the Humber,no
150569,382,Kirklees,Earlsheaton Infant School,www.earlsheatoninfants.co.uk,Dewsbury,WF12 8JF,Yorkshire and the Humber,no
107719,382,Kirklees,East Bierley Church of England Voluntary Controlled Primary School,www.eastbierleyprimary.com,Bradford,BD4 6PH,Yorkshire and the Humber,no
150358,382,Kirklees,Eastborough Academy,https://eastborough.org.uk/,Dewsbury,WF13 1NS,Yorkshire and the Humber,no
107651,382,Kirklees,Emley First School,www.emleyschool.co.uk,Huddersfield,HD8 9RT,Yorkshire and the Humber,no
145432,382,Kirklees,Engage Academy,http://www.engageacademy.uk.com,Batley,WF17 5LP,Yorkshire and the Humber,no
145433,382,Kirklees,Ethos College,,Dewsbury,WF13 4QS,Yorkshire and the Humber,no
107802,382,Kirklees,Fairfield School,http://www.fairfieldschool.uk/,Batley,WF17 8AS,Yorkshire and the Humber,no
107722,382,Kirklees,Farnley Tyas Church of England Voluntary Controlled First School,http://www.farnleytyasfirst.co.uk,Huddersfield,HD4 6TZ,Yorkshire and the Humber,no
146616,382,Kirklees,Field Lane Junior Infant and Nursery School,https://www.fieldlaneschool.co.uk/,Batley,WF17 5AH,Yorkshire and the Humber,no
139357,382,Kirklees,Fieldhead Primary Academy,www.fieldheadprimaryacademy.co.uk/,Batley,WF17 9BX,Yorkshire and the Humber,no
107634,382,Kirklees,Fixby Junior and Infant School,www.fixby.org,Huddersfield,HD2 2HB,Yorkshire and the Humber,no
107714,382,Kirklees,Flockton CofE (C) First School,http://www.flocktonschool.co.uk/,Wakefield,WF4 4DH,Yorkshire and the Humber,no
107696,382,Kirklees,Golcar Junior Infant and Nursery School,www.golcarjin.com,Huddersfield,HD7 4QE,Yorkshire and the Humber,no
107747,382,Kirklees,Gomersal St Mary's Church of England Voluntary Controlled Primary School,http://www.gomersalstmarys.co.uk,Cleckheaton,BD19 4NA,Yorkshire and the Humber,no
107656,382,Kirklees,"Hade Edge Junior, Infant and Nursery School",www.hadeedgeschool.co.uk/,Holmfirth,HD9 2DF,Yorkshire and the Humber,no
107709,382,Kirklees,Hanging Heaton Church of England Voluntary Controlled Junior and Infant School,http://www.hangingheaton.co.uk/,Batley,WF17 6DW,Yorkshire and the Humber,no
107667,382,Kirklees,Hartshead Junior and Infant School,http://www.hartsheadschool.co.uk,Liversedge,WF15 8AW,Yorkshire and the Humber,no
107707,382,Kirklees,Headfield Church of England Voluntary Controlled Junior School,www.headfieldschool.org.uk/,Dewsbury,WF12 9PD,Yorkshire and the Humber,no
107723,382,Kirklees,"Headlands Church of England Voluntary Controlled Junior, Infant and Nursery School",www.headlandscofeschool.co.uk,Liversedge,WF15 6PR,Yorkshire and the Humber,no
144963,382,Kirklees,Healey Junior Infant and Nursery School,https://www.healeyschool.co.uk/,Batley,WF17 8BN,Yorkshire and the Humber,no
141904,382,Kirklees,"Heaton Avenue, A Share Primary Academy",https://www.heatonavenue.co.uk/,Cleckheaton,BD19 3AE,Yorkshire and the Humber,no
136283,382,Kirklees,Heckmondwike Grammar School,http://www.heckgrammar.co.uk,Heckmondwike,WF16 0AH,Yorkshire and the Humber,no
150366,382,Kirklees,Heckmondwike Primary Academy,,Heckmondwike,WF16 0AN,Yorkshire and the Humber,no
145556,382,Kirklees,Helme Church of England Academy,www.helmeschool.com,Holmfirth,HD9 5RW,Yorkshire and the Humber,no
107657,382,Kirklees,Hepworth Junior and Infant School,http://hepworthpri.kgfl.dbprimary.com/,Holmfirth,HD9 1TJ,Yorkshire and the Humber,no
149941,382,Kirklees,Highburton CofE First Academy,www.highburtonfirst.org.uk,Huddersfield,HD8 0QT,Yorkshire and the Humber,no
107669,382,Kirklees,Hightown Junior Infant & Nursery School,www.hightown.kirklees.sch.uk,Liversedge,WF15 8BL,Yorkshire and the Humber,no
148134,382,Kirklees,Hill View Academy,http://www.hillviewacademy.co.uk/,Huddersfield,HD5 8YE,Yorkshire and the Humber,no
147629,382,Kirklees,Hillside Primary School,https://www.hillsideprimaryschool.co.uk/,Huddersfield,HD4 6LU,Yorkshire and the Humber,no
107658,382,Kirklees,Hinchliffe Mill Junior and Infant School,http://www.hinchliffemillschool.org.uk,Holmfirth,HD9 2PF,Yorkshire and the Humber,no
107659,382,Kirklees,Holme Junior and Infant School,www.holmejischool.co.uk,Holmfirth,HD9 2QQ,Yorkshire and the Humber,no
107769,382,Kirklees,Holmfirth High School,http://www.holmfirthhigh.co.uk/,Holmfirth,HD9 7SE,Yorkshire and the Humber,no
107655,382,Kirklees,Holmfirth Junior Infant and Nursery School,http://holmfirthjinschool.net/,Holmfirth,HD9 2RG,Yorkshire and the Humber,no
148849,382,Kirklees,Holy Spirit Catholic Primary Academy,http://www.holyspiritprimary.co.uk,Heckmondwike,WF16 9EA,Yorkshire and the Humber,no
144735,382,Kirklees,"Honley CofE (VC) Junior, Infant and Nursery School",www.honleyjin.co.uk,Holmfirth,HD9 6BT,Yorkshire and the Humber,no
146906,382,Kirklees,Honley High School,http://www.honleyhigh.co.uk/,Holmfirth,HD9 6QJ,Yorkshire and the Humber,no
107665,382,Kirklees,Hopton Primary School,http://www.hoptonprimaryschool.co.uk/,Mirfield,WF14 8PR,Yorkshire and the Humber,no
107682,382,Kirklees,Hyrstmount Junior School,http://www.hyrstmountjuniors.org.uk,Batley,WF17 7NS,Yorkshire and the Humber,no
143227,382,Kirklees,Joseph Norton Academy,www.josephnorton.co.uk,Huddersfield,HD8 9JU,Yorkshire and the Humber,no
149046,382,Kirklees,Kaye's Academy,www.kayesacademy.co.uk,Huddersfield,HD8 9LZ,Yorkshire and the Humber,no
138706,382,Kirklees,King James's School,www.kingjames.org.uk,Huddersfield,HD4 6SG,Yorkshire and the Humber,no
107745,382,Kirklees,Kirkburton Church of England Voluntary Aided First School,www.kirkburtonfirst.co.uk,Kirkburton,HD8 0SG,Yorkshire and the Humber,no
143791,382,Kirklees,Kirkburton Middle School,http://www.kirkburtonmiddleschool.co.uk/,Huddersfield,HD8 0TJ,Yorkshire and the Humber,no
148293,382,Kirklees,Kirkheaton Primary School,http://www.kirkheatonprimary.com,Huddersfield,HD5 0HR,Yorkshire and the Humber,no
147623,382,Kirklees,Lepton CofE Primary Academy,www.leptonschool.co.uk,Huddersfield,HD8 0DE,Yorkshire and the Humber,no
141057,382,Kirklees,Lindley Church of England Infant School,http://www.lindleyinfantsch.org.uk,Huddersfield,HD3 3NE,Yorkshire and the Humber,no
137519,382,Kirklees,Lindley Junior School,www.lindleyjun.org.uk,Huddersfield,HD3 3LY,Yorkshire and the Humber,no
107740,382,Kirklees,Linthwaite Ardron CofE (Voluntary Aided) Junior and Infant School,http://www.linthwaite-ardron.org.uk,Huddersfield,HD7 5TA,Yorkshire and the Humber,no
150960,382,Kirklees,Linthwaite Clough Primary School,,Huddersfield,HD7 5NJ,Yorkshire and the Humber,no
149734,382,Kirklees,Lowerhouses CofE Primary School,www.lowerhousesschool.co.uk,Huddersfield,HD5 8JY,Yorkshire and the Humber,no
150536,382,Kirklees,"Luck Lane, A Share Primary Academy",www.lucklaneprimary.org.uk,Huddersfield,HD3 4HA,Yorkshire and the Humber,no
107678,382,Kirklees,Lydgate Junior and Infant School,www.lydgateprimary.kgfl.dbprimary.com/,Batley,WF17 6EY,Yorkshire and the Humber,no
139076,382,Kirklees,Manor Croft Academy,www.manorcroft.org.uk,Dewsbury,WF12 7DW,Yorkshire and the Humber,no
149329,382,Kirklees,Manorfield Infant and Nursery School,https://www.manorfieldschool.co.uk/,Batley,WF17 7DQ,Yorkshire and the Humber,no
107644,382,Kirklees,Marsden Infant and Nursery School,www.marsdeniandnschool.co.uk,Huddersfield,HD7 6BN,Yorkshire and the Humber,no
141687,382,Kirklees,Marsden Junior School,http://www.themjs.org,Huddersfield,HD7 6EP,Yorkshire and the Humber,no
107718,382,Kirklees,Meltham CofE (VC) Primary School,http://www.melthamceschool.co.uk,Holmfirth,HD9 4DA,Yorkshire and the Humber,no
146890,382,Kirklees,Meltham Moor Primary School,www.melthammoor.org,Holmfirth,HD9 5LH,Yorkshire and the Humber,no
107639,382,Kirklees,Mill Lane Primary School,www.mill-lane.org.uk,Batley,WF17 6EG,Yorkshire and the Humber,no
141688,382,Kirklees,"Millbridge, A Share Primary Academy",www.millbridge.org.uk/,Liversedge,WF15 6HU,Yorkshire and the Humber,no
107691,382,Kirklees,Moldgreen Community Primary School,www.moldgreenprimary.co.uk,Huddersfield,HD5 8AE,Yorkshire and the Humber,no
137500,382,Kirklees,Moor End Academy,www.moorend.org,Huddersfield,HD4 5JA,Yorkshire and the Humber,no
107756,382,Kirklees,Netherhall Learning Campus High School,www.nlconline.org.uk,Select,HD5 9PG,Yorkshire and the Humber,no
107700,382,Kirklees,Netherhall St James CofE (VC) Infant and Nursery School,http://www.nlconline.org.uk/infant,Huddersfield,HD5 9NT,Yorkshire and the Humber,no
146861,382,Kirklees,Netherton Infant and Nursery School,http://www.nethertonian.co.uk,Huddersfield,HD4 7JE,Yorkshire and the Humber,no
147517,382,Kirklees,New Mill Infant School,,Holmfirth,HD9 1LS,Yorkshire and the Humber,no
147799,382,Kirklees,New Mill Junior School,www.wooldalejunior.org.uk,Holmfirth,HD9 1LJ,Yorkshire and the Humber,no
147888,382,Kirklees,Newsome Academy,https://newsomeacademy.co.uk/,Huddersfield,HD4 6JN,Yorkshire and the Humber,no
150570,382,Kirklees,Newsome Junior Academy,www.newsomejuniors.co.uk,Huddersfield,HD4 6JN,Yorkshire and the Humber,no
149940,382,Kirklees,Nields Academy,https://nields.ghat.org.uk,Huddersfield,HD7 5HT,Yorkshire and the Humber,no
107685,382,Kirklees,Norristhorpe Junior and Infant School,www.norristhorpeprimary.kgfl.dbprimary.com/,Liversedge,WF15 7AW,Yorkshire and the Humber,no
136502,382,Kirklees,North Huddersfield Trust School,http://www.nhtschool.co.uk/,Huddersfield,HD2 1DJ,Yorkshire and the Humber,no
142418,382,Kirklees,Oak CofE Primary School,www.oakprimary.co.uk,Huddersfield,HD4 5HX,Yorkshire and the Humber,no
147884,382,Kirklees,Old Bank Academy,,Mirfield,WF14 0HW,Yorkshire and the Humber,no
142003,382,Kirklees,Orchard Primary Academy,https://www.orchardprimaryacademy.org/,Dewsbury,WF12 8QT,Yorkshire and the Humber,no
148484,382,Kirklees,Our Lady of Lourdes Catholic Primary Academy,http://www.ourladyoflourdesschool.org.uk,Huddersfield,HD2 1EA,Yorkshire and the Humber,no
138979,382,Kirklees,Overthorpe CofE Academy,http://www.overthorpecofe.co.uk/,Dewsbury,WF12 0BH,Yorkshire and the Humber,no
107640,382,Kirklees,Park Road Junior Infant and Nursery School,http://www.parkroadschool.co.uk,Batley,WF17 5LP,Yorkshire and the Humber,no
107690,382,Kirklees,Pentland Infant and Nursery School,www.pentlandinf.co.uk,Dewsbury,WF12 9JR,Yorkshire and the Humber,no
107641,382,Kirklees,Purlwell Infant and Nursery School,www.purlwell.org/,Batley,WF17 7PE,Yorkshire and the Humber,no
107799,382,Kirklees,Ravenshall School,http://www.ravenshallschool.org.uk/,Dewsbury,WF12 9EE,Yorkshire and the Humber,no
107699,382,Kirklees,Ravensthorpe Church of England Voluntary Controlled Junior School,http://www.ravensthorpejuniorschool.co.uk,Dewsbury,WF13 3AS,Yorkshire and the Humber,no
145434,382,Kirklees,Reach Academy,,Batley,WF17 0BQ,Yorkshire and the Humber,no
107621,382,Kirklees,Reinwood Community Junior School,http://reinwoodjuniorschool.com,Huddersfield,HD3 4YL,Yorkshire and the Humber,no
107721,382,Kirklees,Roberttown Church of England Voluntary Controlled Junior and Infant School,www.roberttownschool.co.uk,Liversedge,WF15 8BE,Yorkshire and the Humber,no
146327,382,Kirklees,"Royds Hall, A Share Academy",www.roydshall.org,Huddersfield,HD3 4HA,Yorkshire and the Humber,no
137869,382,Kirklees,Salendine Nook High School Academy,www.snhs.kirklees.sch.uk,Huddersfield,HD3 4GN,Yorkshire and the Humber,no
107702,382,Kirklees,Savile Town Church of England Voluntary Controlled Infant and Nursery School,http://www.saviletown.co.uk,Dewsbury,WF12 9LY,Yorkshire and the Humber,no
107645,382,Kirklees,Scapegoat Hill Junior and Infant School,http://www.scapegoat-hill.kirklees.sch.uk,Huddersfield,HD7 4NU,Yorkshire and the Humber,no
150306,382,Kirklees,Scholes (Holmfirth) Junior & Infant School,www.scholesji.org.uk,Holmfirth,HD9 1SZ,Yorkshire and the Humber,no
143232,382,Kirklees,Scissett Church of England Academy,https://www.scissettceacademy.org/,Huddersfield,HD8 9HR,Yorkshire and the Humber,no
143792,382,Kirklees,Scissett Middle School,http://www.scissettmiddle.com/,Huddersfield,HD8 9JX,Yorkshire and the Humber,no
137352,382,Kirklees,"Shelley College, A Share Academy",http://home.shelleycollege.org/,Huddersfield,HD8 8NL,Yorkshire and the Humber,no
143793,382,Kirklees,Shelley First School,www.shelleyfirstschool.co.uk,Huddersfield,HD8 8HU,Yorkshire and the Humber,no
107663,382,Kirklees,Shepley First School,www.shepleyschool.org.uk/,Huddersfield,HD8 8DD,Yorkshire and the Humber,no
143230,382,Kirklees,Skelmanthorpe Academy,www.skelmanthorpeacademy.org,Huddersfield,HD8 9DZ,Yorkshire and the Humber,no
107711,382,Kirklees,Slaithwaite Church of England Voluntary Controlled Junior and Infant School,www.slaithwaitejandi.co.uk,Huddersfield,HD7 5UG,Yorkshire and the Humber,no
107734,382,Kirklees,South Crosland Church of England Voluntary Aided Junior School,www.southcrosland.org.uk,Huddersfield,HD4 7HF,Yorkshire and the Humber,no
107801,382,Kirklees,Southgate School,www.southgateschool.co.uk,Huddersfield,HD5 8TG,Yorkshire and the Humber,no
107778,382,Kirklees,Spen Valley High School,http://www.spenvalleyhighschool.co.uk/,Liversedge,WF15 7LX,Yorkshire and the Humber,no
143228,382,Kirklees,St Aidan's Church of England Academy,http://www.saintaidans.org.uk,Huddersfield,HD8 9DQ,Yorkshire and the Humber,no
141470,382,Kirklees,St John Fisher Catholic Voluntary Academy,http://www.stjohnfisher.org.uk,Dewsbury,WF13 4LL,Yorkshire and the Humber,no
107739,382,Kirklees,St John's Church of England Voluntary Aided Junior and Infant School,www.stjohnsji.co.uk,Huddersfield,HD7 4QQ,Yorkshire and the Humber,no
107701,382,Kirklees,St John's Church of England Voluntary Controlled Primary School,https://www.stjohnsdewsbury.co.uk/,Dewsbury,WF13 2LP,Yorkshire and the Humber,no
148482,382,Kirklees,St Joseph's Catholic Primary Academy,http://www.stjosephsdewsbury.co.uk/,Dewsbury,WF13 4HY,Yorkshire and the Humber,no
148483,382,Kirklees,St Joseph's Catholic Primary Academy,www.stjosephscps.co.uk,Huddersfield,HD5 9HU,Yorkshire and the Humber,no
148481,382,Kirklees,St Mary's Catholic Primary Academy,http://www.stmarysbatley.co.uk,Batley,WF17 8PH,Yorkshire and the Humber,no
148659,382,Kirklees,St Patrick's Catholic Primary Academy,http://www.stpatricks.org.uk,Huddersfield,HD2 2BJ,Yorkshire and the Humber,no
148863,382,Kirklees,St Patrick's Catholic Primary Academy,https://www.stpatricksbirstall.co.uk/,Batley,WF17 9LQ,Yorkshire and the Humber,no
148485,382,Kirklees,St Paulinus Catholic Primary Academy,http://www.stpaulinuscps.org.uk,Dewsbury,WF13 3QE,Yorkshire and the Humber,no
107737,382,Kirklees,"St Peter's Church of England Voluntary Aided Junior, Infant and Early Years School",www.stpetersschoolbirstall.co.uk,Batley,WF17 9HN,Yorkshire and the Humber,no
136109,382,Kirklees,St Thomas CE (VC) Primary School,www.stthomas.org.uk,Huddersfield,HD2 1RQ,Yorkshire and the Humber,no
107710,382,Kirklees,Staincliffe Church of England Voluntary Controlled Junior School,http://www.staincliffejuniorschool.co.uk/,Batley,WF17 7QX,Yorkshire and the Humber,no
136674,382,Kirklees,The Mirfield Free Grammar,http://www.themfg.co.uk,Mirfield,WF14 9EZ,Yorkshire and the Humber,no
146365,382,Kirklees,"Thornhill Community Academy, A Share Academy",,Dewsbury,WF12 0HE,Yorkshire and the Humber,no
143231,382,Kirklees,Thornhill Junior and Infant School,http://www.thornhilljischool.co.uk,Dewsbury,WF12 0QT,Yorkshire and the Humber,no
107705,382,Kirklees,Thornhill Lees Church of England Voluntary Controlled Infant and Nursery School,http://thornhill-lees.com,Dewsbury,WF12 9DL,Yorkshire and the Humber,no
107717,382,Kirklees,Thurstonland Endowed Voluntary Controlled First School,www.thurstonlandfirst.org.uk,Huddersfield,HD4 6XD,Yorkshire and the Humber,no
142406,382,Kirklees,Upper Batley High School,http://www.ubhs.co.uk,Batley,WF17 0BJ,Yorkshire and the Humber,no
107680,382,Kirklees,Upperthong Junior and Infant School,www.upperthongschool.co.uk,Holmfirth,HD9 2LE,Yorkshire and the Humber,no
107642,382,Kirklees,Warwick Road Primary School,http://www.warwickroad.kirklees.sch.uk/,Batley,WF17 6BS,Yorkshire and the Humber,no
107647,382,Kirklees,Wellhouse Junior and Infant School,www.wellhousepri.kgfl.dbprimary.com,Huddersfield,HD7 4ES,Yorkshire and the Humber,no
107775,382,Kirklees,Westborough High School,www.w-h-s.org.uk,Dewsbury,WF13 2JE,Yorkshire and the Humber,no
149162,382,Kirklees,"Whitcliffe Mount, A Share Academy",http://www.whitcliffemount.co.uk,Cleckheaton,BD19 3AQ,Yorkshire and the Humber,no
136511,382,Kirklees,Whitechapel Church of England Primary School,http://www.whitechapelcofeprimary.org.uk,Cleckheaton,BD19 6HR,Yorkshire and the Humber,no
107648,382,Kirklees,Wilberlee Junior and Infant School,https://wilberlee.heightsfed.org,Slaithwaite,HD7 5UX,Yorkshire and the Humber,no
139912,382,Kirklees,Windmill CofE (VC) Primary School,http://www.windmillcofeprimary.co.uk,Batley,WF17 0NP,Yorkshire and the Humber,no
107797,382,Kirklees,Woodley School and College,www.woodleyschool.org.uk,Huddersfield,HD5 8JE,Yorkshire and the Humber,no
142574,382,Kirklees,"Woodside Green, A Share Primary Academy",https://www.woodsidegreenprimary.org.uk/,Huddersfield,HD4 5US,Yorkshire and the Humber,no
107601,382,Kirklees,Birkby Infant and Nursery School,http://www.birkbyinf.com,Huddersfield,HD1 5HQ,Yorkshire and the Humber,yes
107600,382,Kirklees,Carlton Junior and Infant School,www.carltonji.org.uk,Dewsbury,WF13 2DQ,Yorkshire and the Humber,yes
107623,382,Kirklees,Crow Lane Primary and Foundation Stage School,www.crowlane.org.uk,Huddersfield,HD3 4QT,Yorkshire and the Humber,yes
131849,382,Kirklees,Dalton School,http://www.daltonschool.co.uk,Huddersfield,HD5 9HN,Yorkshire and the Humber,yes
107592,382,Kirklees,Flatts Nursery School,http://www.flattsnursery.co.uk,Dewsbury,WF13 2SU,Yorkshire and the Humber,yes
107666,382,Kirklees,Gomersal Primary School,http://gomersal.schooljotter2.com/home,Cleckheaton,BD19 4PX,Yorkshire and the Humber,yes
107664,382,Kirklees,Grange Moor Primary School,www.grangemoorps.co.uk,Wakefield,WF4 4EW,Yorkshire and the Humber,yes
107684,382,Kirklees,High Bank Junior Infant and Nursery School,www.highbankschool.co.uk,Liversedge,WF15 8LD,Yorkshire and the Humber,yes
107671,382,Kirklees,Howard Park Community School,www.howardpark.co.uk,Cleckheaton,BD19 3SA,Yorkshire and the Humber,yes
107670,382,Kirklees,Littletown Junior Infant and Nursery School,http://www.littletownschool.org.uk/,Liversedge,WF15 6LP,Yorkshire and the Humber,yes
135030,382,Kirklees,Moorlands Primary School,http://www.moorlandsprimary.org.uk/page/default.asp?title=Home&pid=1,Huddersfield,HD3 3UH,Yorkshire and the Humber,yes
130925,382,Kirklees,Mount Pleasant Primary School,www.mountpleasantschool.co.uk/,Huddersfield,HD1 3QP,Yorkshire and the Humber,yes
107620,382,Kirklees,Netherhall Learning Campus Junior School,www.nlconline.org.uk,Huddersfield,HD5 9NT,Yorkshire and the Humber,yes
107660,382,Kirklees,Netherthong Primary School,http://www.netherthongprimary.co.uk,Holmfirth,HD9 3EB,Yorkshire and the Humber,yes
107615,382,Kirklees,Paddock Junior Infant and Nursery School,www.paddockjinschool.co.uk,Huddersfield,HD1 4JJ,Yorkshire and the Humber,yes
107622,382,Kirklees,Reinwood Infant and Nursery School,http://www.reinwoodinfantschool.co.uk,Huddersfield,HD3 4YL,Yorkshire and the Humber,yes
107677,382,Kirklees,Rowley Lane Junior Infant and Nursery School,www.rowleylane.co.uk,Huddersfield,HD8 0JD,Yorkshire and the Humber,yes
107674,382,Kirklees,Scholes Village Primary School,http://scholespri.kgfl.dbprimary.com,Cleckheaton,BD19 6DN,Yorkshire and the Humber,yes
107608,382,Kirklees,Shaw Cross Infant and Nursery School,www.shawcrossinfants.co.uk,Dewsbury,WF12 7HP,Yorkshire and the Humber,yes
107617,382,Kirklees,Spring Grove Junior Infant and Nursery School,www.springgrovejin.co.uk,Huddersfield,HD1 4BJ,Yorkshire and the Humber,yes
107613,382,Kirklees,Westmoor Primary School,http://www.westmoorprimaryschool.co.uk,Dewsbury,WF13 4EW,Yorkshire and the Humber,yes
