urn,district_code,district_name,school_name,website,town,postcode,region,has_email_collected
108427,391,Newcastle upon Tyne,Ashfield Nursery School,www.ashfield.newcastle.sch.uk,Newcastle-upon-Tyne,NE4 6JR,North East,no
138212,391,Newcastle upon Tyne,Atkinson Road Primary Academy,https://atkinsonroad.laidlawschoolstrust.co.uk,Newcastle-upon-Tyne,NE4 8XT,North East,no
144524,391,Newcastle upon Tyne,Beech Hill Primary School,www.beechhill.newcastle.sch.uk/,Newcastle-upon-Tyne,NE5 2LW,North East,no
144271,391,Newcastle upon Tyne,Benfield School,https://benfield.neat.org.uk/,Newcastle-upon-Tyne,NE6 4NU,North East,no
108459,391,Newcastle upon Tyne,Benton Park Primary School,www.bentonparkprimary.co.uk,Newcastle-upon-Tyne,NE7 7SS,North East,no
108466,391,Newcastle upon Tyne,Bridgewater Primary School,www.bridgewater.newcastle.sch.uk,Newcastle-upon-Tyne,NE15 6NL,North East,no
108468,391,Newcastle upon Tyne,Broadwood Primary School,http://www.broadwoodprimary.co.uk/website,Newcastle-upon-Tyne,NE15 7TB,North East,no
135286,391,Newcastle upon Tyne,Brunton First School,www.bruntonfirst.co.uk,Newcastle-upon-Tyne,NE13 9BD,North East,no
108458,391,Newcastle upon Tyne,Byker Primary School,www.bykerprimary.org,Newcastle-upon-Tyne,NE6 2AT,North East,no
148573,391,Newcastle upon Tyne,Callerton Academy,https://www.callertonacademy.org.uk/,Newcastle-upon-Tyne,NE1 3BT,North East,no
108461,391,Newcastle upon Tyne,Canning Street Primary School,www.canning.newcastle.sch.uk,Newcastle-upon-Tyne,NE4 8PA,North East,no
144270,391,Newcastle upon Tyne,Central Walker Church of England Primary School,centralwalkerce.neat.org.uk,Newcastle-upon-Tyne,NE6 2NP,North East,no
143271,391,Newcastle upon Tyne,Cheviot Primary School,https://www.cheviot.smartacademies.net/,Newcastle-upon-Tyne,NE5 4EB,North East,no
108463,391,Newcastle upon Tyne,Chillingham Road Primary School,www.chillingham.newcastle.sch.uk,Newcastle-upon-Tyne,NE6 5XX,North East,no
108493,391,Newcastle upon Tyne,Christ Church CofE Primary School,www.christchurch.newcastle.sch.uk,Newcastle upon Tyne,NE2 1XA,North East,no
108465,391,Newcastle upon Tyne,Cragside Primary School,www.cragsideprimary.co.uk,Newcastle-upon-Tyne,NE7 7EL,North East,no
148445,391,Newcastle upon Tyne,"English Martyrs' Catholic Primary School, Fenham",www.emcps.co.uk,Newcastle-upon-Tyne,NE5 2SA,North East,no
135423,391,Newcastle upon Tyne,Excelsior Academy,https://excelsior.laidlawschoolstrust.co.uk,Newcastle-upon-Tyne,NE15 6AF,North East,no
143272,391,Newcastle upon Tyne,Farne Primary School,https://www.farne.smartacademies.net/,Newcastle-upon-Tyne,NE5 4AP,North East,no
136352,391,Newcastle upon Tyne,Gosforth Academy,www.ga.newcastle.sch.uk,Newcastle-upon-Tyne,NE3 2JH,North East,no
108519,391,Newcastle upon Tyne,Gosforth Central Middle School,www.gosforthcent.newcastle.sch.uk,Newcastle-upon-Tyne,NE3 1UN,North East,no
108521,391,Newcastle upon Tyne,Gosforth East Middle School,www.gosfortheast.newcastle.sch.uk,Newcastle-upon-Tyne,NE3 5JT,North East,no
136348,391,Newcastle upon Tyne,Gosforth Junior High Academy,https://www.juniorhighacademy.org.uk/,Newcastle-upon-Tyne,NE3 1EE,North East,no
108442,391,Newcastle upon Tyne,Gosforth Park First School,www.gosforthpark.newcastle.sch.uk/,Newcastle-upon-Tyne,NE3 5JQ,North East,no
108444,391,Newcastle upon Tyne,Grange First School,https://www.grangefirst.co.uk/,Newcastle-upon-Tyne,NE3 2NP,North East,no
143923,391,Newcastle upon Tyne,Great Park Academy,https://www.greatparkacademy.org.uk/,Newcastle-upon-Tyne,NE3 2JH,North East,no
131986,391,Newcastle upon Tyne,Hadrian School,www.hadrian.newcastle.sch.uk,Newcastle-upon-Tyne,NE15 6PY,North East,no
108443,391,Newcastle upon Tyne,Havannah First School,www.havannah.newcastle.sch.uk,Newcastle-upon-Tyne,NE13 9FR,North East,no
108460,391,Newcastle upon Tyne,Hawthorn Primary School,www.hawthorn.newcastle.sch.uk/,Newcastle upon Tyne,NE4 6SB,North East,no
138995,391,Newcastle upon Tyne,Hilton Primary Academy,https://hpa.northerneducationtrust.org/,Newcastle-upon-Tyne,NE5 3RN,North East,no
146752,391,Newcastle upon Tyne,Jesmond Park Academy,www.jesmondparkacademy.org.uk,Newcastle-upon-Tyne,NE7 7DP,North East,no
143267,391,Newcastle upon Tyne,Kenton Bar Primary School,https://www.kentonbar.smartacademies.net/,Newcastle-upon-Tyne,NE3 3YF,North East,no
138120,391,Newcastle upon Tyne,Kenton School,https://ks.northernleaderstrust.org,Newcastle-upon-Tyne,NE3 3RU,North East,no
143270,391,Newcastle upon Tyne,Kingston Park Primary School,https://www.kingstonpark.smartacademies.net/,Newcastle-upon-Tyne,NE3 2EL,North East,no
150327,391,Newcastle upon Tyne,Knop Law Primary School,www.knoplaw.newcastle.sch.uk,Newcastle-upon-Tyne,NE5 1DS,North East,no
108456,391,Newcastle upon Tyne,Lemington Riverside Primary School,www.lemingtonriverside.newcastle.sch.uk/,Newcastle-upon-Tyne,NE15 8RR,North East,no
144358,391,Newcastle upon Tyne,Mary Astell Academy,www.maryastellacademy.co.uk,Newcastle-upon-Tyne,NE5 2LW,North East,no
150328,391,Newcastle upon Tyne,Milecastle Primary School,www.milecastle.newcastle.sch.uk,Newcastle-upon-Tyne,NE5 1LH,North East,no
108431,391,Newcastle upon Tyne,Monkchester Road Nursery School,www.monkchesterroad.newcastle.sch.uk,Newcastle-upon-Tyne,NE6 2LJ,North East,no
108492,391,Newcastle upon Tyne,Moorside Primary School,www.moorside.newcastle.sch.uk,Newcastle-upon-Tyne,NE4 5AW,North East,no
143269,391,Newcastle upon Tyne,Mountfield Primary School,https://www.mountfield.smartacademies.net/,Newcastle-upon-Tyne,NE3 3AT,North East,no
108430,391,Newcastle upon Tyne,Newburn Manor Nursery School,www.newburnmanornur.newcastle.sch.uk,Newcastle-upon-Tyne,NE15 8PY,North East,no
150325,391,Newcastle upon Tyne,Newburn Manor Primary School,http://www.newburnmanorprimary.co.uk,Newcastle upon Tyne,NE15 8PD,North East,no
145361,391,Newcastle upon Tyne,Newcastle Bridges School,www.bridges.newcastle.sch.uk,Newcastle-upon-Tyne,NE3 3RU,North East,no
145900,391,Newcastle upon Tyne,North East Futures UTC,www.nef.tynecoast.academy,Newcastle Upon Tyne,NE1 3AS,North East,no
143268,391,Newcastle upon Tyne,North Fawdon Primary School,https://www.northfawdon.smartacademies.net,Newcastle-upon-Tyne,NE3 2SL,North East,no
148273,391,Newcastle upon Tyne,Our Lady and St Anne's Catholic Primary School,www.olsa.org.uk,Newcastle-upon-Tyne,NE4 6EB,North East,no
108475,391,Newcastle upon Tyne,Ravenswood Primary School,www.ravenswoodprimary.co.uk,Newcastle upon Tyne,NE6 5TU,North East,no
108440,391,Newcastle upon Tyne,Regent Farm First School,www.regentfarmfirstschool.co.uk/,Newcastle-upon-Tyne,NE3 3PE,North East,no
137708,391,Newcastle upon Tyne,Sacred Heart Catholic High School,www.sacredheart-high.org,Newcastle-upon-Tyne,NE4 9YH,North East,no
145624,391,Newcastle upon Tyne,Sacred Heart Primary School,www.shprimary.org.uk,Newcastle-upon-Tyne,NE4 9XZ,North East,no
150329,391,Newcastle upon Tyne,Simonside Primary School,http://www.simonside.newcastle.sch.uk,Newcastle-upon-Tyne,NE5 4LG,North East,no
131987,391,Newcastle upon Tyne,Sir Charles Parsons School,www.scp.newcastle.sch.uk,Newcastle-upon-Tyne,NE6 4ED,North East,no
108439,391,Newcastle upon Tyne,South Gosforth First School,www.southgosforth.newcastle.sch.uk,Newcastle-upon-Tyne,NE3 1YF,North East,no
148447,391,Newcastle upon Tyne,"St Alban's Catholic Primary School, Walker",https://www.stalbansrcnewcastle.co.uk/,Newcastle-upon-Tyne,NE6 4HQ,North East,no
148446,391,Newcastle upon Tyne,"St Bede's Catholic Primary School, Newcastle",www.stbcps.co.uk,Newcastle-upon-Tyne,NE15 7HS,North East,no
148271,391,Newcastle upon Tyne,St Catherine's Catholic Primary School,www.stcatherinesnewcastle.org,Newcastle-upon-Tyne,NE2 1PS,North East,no
148269,391,Newcastle upon Tyne,St Charles' Catholic Primary School,www.stcharles.newcastle.sch.uk,Newcastle-upon-Tyne,NE3 3HE,North East,no
148270,391,Newcastle upon Tyne,St Cuthbert's Catholic Primary School,www.stcuthbertsw.co.uk,Newcastle-upon-Tyne,NE15 8JL,North East,no
137900,391,Newcastle upon Tyne,St Cuthbert's High School,www.st-cuthbertshigh.newcastle.sch.uk,Newcastle-upon-Tyne,NE15 7PX,North East,no
148978,391,Newcastle upon Tyne,"St Cuthberts Catholic Primary School, Kenton",www.stcuthbertsk.org,Newcastle-upon-Tyne,NE3 3QR,North East,no
148444,391,Newcastle upon Tyne,"St George's Catholic Primary School, Bells Close",www.stgcps.org,Newcastle-upon-Tyne,NE15 6XX,North East,no
148977,391,Newcastle upon Tyne,"St John Vianney Catholic Primary School, West Denton",www.stjohnvianneynewcastle.org,Newcastle-upon-Tyne,NE5 1DN,North East,no
108476,391,Newcastle upon Tyne,St Johns Primary School,www.stjohns.newcastle.sch.uk,Newcastle-upon-Tyne,NE4 8HE,North East,no
148812,391,Newcastle upon Tyne,"St Joseph's Catholic Primary School, Benwell",www.stjosephsrcprimary.co.uk/website,Newcastle-upon-Tyne,NE15 6JB,North East,no
148272,391,Newcastle upon Tyne,St Lawrence's Catholic Primary School,www.stlawrencesprimary.org.uk,Newcastle-upon-Tyne,NE6 2JX,North East,no
148443,391,Newcastle upon Tyne,"St Mark's Catholic Primary School, Westerhope",www.stmcps.org,Newcastle-upon-Tyne,NE5 4BT,North East,no
140081,391,Newcastle upon Tyne,St Mary's Catholic School,http://stmarysnewcastle.co.uk/,Newcastle-upon-Tyne,NE7 7PE,North East,no
144971,391,Newcastle upon Tyne,St Michael's Catholic Primary School,www.st-michaels.school,Newcastle-upon-Tyne,NE4 7RE,North East,no
148811,391,Newcastle upon Tyne,"St Oswald's Catholic Primary School, Gosforth",www.stoswaldsnewcastle.co.uk,Newcastle-upon-Tyne,NE3 5LE,North East,no
108502,391,Newcastle upon Tyne,St Paul's CofE Primary School,www.stpauls.newcastle.sch.uk,Newcastle-upon-Tyne,NE4 7JU,North East,no
148813,391,Newcastle upon Tyne,"St Teresa's Catholic Primary School, Heaton",www.stteresasnewcastle.org.uk,Newcastle-upon-Tyne,NE6 5HN,North East,no
148979,391,Newcastle upon Tyne,"St Vincents Catholic Primary School, Newcastle",http://www.stvincents.uk,Newcastle-upon-Tyne,NE6 2TX,North East,no
143266,391,Newcastle upon Tyne,Stocksfield Avenue Primary School,https://www.stocksfield.smartacademies.net/,Newcastle-upon-Tyne,NE5 2DQ,North East,no
140965,391,Newcastle upon Tyne,Studio West,www.sw.northernleaderstrust.org,Newcastle-upon-Tyne,NE5 2SZ,North East,no
146680,391,Newcastle upon Tyne,Thomas Bewick School,www.thomasbewick.newcastle.sch.uk,Newcastle-upon-Tyne,NE5 2LW,North East,no
140788,391,Newcastle upon Tyne,Thomas Walling Primary Academy,www.thomaswallingacademy.com,Newcastle-upon-Tyne,NE5 3PL,North East,no
150324,391,Newcastle upon Tyne,Throckley Primary School,www.throckleyprim.newcastle.sch.uk,Newcastle-upon-Tyne,NE15 9DY,North East,no
141865,391,Newcastle upon Tyne,Trinity Academy Newcastle,www.tanmat.org,Newcastle-upon-Tyne,NE4 8XJ,North East,no
142673,391,Newcastle upon Tyne,Trinity Solutions Academy,www.tanmat.org,Newcastle-upon-Tyne,NE4 8XJ,North East,no
144272,391,Newcastle upon Tyne,Tyneview Primary School,www.tyneview.neat.org.uk,Newcastle-upon-Tyne,NE6 3QP,North East,no
148135,391,Newcastle upon Tyne,Walbottle Academy,https://wba.northerneducationtrust.org/,Newcastle-upon-Tyne,NE15 9TP,North East,no
144559,391,Newcastle upon Tyne,Walbottle Village Primary School,www.walbottlevillage.newcastle.sch.uk,Newcastle-upon-Tyne,NE15 8JL,North East,no
145528,391,Newcastle upon Tyne,Walker Riverside Academy,www.wra.tynecoast.academy,Newcastle-upon-Tyne,NE6 4AW,North East,no
144273,391,Newcastle upon Tyne,Walkergate Community School,walkergate.neat.org.uk,Newcastle-upon-Tyne,NE6 4SD,North East,no
150549,391,Newcastle upon Tyne,Waverley Primary School,www.waverleyprimary.org,Newcastle-upon-Tyne,NE15 7QZ,North East,no
138577,391,Newcastle upon Tyne,Welbeck Academy,www.welbeckacademy.co.uk/,Newcastle-upon-Tyne,NE6 2QL,North East,no
150326,391,Newcastle upon Tyne,West Denton Primary School,www.westdenton.newcastle.sch.uk,Newcastle-upon-Tyne,NE5 1DN,North East,no
131203,391,Newcastle upon Tyne,West Jesmond Primary School,www.westjesmondprimary.org.uk/,Newcastle-upon-Tyne,NE2 3AJ,North East,no
139729,391,Newcastle upon Tyne,West Newcastle Academy,www.westnewcastleacademy.org,Newcastle-upon-Tyne,NE4 8QP,North East,no
144269,391,Newcastle upon Tyne,West Walker Primary School,www.westwalker.neat.org.uk,Newcastle-upon-Tyne,NE6 3XW,North East,no
150330,391,Newcastle upon Tyne,Westerhope Primary School,www.newcastle.gov.uk/,Newcastle-upon-Tyne,NE5 1NE,North East,no
144970,391,Newcastle upon Tyne,Westgate Hill Primary Academy,westgatehill.laidlawschoolstrust.co.uk,Newcastle-upon-Tyne,NE4 5JN,North East,no
108487,391,Newcastle upon Tyne,Wingrove Primary School,www.wingrove.newcastle.sch.uk,Newcastle-upon-Tyne,NE4 9HN,North East,no
143273,391,Newcastle upon Tyne,Wyndham Primary School,http://wyndham.smartacademies.net/,Newcastle-upon-Tyne,NE3 4QP,North East,no
108495,391,Newcastle upon Tyne,Archbishop Runcie CofE First School,www.archbishop-runcie.eschools.co.uk,Newcastle-upon-Tyne,NE3 1US,North East,yes
108438,391,Newcastle upon Tyne,Archibald First School,www.archibaldfirstschool.co.uk,Newcastle-upon-Tyne,NE3 1EB,North East,yes
108437,391,Newcastle upon Tyne,Dinnington First School,www.dinnington.newcastle.sch.uk,Newcastle-upon-Tyne,NE13 7JY,North East,yes
108491,391,Newcastle upon Tyne,Hotspur Primary School,www.hotspurprimary.co.uk,Newcastle-upon-Tyne,NE6 5PA,North East,yes
