urn,district_code,district_name,school_name,website,town,postcode,region,has_email_collected
108586,392,North Tyneside,Amberley Primary School,www.amberleyprimary.co.uk/,Newcastle-upon-Tyne,NE12 6SQ,North East,no
108584,392,North Tyneside,Appletree Gardens First School,www.appletreegardens.org.uk,Whitley Bay,NE25 8XS,North East,no
108580,392,North Tyneside,Backworth Park Primary School,backworthpark.com,Newcastle-upon-Tyne,NE27 0FZ,North East,no
108587,392,North Tyneside,Bailey Green Primary School,www.baileygreenprimary.org.uk/,Killingworth,NE12 6QL,North East,no
108603,392,North Tyneside,Balliol Primary School,http://www.balliolprimary.co.uk,Newcastle-upon-Tyne,NE12 8QP,North East,no
150332,392,North Tyneside,Battle Hill Primary School,battlehillps.org.uk,Wallsend,NE28 9DH,North East,no
131544,392,North Tyneside,Beacon Hill School,https://beaconhill.org.uk,North Tyneside,NE28 9JW,North East,no
108604,392,North Tyneside,Benton Dene Primary School,https://bentondeneprimaryschool.schooljotter2.com/,Newcastle-upon-Tyne,NE12 8FD,North East,no
108655,392,North Tyneside,Benton Dene School,www.bentondeneschool.org.uk,Newcastle upon Tyne,NE12 8FD,North East,no
108640,392,North Tyneside,Burnside College,http://www.burnsidecollege.org.uk,Wallsend,NE28 7LQ,North East,no
108612,392,North Tyneside,Burradon Community Primary School,http://www.burradoncommunityprimaryschool.co.uk/,Cramlington,NE23 7NG,North East,no
108592,392,North Tyneside,Carville Primary School,https://www.carvilleprimary.co.uk/,Wallsend,NE28 6AX,North East,no
108614,392,North Tyneside,Christ Church CofE Primary School,www.christchurchcofe.primary--school.org.uk/,North Shields,NE30 2AD,North East,no
108641,392,North Tyneside,Churchill Community College,http://www.churchillcommunitycollege.org/,Wallsend,NE28 7TN,North East,no
108602,392,North Tyneside,Collingwood Primary School,www.collingwoodprimary.org.uk/,North Shields,NE29 7JQ,North East,no
108590,392,North Tyneside,Coquet Park First School,www.coquetpark.co.uk,Whitley Bay,NE26 1TQ,North East,no
108569,392,North Tyneside,Cullercoats Primary School,www.cullercoatsprimaryschool.org.uk/,North Shields,NE30 4PB,North East,no
150334,392,North Tyneside,Denbigh Community Primary School,www.denbighps.org.uk,WALLSEND,NE28 0DS,North East,no
108611,392,North Tyneside,Fordley Primary School,www.fordleyschool.com/,Cramlington,NE23 7AL,North East,no
108605,392,North Tyneside,Forest Hall Primary School,www.foresthallprimary.co.uk,Newcastle-upon-Tyne,NE12 9BA,North East,no
108639,392,North Tyneside,George Stephenson High School,http://www.gshs.org.uk/,Newcastle-upon-Tyne,NE12 6SA,North East,no
138576,392,North Tyneside,Grasmere Academy,www.grasmereacademy.org.uk,Newcastle-upon-Tyne,NE12 6TS,North East,no
108609,392,North Tyneside,Greenfields Community Primary School,http://www.greenfieldsprimary.co.uk,Newcastle-upon-Tyne,NE13 6NB,North East,no
150348,392,North Tyneside,Hadrian Park Primary School,www.hadrianparkprimary.org.uk/,Wallsend,NE28 9RT,North East,no
108610,392,North Tyneside,Hazlewood Community Primary School,www.hazlewoodprimary.co.uk/,Newcastle-upon-Tyne,NE13 6JJ,North East,no
108581,392,North Tyneside,Holystone Primary School,www.holystoneprimaryschool.co.uk/,Newcastle-upon-Tyne,NE27 0DA,North East,no
108606,392,North Tyneside,Ivy Road Primary School,www.ivyroadprimary.org.uk,Newcastle upon Tyne,NE12 9AP,North East,no
150195,392,North Tyneside,John Spence Community High School,http://www.johnspence.org.uk/,North Shields,NE29 9PU,North East,no
108573,392,North Tyneside,King Edward Primary School,https://kingedward.org/,North Tyneside,NE30 2BD,North East,no
139658,392,North Tyneside,Kings Priory School,http://www.kingsprioryschool.co.uk/,North Shields,NE30 4RF,North East,no
108591,392,North Tyneside,Langley First School,www.langleyfirst.org.uk/,Whitley Bay,NE25 9DL,North East,no
108645,392,North Tyneside,Longbenton High School,http://longbenton.org.uk/,Newcastle-upon-Tyne,NE12 8ER,North East,no
108635,392,North Tyneside,Marden Bridge Middle School,https://www.mbms.org.uk,Whitley Bay,NE25 8RW,North East,no
108627,392,North Tyneside,Marden High School,www.mardenhigh.net,North Shields,NE30 3RZ,North East,no
108589,392,North Tyneside,Marine Park First School,www.marineparkfirst.co.uk/,Whitley Bay,NE26 1LT,North East,no
108576,392,North Tyneside,Monkhouse Primary School,www.monkhouseprimary.co.uk,North Shields,NE30 3SH,North East,no
108642,392,North Tyneside,Monkseaton High School,http://www.monkseaton.org.uk/,Whitley Bay,NE25 9EQ,North East,no
108637,392,North Tyneside,Monkseaton Middle School,http://www.monkseatonmiddle.org/,Whitley Bay,NE25 8JW,North East,no
108607,392,North Tyneside,New York Primary School,www.northtyneside.gov.uk/,North Shields,NE29 8DP,North East,no
108628,392,North Tyneside,Norham High School,http://www.norhamhigh.org,North Shields,NE29 7BU,North East,no
144279,392,North Tyneside,North Gosforth Academy,http://www.gosforthacademy.org.uk/north-gosforth,Newcastle-upon-Tyne,NE13 6EJ,North East,no
108572,392,North Tyneside,Percy Main Primary School,www.percymainprimary.org.uk,North Shields,NE29 6JA,North East,no
108578,392,North Tyneside,Preston Grange Primary School,www.pgps.co.uk,North Shields,NE29 9QL,North East,no
108599,392,North Tyneside,Redesdale Primary School,www.redesdale.co.uk/,Wallsend,NE28 8TS,North East,no
108596,392,North Tyneside,Richardson Dees Primary School,https://richardson-dees.eschools.co.uk/website,Wallsend,NE28 7RT,North East,no
108575,392,North Tyneside,Riverside Primary School,www.riversideprimary.org.uk,North Shields,NE29 6DQ,North East,no
108583,392,North Tyneside,Rockcliffe First School,www.rockcliffeschool.org.uk/,Whitley Bay,NE26 2NR,North East,no
108579,392,North Tyneside,Shiremoor Primary School,www.shiremoor-primary.co.uk/,Newcastle-upon-Tyne,NE27 0PW,North East,no
133432,392,North Tyneside,Silverdale School,,Wallsend,NE28 0HG,North East,no
108563,392,North Tyneside,Sir James Knott Memorial Nursery School,www.sirjamesknott.co.uk,North Shields,NE30 4AG,North East,no
108588,392,North Tyneside,South Wellfield First School,www.southwellfieldfs.org.uk,Whitley Bay,NE25 9QL,North East,no
108653,392,North Tyneside,Southlands School,,North Shields,NE30 2QR,North East,no
108585,392,North Tyneside,Southridge First School,www.southridgefirst.org.uk,Whitley Bay,NE25 9UD,North East,no
150331,392,North Tyneside,Spring Gardens Primary School,www.springgardensprimary.org.uk/,North Shields,NE29 0HP,North East,no
148814,392,North Tyneside,"St Aidan's Catholic Primary School, Wallsend",www.staidans.school,Wallsend,NE28 0EP,North East,no
108615,392,North Tyneside,St Bartholomew's Church of England Primary School (Aided),www.stbartscofeschool.org.uk,Newcastle-upon-Tyne,NE12 8FA,North East,no
148815,392,North Tyneside,"St Bernadette's Catholic Primary, Wallsend",www.st-bernadettesprimary.co.uk,Wallsend,NE28 9JW,North East,no
148816,392,North Tyneside,"St Columba's Catholic Primary School, Wallsend",www.stcolumbasprimary.co.uk,Wallsend,NE28 8EN,North East,no
148448,392,North Tyneside,"St Cuthbert's Catholic Primary School, North Shields",www.stcuthbertsrcprimary.co.uk,North Shields,NE29 0BU,North East,no
148449,392,North Tyneside,"St Joseph's Catholic Primary School, North Shields",http://www.stjosephsrc-primary.co.uk/,North Shields,NE29 7BT,North East,no
148450,392,North Tyneside,"St Mary's Catholic Primary School, North Shields",www.stmarysonline.co.uk/,North Shields,NE30 3EY,North East,no
148980,392,North Tyneside,"St Marys Catholic Primary School, Forest Hall",www.stmarysrcprimaryschool.co.uk,Newcastle-upon-Tyne,NE12 7AB,North East,no
150962,392,North Tyneside,St Peter's Church of England Primary School,,Wallsend,NE28 6PY,North East,no
148981,392,North Tyneside,"St Stephen's Catholic Primary School, Newcastle",www.ststephensprimaryschool.co.uk,Newcastle-upon-Tyne,NE12 8FA,North East,no
137734,392,North Tyneside,St Thomas More Catholic High School,https://stmacademy.org.uk,North Shields,NE29 8LF,North East,no
148451,392,North Tyneside,"Star of the Sea Catholic Primary School, Whitley Bay",www.staroftheseaschool.co.uk,Whitley Bay,NE25 9EG,North East,no
150333,392,North Tyneside,Stephenson Memorial Primary School,www.stephensonmemorial.co.uk/,Wallsend,NE28 0AG,North East,no
108636,392,North Tyneside,Valley Gardens Middle School,http://www.valleygardensmiddle.org/,Whitley Bay,NE25 9AQ,North East,no
108594,392,North Tyneside,Wallsend Jubilee Primary School,www.wallsendjubileeps.org.uk,Wallsend,NE28 9HA,North East,no
108649,392,North Tyneside,Wellfield Middle School,http://www.wellfieldmiddleschool.org.uk/,Whitley Bay,NE25 9QW,North East,no
133384,392,North Tyneside,Western Community Primary School,westerncommunityprimary.co.uk,Wallsend,NE28 8QL,North East,no
108582,392,North Tyneside,Westmoor Primary School,www.westmoorprimary.co.uk,Newcastle-upon-Tyne,NE12 6SA,North East,no
150021,392,North Tyneside,Whitehouse Primary School,https://whitehouse.neat.org.uk/,North Shields,NE29 8PE,North East,no
108638,392,North Tyneside,Whitley Bay High School,http://www.whitleybayhighschool.org/,Whitley Bay,NE25 9AS,North East,no
108600,392,North Tyneside,Whitley Lodge First School,www.whitleylodgeschool.org.uk/,Whitley Bay,NE26 3HW,North East,no
108652,392,North Tyneside,Woodlawn School,http://www.woodlawn.org.uk/,Whitley Bay,NE25 9DL,North East,no
108565,392,North Tyneside,Moorbridge,www.maeps.org.uk,Newcastle-upon-Tyne,NE27 0HJ,North East,yes
108571,392,North Tyneside,Waterville Primary School,www.watervilleprimary.org.uk,North Shields,NE29 6SL,North East,yes
