urn,district_code,district_name,school_name,website,town,postcode,region,has_email_collected
145477,394,Sunderland,Academy 360,https://academy360.laidlawschoolstrust.co.uk/,Sunderland,SR4 9BA,North East,no
138530,394,Sunderland,Barbara Priestman Academy,www.barbara-priestman.org.uk,Sunderland,SR2 7QN,North East,no
141045,394,Sunderland,Barnes Infant Academy,http://barnesinfant.org.uk/,Sunderland,SR4 7QF,North East,no
108755,394,Sunderland,Barnes Junior School,www.barnesjunior.co.uk/,Sunderland,SR4 7QF,North East,no
140700,394,Sunderland,Barnwell Academy,www.barnwellacademy.co.uk/,Houghton le Spring,DH4 7RT,North East,no
142882,394,Sunderland,Beacon of Light School,https://beaconoflight.laidlawschoolstrust.co.uk,Sunderland,SR5 1SN,North East,no
137831,394,Sunderland,Benedict Biscop Church of England Academy,www.benedictbiscopacademy.co.uk,Sunderland,SR3 2RE,North East,no
136487,394,Sunderland,Bexhill Academy,http://bexhill.wiseacademies.co.uk,Sunderland,SR5 4PJ,North East,no
139839,394,Sunderland,Biddick Academy,http://www.biddickacademy.com/,Washington,NE38 8AL,North East,no
108757,394,Sunderland,Broadway Junior School,www.broadwayjuniorschool.com,Sunderland,SR4 8NW,North East,no
142996,394,Sunderland,Burnside Academy Inspires,www.burnsideacademy.co.uk,Houghton le Spring,DH4 5HB,North East,no
135818,394,Sunderland,Castle View Enterprise Academy,http://www.castleviewenterpriseacademy.co.uk/,Sunderland,SR5 3DX,North East,no
138567,394,Sunderland,Christ's College,http://www.christscollege.org.uk/,Sunderland,SR4 8PG,North East,no
150096,394,Sunderland,Columbia Grange School,www.columbiagrange.org.uk,Washington,NE38 7NY,North East,no
148127,394,Sunderland,Consilium Evolve,https://www.consiliumevolve.co.uk/,Sunderland,SR2 7NA,North East,no
151412,394,Sunderland,Dame Dorothy Primary School,www.damedorothyprimary.co.uk/,Sunderland,SR6 0EA,North East,no
139849,394,Sunderland,Diamond Hall Infant Academy,www.diamondhallinfantacademy.co.uk,Sunderland,SR4 6JF,North East,no
143363,394,Sunderland,Diamond Hall Junior Academy,www.diamondhalljuniors.co.uk,Sunderland,SR4 6JF,North East,no
143524,394,Sunderland,Dubmire Primary,www.dubmire.co.uk,Houghton le Spring,DH4 6HL,North East,no
138331,394,Sunderland,East Herrington Primary Academy,http://www.ehpa.co.uk/,Sunderland,SR3 3PR,North East,no
108794,394,Sunderland,East Rainton Primary School,www.eastrainton.org.uk,Houghton le Spring,DH5 9RA,North East,no
148913,394,Sunderland,"English Martyrs' Catholic Primary School, Sunderland",www.englishmartyrssunderland.org.uk,Sunderland,SR5 5AU,North East,no
138213,394,Sunderland,Eppleton Academy Primary School,www.eppletonacademyprimary.co.uk/,Houghton le Spring,DH5 9AJ,North East,no
139103,394,Sunderland,Farringdon Academy,www.farringdonacademy.co.uk/,Sunderland,SR3 3DJ,North East,no
150268,394,Sunderland,Farringdon Community Academy,https://fca.northerneducationtrust.org/,Sunderland,SR3 3EL,North East,no
142997,394,Sunderland,Fatfield Academy,www.fatfieldacademy.co.uk,Washington,NE38 8RB,North East,no
139026,394,Sunderland,Fulwell Infant School Academy,http://www.fulwellinfant.org.uk,Sunderland,SR6 8ED,North East,no
108763,394,Sunderland,Fulwell Junior School,www.fulwelljunior.co.uk,Sunderland,SR6 9EE,North East,no
144220,394,Sunderland,George Washington Primary School,www.gwps.org.uk,Washington,NE37 1NL,North East,no
143493,394,Sunderland,Gillas Lane Primary Academy,www.gillaslaneprimaryschool.co.uk,Houghton le Spring,DH5 8EH,North East,no
108765,394,Sunderland,Grange Park Primary School,www.grangeparkprimary.co.uk,Sunderland,SR5 1EA,North East,no
108758,394,Sunderland,Grangetown Primary School,www.grangetown.sunderland.sch.uk/,Sunderland,SR2 8PX,North East,no
108766,394,Sunderland,Grindon Infant School,www.grindoninfantschoolsunderland.sch.uk,Sunderland,SR4 9QN,North East,no
147841,394,Sunderland,Harry Watts Academy,,Sunderland,SR5 5JA,North East,no
138976,394,Sunderland,Hasting Hill Academy,www.hastinghill.wiseacademies.co.uk,Sunderland,SR3 4LY,North East,no
149235,394,Sunderland,Hetton Academy,https://hta.northerneducationtrust.org/,Houghton le Spring,DH5 9JZ,North East,no
108750,394,Sunderland,Hetton Lyons Nursery School,www.hettonlyonsnursery.co.uk,Houghton Le Spring,DH5 0AH,North East,no
144225,394,Sunderland,Hetton Lyons Primary School,www.hettonlyonsprimaryschool.co.uk,Houghton le Spring,DH5 0AH,North East,no
108803,394,Sunderland,Hetton Primary School,www.hettonprimaryschool.co.uk/,Houghton le Spring,DH5 9ND,North East,no
144219,394,Sunderland,Highfield Academy,highfieldprimary.org.uk,Sunderland,SR4 0DA,North East,no
144222,394,Sunderland,Hill View Infant Academy,www.hillviewinfant.co.uk/,Sunderland,SR2 9JJ,North East,no
144224,394,Sunderland,Hill View Junior Academy,www.hillviewjuniors.co.uk,Sunderland,SR2 9HE,North East,no
138534,394,Sunderland,Holley Park Academy,http://www.holleyparkacademy.co.uk,Washington,NE38 0LR,North East,no
108746,394,Sunderland,Houghton Le Spring Nursery School,www.houghtonnurseryschool.org.uk,Houghton le Spring,DH5 8AE,North East,no
108772,394,Sunderland,Hudson Road Primary School,www.hudsonroad.org.uk/,Sunderland,SR1 2AH,North East,no
108748,394,Sunderland,Hylton Red House Nursery School,https://www.hyltonredhousenurseryschool.co.uk/,Sunderland,SR5 5QL,North East,no
144223,394,Sunderland,John F Kennedy Primary School,www.jfkprimary.co.uk,Washington,NE38 7AR,North East,no
137262,394,Sunderland,Kepier,http://www.kepier.com,Houghton le Spring,DH4 5BH,North East,no
108752,394,Sunderland,Mill Hill Nursery School,,Sunderland,SR3 2PJ,North East,no
147532,394,Sunderland,Monkwearmouth Academy,https://www.mwa.tynecoast.academy/,Sunderland,SR6 8LG,North East,no
139391,394,Sunderland,New Penshaw Academy,www.newpenshawacademy.co.uk,Houghton le Spring,DH4 7HY,North East,no
143414,394,Sunderland,New Silksworth Academy Infant,www.newsilksworthacademy.co.uk,Sunderland,SR3 1AS,North East,no
143415,394,Sunderland,New Silksworth Academy Junior,www.newsilksworthacademy.co.uk,Sunderland,SR3 1AS,North East,no
140584,394,Sunderland,Newbottle Primary Academy,www.newbottleprimaryacademy.co.uk,Houghton le Spring,DH4 4EE,North East,no
141153,394,Sunderland,North View Academy,northview.wiseacademies.co.uk,Sunderland,SR4 0HB,North East,no
149524,394,Sunderland,Northern Saints Church of England Academy,www.nsprimary.org.uk/,Sunderland,SR5 5QL,North East,no
147139,394,Sunderland,"Our Lady Queen of Peace Catholic Primary School, Penshaw",ourladyqueenofpeacepenshaw.bwcet.com,Houghton le Spring,DH4 7JZ,North East,no
138923,394,Sunderland,Oxclose Community Academy,https://www.oxclosecommunity.laidlawschoolstrust.co.uk/,Washington,NE38 0LN,North East,no
108751,394,Sunderland,Oxclose Nursery School,www.oxclosenursery.com,Washington,NE38 0LA,North East,no
140684,394,Sunderland,Oxclose Primary Academy,https://www.oxcloseprimary.laidlawschoolstrust.co.uk/,Washington,NE38 0LA,North East,no
108753,394,Sunderland,Pennywell Early Years Centre,www.pennywellearlyyears.org,Sunderland,SR4 9AX,North East,no
139389,394,Sunderland,Plains Farm Academy,www.plainsfarmacademy.co.uk,Sunderland,SR3 1SU,North East,no
138526,394,Sunderland,Portland Academy,http://www.portlandcollege.org/,Sunderland,SR3 2NQ,North East,no
135878,394,Sunderland,Red House Academy,https://rha.northerneducationtrust.org/,Sunderland,SR5 5LN,North East,no
137463,394,Sunderland,Redby Academy,https://www.rdb.tynecoast.academy/,Sunderland,SR6 9QP,North East,no
140928,394,Sunderland,Ryhope Infant School Academy,www.ryhopeinfantschool.org.uk/,Sunderland,SR2 0RT,North East,no
108787,394,Sunderland,Ryhope Junior School,http://www.ryhopejuniors.co.uk,Sunderland,SR2 0RT,North East,no
141986,394,Sunderland,Sandhill View Academy,,Sunderland,SR3 4EN,North East,no
108786,394,Sunderland,Seaburn Dene Primary School,www.seaburndeneprimary.co.uk,Sunderland,SR6 8LG,North East,no
108826,394,Sunderland,Shiney Row Primary School,www.shineyrowschool.org.uk,Houghton le Spring,DH4 4QP,North East,no
144447,394,Sunderland,South Hylton Primary Academy,https://southhylton.laidlawschoolstrust.co.uk,Sunderland,SR4 0LS,North East,no
138103,394,Sunderland,Southmoor Academy,http://www.southmoorschool.co.uk/,Sunderland,SR2 7TF,North East,no
108769,394,Sunderland,Southwick Community Primary School,www.southwickprimary.co.uk/,Southwick,SR5 2JX,North East,no
148780,394,Sunderland,Springwell Village Primary School,www.springwellvillageprimaryschool.co.uk/,Gateshead,NE9 7RX,North East,no
139538,394,Sunderland,St Aidan's Catholic Academy,http://www.staidanscatholicacademy.co.uk/,Sunderland,SR2 7HJ,North East,no
108843,394,Sunderland,St Anne's Roman Catholic Voluntary Aided Primary School,https://www.stannesrcprimary.org.uk/,Sunderland,SR4 9AA,North East,no
138054,394,Sunderland,St Anthony's Girls' Catholic Academy,www.st-anthonys-academy.com,Sunderland,SR2 7JN,North East,no
147138,394,Sunderland,"St Bede's Catholic Primary School, Washington",stbedeswashington.bwcet.com,Washington,NE37 2NP,North East,no
108837,394,Sunderland,St Benet's Roman Catholic Voluntary Aided Primary School,,Sunderland,SR6 9QU,North East,no
149036,394,Sunderland,"St Cuthbert's Catholic Primary School, Sunderland",www.stcuthbertsprimaryschool.co.uk/,Sunderland,SR4 8HP,North East,no
148782,394,Sunderland,"St John Bosco Catholic Primary School, Town End Farm, Sunderland",www.stjohnboscosunderland.org.uk,Sunderland,SR5 4JW,North East,no
147147,394,Sunderland,"St John Boste Catholic Primary School, Washington",http://www.stjohnbosteprimary.org.uk,Washington,NE38 0HL,North East,no
148912,394,Sunderland,"St Joseph's Catholic Primary School, Sunderland",www.stjosephssunderland.school,Sunderland,SR4 6HY,North East,no
147123,394,Sunderland,"St Joseph's Catholic Primary School, Washington",https://stjosephswashington.bwcet.com/,Washington,NE38 7HU,North East,no
148277,394,Sunderland,"St Leonard's Catholic Primary School, Silksworth",www.stleonardsprimary.org.uk,Sunderland,SR3 2BB,North East,no
148781,394,Sunderland,"St Mary's Catholic Primary School, Sunderland",www.smrc.school,Sunderland,SR2 7QN,North East,no
147131,394,Sunderland,"St Michael's Catholic Primary School, Houghton",www.stmichaelshoughton.bwcet.com,Houghton le Spring,DH5 8NF,North East,no
148452,394,Sunderland,"St Patrick's Catholic Primary School, Ryhope",www.stpatricksryhope.co.uk,Sunderland,SR2 0RQ,North East,no
147142,394,Sunderland,"St Robert of Newminster Catholic School and Sixth Form College, Washington",http://strobertofnewminster.co.uk/,Washington,NE38 8AF,North East,no
108882,394,Sunderland,Sunningdale School,www.sunningdaleschool.com,Sunderland,SR3 2PP,North East,no
135640,394,Sunderland,The Link School,www.linkschool.org.uk,Sunderland,SR3 4EE,North East,no
144990,394,Sunderland,Thornhill Academy,https://www.thornhillschool.org.uk,Sunderland,SR2 7NA,North East,no
136486,394,Sunderland,Town End Academy,townend.wiseacademies.co.uk,Sunderland,SR5 4NX,North East,no
146640,394,Sunderland,Trinity Academy New Bridge,www.tanmat.org,Sunderland,SR5 3NF,North East,no
108749,394,Sunderland,Usworth Colliery Nursery School,https://usworthcollierynursery.co.uk/,Washington,NE37 3BL,North East,no
144221,394,Sunderland,Valley Road Academy,www.valleyroadschool.co.uk/,Sunderland,SR2 8PL,North East,no
139184,394,Sunderland,Venerable Bede Church of England Academy,http://www.venerablebede.co.uk/,Sunderland,SR2 0SX,North East,no
144937,394,Sunderland,Washington Academy,http://www.washingtonacademy.co.uk/,Washington,NE37 2AA,North East,no
134532,394,Sunderland,Wessington Primary School,www.wessingontprimary.org.uk,Washington,NE38 7PY,North East,no
108783,394,Sunderland,Willow Wood Community Primary School,www.wwprimary.org.uk,Sunderland,SR5 5AU,North East,no
131036,394,Sunderland,Albany Village Primary School,www.albanyvillageprimary.org.uk,Washington,NE37 1UA,North East,yes
108835,394,Sunderland,Barmston Village Primary School,www.barmston.com,Washington,NE38 8JA,North East,yes
108830,394,Sunderland,Bernard Gilpin Primary School,www.bernardgilpin.com,Houghton le Spring,DH5 8DA,North East,yes
108816,394,Sunderland,Biddick Primary School,www.biddickprimary.sunderland.sch.uk,Washington,NE38 7HQ,North East,yes
108833,394,Sunderland,Blackfell Primary School,www.blackfell.co.uk,Washington,NE37 1HA,North East,yes
108792,394,Sunderland,Castletown Primary School,castletownprimary.org.uk,Sunderland,SR5 3EQ,North East,yes
108795,394,Sunderland,Easington Lane Primary School,www.easingtonlaneprimary.org.uk,Houghton le Spring,DH5 0JT,North East,yes
108832,394,Sunderland,Hylton Castle Primary School,www.hyltoncastleprimary.org.uk,Sunderland,SR5 3RE,North East,yes
108817,394,Sunderland,Lambton Primary School,www.lambtonprimary.co.uk/,Washington,NE38 0PL,North East,yes
108822,394,Sunderland,Marlborough Primary School,www.marlboroughprimaryschool.co.uk,Washington,NE37 3BG,North East,yes
108784,394,Sunderland,Mill Hill Primary School,www.millhillprimaryschool.co.uk/,Sunderland,SR3 2PJ,North East,yes
108819,394,Sunderland,Richard Avenue Primary School,www.richardavenue.co.uk/,Sunderland,SR4 7LQ,North East,yes
108818,394,Sunderland,Rickleton Primary School,www.rickletonprimary.co.uk,Washington,NE38 9EZ,North East,yes
108836,394,Sunderland,St Paul's CofE Primary School,www.stpaulsryhope.co.uk/,Sunderland,SR2 0LW,North East,yes
108828,394,Sunderland,Thorney Close Primary School,www.thorneycloseprimary.org.uk,Sunderland,SR3 4BB,North East,yes
108799,394,Sunderland,Usworth Colliery Primary School,www.usworthcolliery.co.uk/,Washington,NE37 3BL,North East,yes
