urn,district_code,district_name,school_name,website,town,postcode,region,has_email_collected
108911,801,"Bristol, City of",Ashley Down Primary School,www.ashleydownschool.org.uk,Bristol,BS7 9PD,South West,no
150919,801,"Bristol, City of",Ashton Gate Primary School,www.ashtongate.bristol.sch.uk/,Bristol,BS3 1SZ,South West,no
145398,801,"Bristol, City of",Ashton Park School,www.ashtonpark.net,Bristol,BS3 2JL,South West,no
145321,801,"Bristol, City of",Ashton Vale Primary School,https://www.ashtonvale.bristol.sch.uk/,Bristol,BS3 2QG,South West,no
147652,801,"Bristol, City of",Avanti Gardens School,https://avanti.org.uk/avantigardens/,Bristol,BS16 2JP,South West,no
109140,801,"Bristol, City of",Avonmouth Church of England Primary School and Nursery,www.avonmouthp.co.uk,Bristol,BS11 9LG,South West,no
144779,801,"Bristol, City of",Badocks Wood E-ACT Academy,https://badockswoodacademy.e-act.org.uk/,Bristol,BS10 5PU,South West,no
138204,801,"Bristol, City of",Bedminster Down School,http://www.bedminsterdown.org.uk,Bristol,BS13 7DQ,South West,no
138655,801,"Bristol, City of",Begbrook Primary Academy,www.begbrookprimaryacademy.clf.uk,Bristol,BS16 1HG,South West,no
109116,801,"Bristol, City of",Bishop Road Primary School,www.bishoproad.bristol.sch.uk/,Bristol,BS7 8LS,South West,no
147219,801,"Bristol, City of",Blaise High School,www.blaisehighschool.co.uk,Bristol,BS10 7QH,South West,no
109118,801,"Bristol, City of",Blaise Primary and Nursery School,www.blaise.bristol.sch.uk,Bristol,BS10 7EJ,South West,no
149296,801,"Bristol, City of",Bridge Farm Primary School,www.bridgefarmschool.org.uk,Bristol,BS14 0LL,South West,no
139049,801,"Bristol, City of",Bridge Learning Campus,http://www.bridgelearningcampus.org.uk/,Bristol,BS13 0RL,South West,no
135300,801,"Bristol, City of",Bristol Brunel Academy,http://www.bba.bristol.sch.uk/,Bristol,BS15 1NU,South West,no
135575,801,"Bristol, City of",Bristol Cathedral Choir School,http://bccs.bristol.sch.uk/,Bristol,BS1 5TS,South West,no
136822,801,"Bristol, City of",Bristol Free School,http://www.bristolfreeschool.org.uk/,Bristol,BS10 6NJ,South West,no
133689,801,"Bristol, City of",Bristol Hospital Education Service,,Bristol,BS6 5JL,South West,no
135959,801,"Bristol, City of",Bristol Metropolitan Academy,www.bristolmet.net,Bristol,BS16 2HD,South West,no
108919,801,"Bristol, City of",Broomhill Junior School,www.broomhill-jun.bristol.sch.uk/,Bristol,BS4 4NZ,South West,no
108910,801,"Bristol, City of",Brunel Field Primary School,www.brunelfieldschool.org.uk,Bristol,BS7 9JT,South West,no
149121,801,"Bristol, City of",Cabot Primary School,https://cabot.excalibur.org.uk/,Bristol,BS2 9JE,South West,no
139828,801,"Bristol, City of",Cathedral Primary School,www.cathedralprimaryschool.org/,Bristol,BS1 5TS,South West,no
146687,801,"Bristol, City of",Cheddar Grove Primary School,www.cheddargroveschool.org.uk,Bristol,BS13 7EN,South West,no
108921,801,"Bristol, City of",Chester Park Infant School,www.chesterparkschools.org,Bristol,BS16 3QG,South West,no
108920,801,"Bristol, City of",Chester Park Junior School,www.chesterpark-jun.bristol.sch.uk/,Bristol,BS16 3NX,South West,no
138317,801,"Bristol, City of",Christ Church Church of England Primary School,www.christchurch.bristol.sch.uk,Bristol,BS8 3AW,South West,no
109391,801,"Bristol, City of",Claremont School,www.claremontbristol.org.uk,Bristol,BS9 4LR,South West,no
145320,801,"Bristol, City of",Compass Point Primary School,www.compasspoint.bristol.sch.uk,Bristol,BS3 3AU,South West,no
138708,801,"Bristol, City of",Cotham Gardens Primary School,www.cothamgardens.co.uk,Bristol,BS6 6AL,South West,no
137440,801,"Bristol, City of",Cotham School,http://www.cotham.bristol.sch.uk/,Bristol,BS6 6DT,South West,no
139050,801,"Bristol, City of",E-Act Bannerman Road Community Academy,http://www.bannermanroadbristol.org,Bristol,BS5 0HR,South West,no
151299,801,"Bristol, City of",E-Act Barton Hill Academy,,Bristol,BS5 9TX,South West,no
140269,801,"Bristol, City of",E-Act Fairlawn Primary School,www.fairlawnschoolbristol.org,Montpelier,BS6 5JL,South West,no
151302,801,"Bristol, City of",E-Act Merchants' Academy,,Bristol,BS13 9AJ,South West,no
151303,801,"Bristol, City of",E-Act Montpelier High School,www.montpschool.org,Bristol,BS6 5RD,South West,no
137068,801,"Bristol, City of",E-Act St Ursula's Academy,https://stursulasacademy.e-act.org.uk/,Bristol,BS9 4DT,South West,no
142780,801,"Bristol, City of",E-Act Venturers' Academy,www.venturersacademy.org,Bristol,BS13 9AX,South West,no
138377,801,"Bristol, City of",E-Act the Dolphin School,http://www.dolphinschoolbristol.org/,Bristol,BS6 5PT,South West,no
139247,801,"Bristol, City of",E-Act the Kingfisher School,www.kingfisherschoolbristol.org,Bristol,BS4 4BJ,South West,no
141110,801,"Bristol, City of",Easton CofE Primary School,eceps.org.uk,Bristol,BS5 0SQ,South West,no
109385,801,"Bristol, City of",Elmfield School for Deaf Children,www.elmfield.bristol.sch.uk,Bristol,BS7 0PU,South West,no
147476,801,"Bristol, City of",Elmlea Infant School,https://www.elmleaschoolstrust.com/,Bristol,BS9 3UU,South West,no
136830,801,"Bristol, City of",Elmlea Junior School,https://www.elmleaschoolstrust.com/,Bristol,BS9 3UF,South West,no
146101,801,"Bristol, City of",Evergreen Primary Academy,www.evergreenprimaryacademy.clf.uk,Bristol,BS5 0YR,South West,no
109130,801,"Bristol, City of",Fair Furlong Primary School,www.fairfurlong.bristol.sch.uk/,Bristol,BS13 9HS,South West,no
141705,801,"Bristol, City of",Fairfield High School,http://www.fairfield.excalibur.org.uk,Bristol,BS7 9NL,South West,no
108894,801,"Bristol, City of",Filton Avenue Nursery School,www.filtonavenue.org,Bristol,BS7 0DL,South West,no
138668,801,"Bristol, City of",Filton Avenue Primary School,http://www.filtonavenue.com,Bristol,BS7 9RP,South West,no
138794,801,"Bristol, City of",Fishponds CofE Primary School,fceps.org.uk,Bristol,BS16 3UH,South West,no
144892,801,"Bristol, City of",Fonthill Primary Academy,https://www.fonthill.bristol.sch.uk/,Bristol,BS10 5SW,South West,no
138791,801,"Bristol, City of",Frome Vale Academy,https://fromevaleacademy.clf.uk/,Bristol,BS16 2QS,South West,no
108931,801,"Bristol, City of",Glenfrome Primary School,www.glenfrome.bristol.sch.uk/,Bristol,BS5 6TY,South West,no
138709,801,"Bristol, City of",Greenfield E-ACT Primary Academy,https://greenfieldacademy.e-act.org.uk/,Bristol,BS4 1QW,South West,no
109110,801,"Bristol, City of",Hannah More Primary School,www.hannahmore.org.uk,Bristol,BS2 0LT,South West,no
143403,801,"Bristol, City of",Hareclive E-ACT Academy,https://harecliveacademy.e-act.org.uk/,Bristol,BS13 0HP,South West,no
108906,801,"Bristol, City of",Hartcliffe Nursery School and Children's Centre,www.hartcliffenursery.co.uk,Bristol,BS13 0JW,South West,no
144864,801,"Bristol, City of",Headley Park Primary School,www.headleypark.bristol.sch.uk/,Bristol,BS13 7QB,South West,no
139116,801,"Bristol, City of",Henbury Court Primary Academy,https://henbury.tila.school/,Bristol,BS10 7NY,South West,no
150940,801,"Bristol, City of",Henleaze Infant School,www.henleaze-inf.bristol.sch.uk,Bristol,BS9 4LG,South West,no
137518,801,"Bristol, City of",Henleaze Junior School,www.henleazejuniorschool.co.uk,Bristol,BS9 4LG,South West,no
131522,801,"Bristol, City of",Hillcrest Primary School,www.hillcrest.bristol.sch.uk/,Bristol,BS4 3DE,South West,no
109244,801,"Bristol, City of",Holy Cross RC Primary School,www.holycross.bristol.sch.uk/,Bristol,BS3 1DB,South West,no
109143,801,"Bristol, City of",Horfield Church of England Primary School,www.horfieldceprimaryschool.org/,Bristol,BS10 5BD,South West,no
140728,801,"Bristol, City of",Hotwells Primary School,www.hotwellsprimaryschool.org,Bristol,BS8 4ND,South West,no
137700,801,"Bristol, City of",Ilminster Avenue E-ACT Academy,https://ilminsteravenueacademy.e-act.org.uk/,Bristol,BS4 1BX,South West,no
108896,801,"Bristol, City of",Ilminster Avenue Nursery School,www.ilminsterchildren.com,Bristol,BS4 1BX,South West,no
109386,801,"Bristol, City of",Kingsweston School,,Bristol,BS11 0UT,South West,no
144655,801,"Bristol, City of",Knowle DGE Academy,www.knowle-dge.learnmat.uk,Bristol,BS4 1QY,South West,no
134241,801,"Bristol, City of",Knowle West Early Years Centre,,Bristol,BS4 1NN,South West,no
150226,801,"Bristol, City of",Lansdown Park Academy,https://lansdownparkacademy.clf.uk/,Bristol,BS14 8SJ,South West,no
108895,801,"Bristol, City of",Little Hayes Nursery School,www.littlehayes.org,Bristol,BS16 2LL,South West,no
138900,801,"Bristol, City of",Little Mead Primary Academy,https://littlemead.tila.school/,Bristol,BS10 6DS,South West,no
145399,801,"Bristol, City of",Luckwell Primary School,https://www.luckwell.bristol.sch.uk/,Bristol,BS3 3ET,South West,no
146964,801,"Bristol, City of",May Park Primary School,https://www.maypark.bristol.sch.uk/,Bristol,BS5 6LE,South West,no
138789,801,"Bristol, City of",Minerva Primary Academy,https://minervaprimaryacademy.clf.uk/,Bristol,BS16 4HA,South West,no
109393,801,"Bristol, City of",New Fosseway School,www.newfossewayschool.co.uk,Bristol,BS13 0RG,South West,no
148322,801,"Bristol, City of",North Star 240°,https://ns240.northstar-academy.co.uk/,Bristol,BS11 0QA,South West,no
149843,801,"Bristol, City of",North Star 265°,https://ns265.northstar-academy.co.uk/,Bristol,BS9 2NT,South West,no
148296,801,"Bristol, City of",North Star 82°,https://ns82.northstar-academy.co.uk,Bristol,BS10 7AH,South West,no
144286,801,"Bristol, City of",Notton House Academy,https://www.nottonhouseacademy.org.uk/,Chippenham,SN15 2NF,South West,no
151366,801,"Bristol, City of",Nova Primary School,novaprimaryschool.co.uk,Bristol,BS11 9NG,South West,no
138409,801,"Bristol, City of",Oasis Academy Bank Leaze,www.oasisacademybankleaze.org/,Bristol,BS11 0SN,South West,no
135671,801,"Bristol, City of",Oasis Academy Brightstowe,http://www.oasisacademybrightstowe.org/,Bristol,BS11 0EB,South West,no
141652,801,"Bristol, City of",Oasis Academy Brislington,http://www.oasisacademybrislington.org/,Bristol,BS4 5EY,South West,no
138278,801,"Bristol, City of",Oasis Academy Connaught,www.oasisacademyconnaught.org/,Bristol,BS4 1NH,South West,no
149783,801,"Bristol, City of",Oasis Academy Daventry Road,www.oasisacademydaventryroad.org,Bristol,BS14 9SQ,South West,no
135663,801,"Bristol, City of",Oasis Academy John Williams,http://www.oasisacademyjohnwilliams.org/,Bristol,BS14 9BU,South West,no
140409,801,"Bristol, City of",Oasis Academy Long Cross,www.oasisacademylongcross.org/,Bristol,BS11 0LP,South West,no
140268,801,"Bristol, City of",Oasis Academy Marksbury Road,http://www.oasisacademymarksburyroad.org/,Bedminster,BS3 5JL,South West,no
138710,801,"Bristol, City of",Oasis Academy New Oak,www.oasisacademynewoak.org,Bristol,BS14 9SN,South West,no
149784,801,"Bristol, City of",Oasis Academy Temple Quarter,www.oasisacademytemplequarter.org,Bristol,BS3 4PZ,South West,no
138448,801,"Bristol, City of",Orchard School Bristol,www.orchardschoolbristol.co.uk,Bristol,BS7 0XZ,South West,no
109251,801,"Bristol, City of","Our Lady of the Rosary Catholic Primary School, Bristol",www.ourladyoftherosary.org.uk,Bristol,BS11 0PA,South West,no
138904,801,"Bristol, City of",Parson Street Primary School,www.parsonstreet.com,Bristol,BS3 5NR,South West,no
144880,801,"Bristol, City of",Perry Court E-ACT Academy,https://perrycourtacademy.e-act.org.uk/,Hengrove,BS14 0AX,South West,no
108904,801,"Bristol, City of",Redcliffe Childrens Centre and Maintained Nursery School,http://www.redcliffenurseryschool.co.uk,Bristol,BS1 6RR,South West,no
140267,801,"Bristol, City of",Redfield Educate Together Primary Academy,http://www.redfieldet.org.uk/,Bristol,BS5 9RH,South West,no
138855,801,"Bristol, City of",Redland Green School,www.redlandgreen.bristol.sch.uk,Bristol,BS6 7EH,South West,no
108898,801,"Bristol, City of",Rosemary Nursery School and Children's Centre,https://centralbristolnurseryschool.com,Bristol,BS2 0DT,South West,no
109243,801,"Bristol, City of",School of Christ The King Catholic Primary,www.ctk.education,Bristol,BS4 1HD,South West,no
108960,801,"Bristol, City of",Sefton Park Infant School,www.seftonparkschools.co.uk,Bristol,BS7 9BJ,South West,no
108961,801,"Bristol, City of",Sefton Park Junior School,www.seftonparkschools.co.uk,Bristol,BS7 9BJ,South West,no
142569,801,"Bristol, City of",Snowdon Village,www.snowdonvillage.clf.uk,Bristol,BS5 9QR,South West,no
147889,801,"Bristol, City of",Soundwell Academy,https://www.soundwellacademy.org.uk/,Kingswood,BS16 4RL,South West,no
108900,801,"Bristol, City of",Speedwell Nursery School,https://littlehayesandspeedwellnurseryschools.co.uk,Bristol,BS5 7SY,South West,no
109245,801,"Bristol, City of",Ss Peter and Paul RC Primary School,http://www.sspeterandpaulprimary.co.uk/,Bristol,BS6 6HY,South West,no
108956,801,"Bristol, City of",St Anne's Infant School,http://www.stannesinfants.co.uk,Bristol,BS4 3QJ,South West,no
137627,801,"Bristol, City of",St Bede's Catholic College,http://www.stbedescc.org/,Bristol,BS11 0SU,South West,no
109331,801,"Bristol, City of",St Bernadette Catholic Secondary School,www.stberns.bristol.sch.uk,Bristol,BS14 9LS,South West,no
109254,801,"Bristol, City of",St Bernadette Catholic Voluntary Aided Primary School,http://www.st-bernadette-pri.bristol.sch.uk/,Bristol,BS14 9LP,South West,no
148942,801,"Bristol, City of",St Bernard's Catholic Primary School,stbernardsprimary.co.uk,BRISTOL,BS11 9TU,South West,no
151174,801,"Bristol, City of",St Bonaventure's Catholic Primary School,http://www.st-bonaventures.bristol.sch.uk,Bristol,BS7 8HP,South West,no
109146,801,"Bristol, City of","St Johns Church of England Primary School, Clifton",www.stjohnsprimary.org.uk,Bristol,BS8 2UH,South West,no
109247,801,"Bristol, City of",St Joseph's Catholic Primary School,www.st-josephs-pri.bristol.sch.uk/,Bristol,BS16 3QR,South West,no
144724,801,"Bristol, City of",St Mary Redcliffe Church of England Primary School,smrp.org.uk,Bristol,BS3 4DP,South West,no
109327,801,"Bristol, City of",St Mary Redcliffe and Temple School,www.smrt.bristol.sch.uk,Bristol,BS1 6RT,South West,no
144285,801,"Bristol, City of",St Matthias Academy,https://www.stmatthiasacademy.org.uk/,Bristol,BS16 2BG,South West,no
149915,801,"Bristol, City of",St Nicholas of Tolentine Catholic Primary School,,Bristol,BS5 0TJ,South West,no
138465,801,"Bristol, City of",St Patrick's Catholic Primary School,www.stpatricksbristol.org.uk/,Bristol,BS5 8AS,South West,no
108901,801,"Bristol, City of",St Pauls Nursery School & Children's Centre,http://www.stpaulschildrenscentre.bristol.sch.uk,Bristol,BS2 9JF,South West,no
108893,801,"Bristol, City of",St Philips Marsh Nursery School and Barton Hill Childrens Centre/Cashmore Early Years Centre,www.stphilipsmarshnursery.co.uk,Bristol,BS2 0SU,South West,no
139033,801,"Bristol, City of",St Teresa's Catholic Primary School,www.st-teresas.bristol.sch.uk,Bristol,BS7 0UP,South West,no
148679,801,"Bristol, City of",St Werburgh's Primary School,www.stwerburghsprimary.com,Bristol,BS2 9US,South West,no
108902,801,"Bristol, City of",St Werburghs Park Nursery School,centralbristolnurseryschool.com,Bristol,BS2 9UX,South West,no
139505,801,"Bristol, City of",Stoke Bishop Church of England Primary School,www.stokebishop.bristol.sch.uk/,Bristol,BS9 1BW,South West,no
146261,801,"Bristol, City of",Stoke Park Primary School,www.stokeparkprimary.org,Bristol,BS7 9BY,South West,no
138658,801,"Bristol, City of",Summerhill Academy,www.summerhillacademy.org.uk/,Bristol,BS5 7JU,South West,no
144509,801,"Bristol, City of",The City Academy Bristol,https://cityacademybristol.clf.uk/,Bristol,BS5 9JH,South West,no
108905,801,"Bristol, City of",The Limes Nursery School,https://www.centralbristolnurseryschool.com,Bristol,BS5 9AT,South West,no
147072,801,"Bristol, City of",Trinity Academy,www.trinityacademybristol.org,Bristol,BS7 9BY,South West,no
151116,801,"Bristol, City of",Two Mile Hill Primary School,www.twomilehillprimary.co.uk,Bristol,BS15 8AA,South West,no
108970,801,"Bristol, City of",Upper Horfield Primary School,http://www.upperhorfield.bristol.sch.uk,Bristol,BS7 0PU,South West,no
144863,801,"Bristol, City of",Victoria Park Primary School,www.victoriaparkprimary.co.uk,Bristol,BS3 4QS,South West,no
146572,801,"Bristol, City of",Wansdyke Primary School,www.wansdykeschool.org.uk,Bristol,BS14 0DU,South West,no
137212,801,"Bristol, City of",Waycroft Academy,https://waycroftacademy.clf.uk/,Bristol,BS14 8PS,South West,no
137762,801,"Bristol, City of",West Town Lane Academy,www.wtl.academy,Bristol,BS4 5DT,South West,no
138531,801,"Bristol, City of",Westbury Park School,http://www.westburyparkschool.co.uk,Bristol,BS6 7NU,South West,no
137062,801,"Bristol, City of",Westbury-On-Trym Church of England Academy,http://www.westburyontrym.academy/,Bristol,BS9 3HZ,South West,no
109132,801,"Bristol, City of",Whitehall Primary School,,Bristol,BS5 9AT,South West,no
150718,801,"Bristol, City of",Wicklea Academy,https://wickleaacademy.eschools.co.uk/web,Bristol,BS4 4HR,South West,no
148841,801,"Bristol, City of",Willow Park CofE Primary School,www.willowpark.org.uk,,BS2 8BE,South West,no
142032,801,"Bristol, City of",Woodlands Academy,woodlandsacademy.clf.uk/,Bristol,BS14 8DQ,South West,no
135867,801,"Bristol, City of",Air Balloon Hill Primary School,www.abhps.com/,Bristol,BS5 7PB,South West,yes
108980,801,"Bristol, City of",Brentry Primary School,www.brentryprimaryschool.org.uk,Bristol,BS10 6RG,South West,yes
109410,801,"Bristol, City of",Briarwood School,www.briarwoodschool.org.uk,Bristol,BS16 4EA,South West,yes
108983,801,"Bristol, City of",Broomhill Infant & Nursery School,www.broomhill-inf.bristol.sch.uk,Bristol,BS4 4UY,South West,yes
141706,801,"Bristol, City of",Four Acres Academy,www.fouracresacademy.org.uk/,Bristol,BS13 8RB,South West,yes
108975,801,"Bristol, City of",Holymead Primary School,www.holymeadp.bristol.sch.uk/,Bristol,BS4 4LE,South West,yes
135203,801,"Bristol, City of",Knowle Park Primary School,www.knowlepark-pri.bristol.sch.uk/,Bristol,BS4 2XG,South West,yes
135779,801,"Bristol, City of",Sea Mills Primary School,www.seamills.bristol.sch.uk,Bristol,BS9 2HL,South West,yes
132196,801,"Bristol, City of",Shirehampton Primary School,www.shirehamptonprimaryschool.org,Bristol,BS11 9RR,South West,yes
108964,801,"Bristol, City of",Southville Primary School,www.southville.bristol.sch.uk/,Bristol,BS3 1EB,South West,yes
135872,801,"Bristol, City of",St Peter's Church of England Primary School (VC),www.stpeterscofeprimary.co.uk,Bristol,BS13 8EF,South West,yes
108966,801,"Bristol, City of",Summerhill Infant School,www.summerhillinfantschool.co.uk,Bristol,BS5 7LE,South West,yes
