urn,district_code,district_name,school_name,website,town,postcode,region,has_email_collected
144672,810,"Kingston upon Hull, City of",Adelaide Primary School,https://adelaideprimary.org.uk/,Hull,HU3 2RA,Yorkshire and the Humber,no
139570,810,"Kingston upon Hull, City of",Ainthorpe Primary School,www.ainthorpeprimary.co.uk/,Hull,HU5 5EB,Yorkshire and the Humber,no
144421,810,"Kingston upon Hull, City of",Alderman Cogan's Church of England Primary Academy,http://www.aldermancogan.co.uk,Hull,HU9 3HJ,Yorkshire and the Humber,no
140229,810,"Kingston upon Hull, City of",Appleton Primary School,www.appletonprimary.org.uk,Hull,HU5 4PG,Yorkshire and the Humber,no
135598,810,"Kingston upon Hull, City of",Archbishop Sentamu Academy,https://asa.hslt.academy/,Hull,HU9 5YB,Yorkshire and the Humber,no
141037,810,"Kingston upon Hull, City of",Aspire Academy,https://asp.hslt.academy/,Kingston-upon-Hull,HU9 5DE,Yorkshire and the Humber,no
139838,810,"Kingston upon Hull, City of",Bellfield Primary School,https://bellfieldprimary.org.uk/,Hull,HU8 9DD,Yorkshire and the Humber,no
139508,810,"Kingston upon Hull, City of",Biggin Hill Primary School,https://www.bigginhill.hull.sch.uk/,Hull,HU7 4RL,Yorkshire and the Humber,no
140235,810,"Kingston upon Hull, City of",Bricknell Primary School,www.bricknellschool.co.uk/,Hull,HU5 4ET,Yorkshire and the Humber,no
142260,810,"Kingston upon Hull, City of",Bridgeview Special School,https://bridgeviewschool.org.uk/,Kingston-upon-Hull,HU4 7AD,Yorkshire and the Humber,no
144669,810,"Kingston upon Hull, City of",Broadacre Primary School,www.broadacreprimaryschool.org/,Hull,HU7 3NP,Yorkshire and the Humber,no
140847,810,"Kingston upon Hull, City of",Buckingham Primary Academy,www.buckinghamprimaryacademy.net,Hull,HU8 8UG,Yorkshire and the Humber,no
139511,810,"Kingston upon Hull, City of",Bude Park Primary School,http://www.budepark.hull.sch.uk/,Hull,HU7 4EY,Yorkshire and the Humber,no
147270,810,"Kingston upon Hull, City of",Cavendish Primary School,www.cavendish.hull.sch.uk,Hull,HU8 0JU,Yorkshire and the Humber,no
143225,810,"Kingston upon Hull, City of",Chiltern Primary School,www.chiltern.hull.sch.uk,Hull,HU3 3PL,Yorkshire and the Humber,no
140902,810,"Kingston upon Hull, City of",Christopher Pickering Primary School,www.christopherpickeringprimary.co.uk,Hull,HU4 7EB,Yorkshire and the Humber,no
140437,810,"Kingston upon Hull, City of",Cleeve Primary School,www.cleeve.hull.sch.uk/,Hull,HU7 4JH,Yorkshire and the Humber,no
144677,810,"Kingston upon Hull, City of",Clifton Primary School,www.cliftonprimaryschool.co.uk/,Hull,HU2 9BP,Yorkshire and the Humber,no
139848,810,"Kingston upon Hull, City of",Collingwood Primary School,www.collingwoodprimaryschool.co.uk,Hull,HU3 1AW,Yorkshire and the Humber,no
140169,810,"Kingston upon Hull, City of",Craven Primary Academy,www.cravenprimaryacademy.org.uk,Hull,HU9 2DR,Yorkshire and the Humber,no
139525,810,"Kingston upon Hull, City of",Dorchester Primary School,www.dorchesterprimary.org.uk,Hull,HU7 6AH,Yorkshire and the Humber,no
139850,810,"Kingston upon Hull, City of",Eastfield Primary School,http://www.eastfieldprimaryschool.co.uk,Hull,HU4 6BB,Yorkshire and the Humber,no
140184,810,"Kingston upon Hull, City of",Endike Academy,www.endikeprimary.co.uk,Hull,HU6 7UR,Yorkshire and the Humber,no
140905,810,"Kingston upon Hull, City of",Endsleigh Holy Child VC Academy,www.ehchull.org,Hull,HU6 7TE,Yorkshire and the Humber,no
140716,810,"Kingston upon Hull, City of",Estcourt Primary Academy,www.estcourtprimary.org.uk,Hull,HU9 2RP,Yorkshire and the Humber,no
148588,810,"Kingston upon Hull, City of",Euler Academy,https://euleracademy.org.uk/,Hull,HU8 9HJ,Yorkshire and the Humber,no
141078,810,"Kingston upon Hull, City of",Francis Askew Primary School,www.francisaskewprimary.org/,Hull,HU4 6LQ,Yorkshire and the Humber,no
146220,810,"Kingston upon Hull, City of",Frederick Holmes School,www.frederickholmesschool.org.uk,Hull,HU6 8JJ,Yorkshire and the Humber,no
140904,810,"Kingston upon Hull, City of",Ganton School,www.gantonschool.org.uk,Kingston-upon-Hull,HU4 7JB,Yorkshire and the Humber,no
147259,810,"Kingston upon Hull, City of",Gillshill Primary School,https://www.gillshill.hull.sch.uk/,Hull,HU8 0JU,Yorkshire and the Humber,no
144605,810,"Kingston upon Hull, City of",Griffin Primary School,https://griffinprimaryschool.org.uk/,Hull,HU9 4JL,Yorkshire and the Humber,no
138679,810,"Kingston upon Hull, City of",Hall Road Academy,www.hallroadacademy.org,Hull,HU6 8PP,Yorkshire and the Humber,no
139512,810,"Kingston upon Hull, City of",Highlands Primary School,www.highlandsprimaryschool.org.uk/,Hull,HU7 5DD,Yorkshire and the Humber,no
138082,810,"Kingston upon Hull, City of",Hull Trinity House Academy,www.hthacademy.org.uk,Hull,HU3 1UP,Yorkshire and the Humber,no
143224,810,"Kingston upon Hull, City of",Ings Primary School,http://www.ingsprimaryschool.co.uk,Hull,HU8 0SL,Yorkshire and the Humber,no
143221,810,"Kingston upon Hull, City of",Kelvin Hall School,www.kelvinhall.net,Hull,HU5 4QH,Yorkshire and the Humber,no
139118,810,"Kingston upon Hull, City of",Kingswood Academy,https://sites.google.com/aetinet.org/kingswood-academy/home?authuser=0,Hull,HU7 4WR,Yorkshire and the Humber,no
140275,810,"Kingston upon Hull, City of",Kingswood Parks Primary School,https://kingswoodparksprimary.org.uk/,Hull,HU7 3JQ,Yorkshire and the Humber,no
140245,810,"Kingston upon Hull, City of",Longhill Primary School,www.longhillprimary.org.uk/,Kingston-upon-Hull,HU8 9RW,Yorkshire and the Humber,no
142150,810,"Kingston upon Hull, City of",Malet Lambert,http://www.maletlambert.co.uk,Hull,HU8 0JD,Yorkshire and the Humber,no
144671,810,"Kingston upon Hull, City of",Marfleet Primary Academy,marfleet.ebor.academy,Hull,HU9 5RJ,Yorkshire and the Humber,no
140246,810,"Kingston upon Hull, City of",Maybury Primary School,www.mayburyprimaryschool.co.uk,Hull,HU9 3LD,Yorkshire and the Humber,no
117692,810,"Kingston upon Hull, City of",McMillan Nursery School,www.mcmillannurseryschool.co.uk,Kingston-upon-Hull,HU6 8HT,Yorkshire and the Humber,no
139921,810,"Kingston upon Hull, City of",Mersey Primary Academy,www.merseypa.org.uk/,Hull,HU8 8TX,Yorkshire and the Humber,no
144583,810,"Kingston upon Hull, City of",Mountbatten Primary School,www.mountbattenprimary.org,Hull,HU9 4HR,Yorkshire and the Humber,no
140247,810,"Kingston upon Hull, City of",Neasden Primary School,www.neasdenprimary.org.uk/,Hull,HU8 0QB,Yorkshire and the Humber,no
138677,810,"Kingston upon Hull, City of",Newington Academy,www.newingtonacademy.org,Hull,HU3 5DD,Yorkshire and the Humber,no
144307,810,"Kingston upon Hull, City of",Newland School for Girls,http://www.newlandschool.co.uk/,Hull,HU6 7RU,Yorkshire and the Humber,no
141719,810,"Kingston upon Hull, City of",Newland St John's Church of England Academy,https://nsj.hslt.academy/,Hull,HU6 7LS,Yorkshire and the Humber,no
118140,810,"Kingston upon Hull, City of",Oakfield,www.oakfield.hull.sch.uk,Hull,HU9 4HD,Yorkshire and the Humber,no
147628,810,"Kingston upon Hull, City of",Oldfleet Primary School,http://www.oldfleet.hull.sch.uk,Hull,HU9 4NH,Yorkshire and the Humber,no
144305,810,"Kingston upon Hull, City of",Paisley Primary School,https://paisleyprimaryschool.org.uk/,Hull,HU3 6NJ,Yorkshire and the Humber,no
144670,810,"Kingston upon Hull, City of",Parkstone Primary School,www.parkstoneprimary.co.uk,Hull,HU6 7DE,Yorkshire and the Humber,no
142440,810,"Kingston upon Hull, City of",Pearson Primary School,https://www.pearsonprimaryschool.co.uk/,Hull,HU3 1TB,Yorkshire and the Humber,no
140290,810,"Kingston upon Hull, City of",Priory Primary School,www.prioryprimaryschool.org.uk/,Hull,HU5 5RU,Yorkshire and the Humber,no
144422,810,"Kingston upon Hull, City of",Rise Academy,www.riseacademyhull.co.uk,Hull,HU2 0LH,Yorkshire and the Humber,no
145611,810,"Kingston upon Hull, City of",Rokeby Park Primary School,www.rokebyparkprimary.org.uk,Kingston-upon-Hull,HU4 7NJ,Yorkshire and the Humber,no
144766,810,"Kingston upon Hull, City of",Ron Dearing UTC,,Hull,HU2 8BQ,Yorkshire and the Humber,no
145431,810,"Kingston upon Hull, City of",Sidmouth Primary School,www.sidmouthprimaryschool.co.uk,Hull,HU5 2JY,Yorkshire and the Humber,no
138246,810,"Kingston upon Hull, City of",Sirius Academy North,www.siriusacademynorth.org.uk,Hull,HU6 9BP,Yorkshire and the Humber,no
140849,810,"Kingston upon Hull, City of",Southcoates Primary Academy,www.southcoatesacademy.co.uk,Hull,HU9 3TW,Yorkshire and the Humber,no
140587,810,"Kingston upon Hull, City of",Spring Cottage Primary School,https://springcottage.hull.sch.uk/,Hull,HU8 9JH,Yorkshire and the Humber,no
118051,810,"Kingston upon Hull, City of",St Andrew's Church of England Voluntary Aided Primary School,www.standrews.hull.sch.uk,Hull,HU7 4BL,Yorkshire and the Humber,no
144102,810,"Kingston upon Hull, City of",St Anthony's Voluntary Catholic Academy,www.stahull.org,Hull,HU6 9AA,Yorkshire and the Humber,no
144103,810,"Kingston upon Hull, City of",St Charles Voluntary Catholic Academy,www.stchull.org,Hull,HU2 9AA,Yorkshire and the Humber,no
143226,810,"Kingston upon Hull, City of",St George's Primary School,st-georges.hull.sch.uk,Hull,HU3 6ED,Yorkshire and the Humber,no
141387,810,"Kingston upon Hull, City of",St James' Church of England Academy,https://stj.hslt.academy/,Hull,HU7 6BD,Yorkshire and the Humber,no
140903,810,"Kingston upon Hull, City of",St Mary Queen of Martyrs VC Academy,www.smqhull.org,Hull,HU7 4BS,Yorkshire and the Humber,no
144104,810,"Kingston upon Hull, City of","St Mary's College, Voluntary Catholic Academy",http://www.smchull.org,Hull,HU6 7TN,Yorkshire and the Humber,no
140906,810,"Kingston upon Hull, City of",St Nicholas Primary School,http://www.stnicholasprimaryschool.org,Kingston-upon-Hull,HU6 7RH,Yorkshire and the Humber,no
141649,810,"Kingston upon Hull, City of",St Richard's VC Academy,www.strhull.org,Hull,HU9 5TE,Yorkshire and the Humber,no
144101,810,"Kingston upon Hull, City of",St Thomas More Voluntary Catholic Academy,www.stmhull.org,Hull,HU4 7NP,Yorkshire and the Humber,no
140848,810,"Kingston upon Hull, City of",St Vincent's Voluntary Catholic Academy,www.stvhull.org,Hull,HU5 2QR,Yorkshire and the Humber,no
143223,810,"Kingston upon Hull, City of",Stepney Primary School,www.stepney.hull.sch.uk/,Hull,HU5 1JJ,Yorkshire and the Humber,no
141720,810,"Kingston upon Hull, City of",Stockwell Academy,www.stockwell.hull.sch.uk/,Hull,HU9 5HY,Yorkshire and the Humber,no
145612,810,"Kingston upon Hull, City of",Stoneferry Primary School,www.stoneferryprimary.org.uk,Hull,HU7 0BA,Yorkshire and the Humber,no
139513,810,"Kingston upon Hull, City of",Sutton Park Primary School,https://suttonparkprimary.org.uk/,Kingston-upon-Hull,HU7 4AH,Yorkshire and the Humber,no
144674,810,"Kingston upon Hull, City of",Thanet Primary School,www.thanet.hull.sch.uk,Hull,HU9 4AY,Yorkshire and the Humber,no
139395,810,"Kingston upon Hull, City of",The Boulevard Academy,http://www.theboulevardacademy.com/,Kingston-upon-Hull,HU3 3QT,Yorkshire and the Humber,no
139483,810,"Kingston upon Hull, City of",The Compass Academy,https://com.hslt.academy/,Hull,HU7 5DS,Yorkshire and the Humber,no
138678,810,"Kingston upon Hull, City of",The Green Way Academy,www.thegreenwayacademy.org,Hull,HU6 8HD,Yorkshire and the Humber,no
142391,810,"Kingston upon Hull, City of",The Marvell College,www.themarvellcollege.com,Hull,HU9 4EE,Yorkshire and the Humber,no
139922,810,"Kingston upon Hull, City of",The Parks Primary Academy,www.theparkshull.org.uk,Hull,HU6 9TA,Yorkshire and the Humber,no
142258,810,"Kingston upon Hull, City of",The Sullivan Centre,https://thesullivancentre.org.uk/,Hull,HU3 3EL,Yorkshire and the Humber,no
143222,810,"Kingston upon Hull, City of",The Venn Boulevard Centre,www.theboulevardcentre.org.uk,HULL,HU3 3EL,Yorkshire and the Humber,no
139886,810,"Kingston upon Hull, City of",Thoresby Primary School,www.thoresbyprimaryschool.co.uk/,,HU5 3RG,Yorkshire and the Humber,no
142307,810,"Kingston upon Hull, City of",Thorpepark Academy,https://thorpeparkacademy.org.uk,Hull,HU6 9EG,Yorkshire and the Humber,no
139628,810,"Kingston upon Hull, City of",Tweendykes School,http://www.tweendykes.co.uk,Hull,HU7 4PW,Yorkshire and the Humber,no
144673,810,"Kingston upon Hull, City of",Victoria Dock Primary School,http://www.victoriadockschool.org.uk,Hull,HU9 1TL,Yorkshire and the Humber,no
139799,810,"Kingston upon Hull, City of",Wansbeck Primary School,www.wansbeckprimary.co.uk/,Hull,HU8 9SR,Yorkshire and the Humber,no
140830,810,"Kingston upon Hull, City of",Westcott Primary School,https://westcottprimary.org.uk/,Hull,HU8 8NB,Yorkshire and the Humber,no
139579,810,"Kingston upon Hull, City of",Wheeler Primary School,https://wheelerprimary.org.uk/,Hull,HU3 5QE,Yorkshire and the Humber,no
142259,810,"Kingston upon Hull, City of",Whitehouse Pupil Referral Unit,https://whitehouse-pru.org.uk/,Kingston-upon-Hull,HU4 7AD,Yorkshire and the Humber,no
139629,810,"Kingston upon Hull, City of",Winifred Holtby Academy,http://www.winifredholtbyacademy.co.uk,Hull,HU7 4PW,Yorkshire and the Humber,no
139968,810,"Kingston upon Hull, City of",Wold Academy,www.woldacademy.co.uk,Hull,HU5 5QG,Yorkshire and the Humber,no
144676,810,"Kingston upon Hull, City of",Woodland Primary School,www.woodlandprimary.org.uk,Kingston-upon-Hull,HU9 5SN,Yorkshire and the Humber,no
118138,810,"Kingston upon Hull, City of",Northcott School and Sixth Form College,www.northcottschool.org.uk,Hull,HU7 4EL,Yorkshire and the Humber,yes
135945,810,"Kingston upon Hull, City of",Sirius Academy West,http://www.sirius-academy.org.uk/,Hull,HU4 7JB,Yorkshire and the Humber,yes
