urn,district_code,district_name,school_name,website,town,postcode,region,has_email_collected
117888,811,East Riding of Yorkshire,Acre Heads Primary School,http://acreheads.org,Hull,HU4 7ST,Yorkshire and the Humber,no
145596,811,East Riding of Yorkshire,Airmyn Park Primary School,www.airmynparkps.co.uk/,Goole,DN14 8NZ,Yorkshire and the Humber,no
117823,811,East Riding of Yorkshire,Aldbrough Primary School,www.schools-online.co.uk/aldbrough/,Hull,HU11 4RR,Yorkshire and the Humber,no
147408,811,East Riding of Yorkshire,All Saints Church of England Infant Academy,www.allsaints.ebor.academy,Hessle,HU13 9JD,Yorkshire and the Humber,no
147407,811,East Riding of Yorkshire,All Saints Church of England Junior Academy,www.allsaintscefederationhessle.co.uk,Hessle,HU13 9JD,Yorkshire and the Humber,no
132349,811,East Riding of Yorkshire,Anlaby Primary School,www.anlabyprimaryschool.co.uk,HULL,HU10 6UE,Yorkshire and the Humber,no
117875,811,East Riding of Yorkshire,Bacon Garth Primary School,http://www.bacongarth.co.uk,Cottingham,HU16 5BP,Yorkshire and the Humber,no
118122,811,East Riding of Yorkshire,Barmby Moor Church of England Primary School,http://www.barmbymoor.com,York,YO42 4EQ,Yorkshire and the Humber,no
117824,811,East Riding of Yorkshire,Barmby-on-the-Marsh Primary School,www.barmbyonthemarshprimary.co.uk/,Goole,DN14 7HQ,Yorkshire and the Humber,no
133480,811,East Riding of Yorkshire,Bay Primary School,http://www.bayprimaryschool.co.uk,Bridlington,YO16 7SZ,Yorkshire and the Humber,no
117969,811,East Riding of Yorkshire,Beeford Church of England Voluntary Controlled Primary School,http://www.beefordprimary.org.uk,Driffield,YO25 8AY,Yorkshire and the Humber,no
117825,811,East Riding of Yorkshire,Bempton Primary School,www.bemptonprimary.co.uk,Bridlington,YO15 1JA,Yorkshire and the Humber,no
117970,811,East Riding of Yorkshire,Beswick and Watton CofE (VC) School,www.thewoldsfederation.co.uk,Driffield,YO25 9AR,Yorkshire and the Humber,no
136995,811,East Riding of Yorkshire,Beverley Grammar School,http://www.beverleygrammar.co.uk,Beverley,HU17 8NF,Yorkshire and the Humber,no
118072,811,East Riding of Yorkshire,Beverley High School,http://www.beverleyhigh.net/,Beverley,HU17 9EX,Yorkshire and the Humber,no
117698,811,East Riding of Yorkshire,Beverley Manor Nursery School,https://www.beverleymanornurseryschool.co.uk,Beverley,HU17 7BT,Yorkshire and the Humber,no
150840,811,East Riding of Yorkshire,Beverley Minster CE Primary School,,Beverley,HU17 8LA,Yorkshire and the Humber,no
149622,811,East Riding of Yorkshire,Beverley St Nicholas Primary School,www.stnicholasprimaryschool.co.uk,Beverley,HU17 0QP,Yorkshire and the Humber,no
149259,811,East Riding of Yorkshire,Bilton Community Primary School,https://www.bilton.horizonacademy.uk/,Hull,HU11 4EG,Yorkshire and the Humber,no
117972,811,East Riding of Yorkshire,Bishop Wilton Church of England Voluntary Controlled Primary School,www.bishopwiltonprimaryschool.co.uk,York,YO42 1SP,Yorkshire and the Humber,no
117941,811,East Riding of Yorkshire,Boothferry Primary School,www.boothferryprimary.co.uk,Goole,DN14 6TL,Yorkshire and the Humber,no
117830,811,East Riding of Yorkshire,Boynton Primary School,www.boyntonprimaryschool.co.uk,Bridlington,YO16 4XQ,Yorkshire and the Humber,no
117831,811,East Riding of Yorkshire,Brandesburton Primary School,www.brandesburton.e-riding.sch.uk,Driffield,YO25 8RG,Yorkshire and the Humber,no
117695,811,East Riding of Yorkshire,Bridlington Nursery School,www.bridlingtonnurseryschool.co.uk,Bridlington,YO16 7BS,Yorkshire and the Humber,no
117842,811,East Riding of Yorkshire,Brough Primary School,http://www.broughprimaryschool.co.uk,Brough,HU15 1AE,Yorkshire and the Humber,no
117878,811,East Riding of Yorkshire,Bubwith Community Primary School,www.bubwithprimary.co.uk,Nr Selby,YO8 6LW,Yorkshire and the Humber,no
118000,811,East Riding of Yorkshire,Bugthorpe Church of England Voluntary Controlled Primary School,https://www.bugthorpe-sutton.org.uk/,York,YO41 1QQ,Yorkshire and the Humber,no
117833,811,East Riding of Yorkshire,Burlington Infant School,www.burlingtoninfants.org.uk,Bridlington,YO16 7AQ,Yorkshire and the Humber,no
117832,811,East Riding of Yorkshire,Burlington Junior School,www.burlingtonjuniorschool.org,Bridlington,YO16 7AQ,Yorkshire and the Humber,no
117838,811,East Riding of Yorkshire,Burstwick Community Primary School,www.burstwickprimaryschool.co.uk,Hull,HU12 9EA,Yorkshire and the Humber,no
117973,811,East Riding of Yorkshire,Burton Agnes Church of England Voluntary Controlled Primary School,www.burtonagnesprimaryschool.co.uk,Driffield,YO25 4NE,Yorkshire and the Humber,no
117839,811,East Riding of Yorkshire,Burton Pidsea Primary School,www.burtonpidseaprimaryschool.co.uk,Hull,HU12 9AU,Yorkshire and the Humber,no
118002,811,East Riding of Yorkshire,Cherry Burton Church of England Voluntary Controlled Primary School,http://www.cherryburtonprimary.co.uk/,Beverley,HU17 7RF,Yorkshire and the Humber,no
136921,811,East Riding of Yorkshire,Cottingham High School and Sixth Form College,http://www.cottinghamhigh.net,Cottingham,HU16 5PX,Yorkshire and the Humber,no
118025,811,East Riding of Yorkshire,Cowick Church of England Voluntary Controlled Primary School,www.cowickprimary.org.uk,Goole,DN14 9DG,Yorkshire and the Humber,no
145177,811,East Riding of Yorkshire,Croxby Primary School,www.croxbyprimary.co.uk,Hull,HU5 4TN,Yorkshire and the Humber,no
117974,811,East Riding of Yorkshire,Driffield Church of England Voluntary Controlled Infant School,www.driffieldinfantschool.co.uk,Driffield,YO25 6RS,Yorkshire and the Humber,no
117840,811,East Riding of Yorkshire,Driffield Junior School,www.driffieldjuniorschool.co.uk,Driffield,YO25 5HN,Yorkshire and the Humber,no
143854,811,East Riding of Yorkshire,Driffield School and Sixth Form,www.driffieldschool.net,Driffield,YO25 5HR,Yorkshire and the Humber,no
140119,811,East Riding of Yorkshire,Dunswell Primary School,www.dunswellacademy.co.uk,Hull,HU6 0AD,Yorkshire and the Humber,no
145189,811,East Riding of Yorkshire,Easington CofE Primary Academy,www.easington.ebor.academy,Hull,HU12 0TS,Yorkshire and the Humber,no
117841,811,East Riding of Yorkshire,Eastrington Primary School,www.eastringtonprimaryschool.co.uk/,Goole,DN14 7QE,Yorkshire and the Humber,no
117891,811,East Riding of Yorkshire,Elloughton Primary School,www.elloughtonprimaryschool.co.uk,Brough,HU15 1HN,Yorkshire and the Humber,no
117976,811,East Riding of Yorkshire,Flamborough CofE (VC) Primary School,http://www.flamboroughprimary.co.uk,Bridlington,YO15 1LW,Yorkshire and the Humber,no
117977,811,East Riding of Yorkshire,Garton-on-the-Wolds Church of England Voluntary Controlled Primary School,www.gartonprimary.co.uk,Driffield,YO25 3EX,Yorkshire and the Humber,no
144471,811,East Riding of Yorkshire,Gilberdyke Primary School,gilberdykeprimary.org.uk,Brough,HU15 2SS,Yorkshire and the Humber,no
145929,811,East Riding of Yorkshire,Goole Academy,www.gooleacademy.org.uk,Goole,DN14 6AN,Yorkshire and the Humber,no
135078,811,East Riding of Yorkshire,Hallgate Primary School Cottingham,www.hallgateprimaryschool.co.uk,Cottingham,HU16 4DD,Yorkshire and the Humber,no
118085,811,East Riding of Yorkshire,Headlands School,http://www.headlandsschool.co.uk,Bridlington,YO16 6UR,Yorkshire and the Humber,no
131416,811,East Riding of Yorkshire,Hedon Nursery School,https://www.hedonnurseryschool.co.uk/,Hull,HU12 8JB,Yorkshire and the Humber,no
151160,811,East Riding of Yorkshire,Hedon Primary School,,Hull,HU12 8BN,Yorkshire and the Humber,no
137306,811,East Riding of Yorkshire,Hessle High School and Penshurst Primary School,www.thehessleacademy.co.uk,Hessle,HU13 0JQ,Yorkshire and the Humber,no
135700,811,East Riding of Yorkshire,Hilderthorpe Primary School,www.hilderthorpeprimaryschool.co.uk,Bridlington,YO15 3PP,Yorkshire and the Humber,no
145722,811,East Riding of Yorkshire,Holderness Academy and Sixth Form College,https://www.holderness.academy/,Hull,HU12 8UZ,Yorkshire and the Humber,no
117852,811,East Riding of Yorkshire,Holme-upon-Spalding Moor Primary School,www.holmeprimary.co.uk,York,YO43 4HL,Yorkshire and the Humber,no
145595,811,East Riding of Yorkshire,Hook Church of England Primary School,http://www.hookprimary.co.uk,Goole,DN14 5NW,Yorkshire and the Humber,no
133519,811,East Riding of Yorkshire,Hornsea Burton Primary School,https://www.hbsfed.co.uk/hornsea-burton-primary,Hornsea,HU18 1TG,Yorkshire and the Humber,no
117853,811,East Riding of Yorkshire,Hornsea Community Primary School,www.hornseaprimaryschool.net,Hornsea,HU18 1PB,Yorkshire and the Humber,no
117699,811,East Riding of Yorkshire,Hornsea Nursery School,www.hornseanurseryschool.co.uk,Hornsea,HU18 1DA,Yorkshire and the Humber,no
118082,811,East Riding of Yorkshire,Hornsea School and Language College,http://www.hslc.co.uk/,Hornsea,HU18 1DW,Yorkshire and the Humber,no
149974,811,East Riding of Yorkshire,Howden Church of England Infant School,www.howdeninfants.net,Howden,DN14 7SL,Yorkshire and the Humber,no
149260,811,East Riding of Yorkshire,Howden Junior School,www.howdenjuniors.co.uk,Goole,DN14 7SL,Yorkshire and the Humber,no
146129,811,East Riding of Yorkshire,Howden School,http://hs.eriding.net/,Goole,DN14 7AL,Yorkshire and the Humber,no
142119,811,East Riding of Yorkshire,Hunsley Primary,www.hunsleyprimary.org.uk,Brough,HU15 1XB,Yorkshire and the Humber,no
117855,811,East Riding of Yorkshire,Hutton Cranswick Community Primary School,www.huttoncranswickschool.co.uk,Driffield,YO25 9PD,Yorkshire and the Humber,no
117911,811,East Riding of Yorkshire,Inmans Primary School,www.inmansprimaryschool.co.uk,Hull,HU12 8NL,Yorkshire and the Humber,no
133481,811,East Riding of Yorkshire,Keldmarsh Primary School,www.keldmarshprimaryschool.org.uk,Beverley,HU17 8FF,Yorkshire and the Humber,no
147760,811,East Riding of Yorkshire,Keyingham Primary School,,Kingston-upon-Hull,HU12 9RU,Yorkshire and the Humber,no
117980,811,East Riding of Yorkshire,Kilham Church of England Voluntary Controlled School,www.kilhamschool.co.uk/,Driffield,YO25 4SR,Yorkshire and the Humber,no
118144,811,East Riding of Yorkshire,Kings Mill School,www.kingsmillschool.co.uk,Driffield,YO25 6UG,Yorkshire and the Humber,no
117936,811,East Riding of Yorkshire,Kingsway Primary School,www.kingsway.eriding.net,Goole,DN14 5HQ,Yorkshire and the Humber,no
117881,811,East Riding of Yorkshire,Kirk Ella St Andrew's Community Primary School,www.kirkellaprimaryschool.org,Hull,HU10 7QL,Yorkshire and the Humber,no
117872,811,East Riding of Yorkshire,Leconfield Primary School,www.leconfieldprimary.org.uk,Beverley,HU17 7NP,Yorkshire and the Humber,no
117981,811,East Riding of Yorkshire,Leven Church of England Voluntary Controlled Primary School,https://levencofe.co.uk,Beverley,HU17 5NX,Yorkshire and the Humber,no
117990,811,East Riding of Yorkshire,Little Weighton Rowley Church of England Voluntary Controlled Primary School,www.littleweightonrowleyprimary.co.uk,Cottingham,HU20 3XE,Yorkshire and the Humber,no
118001,811,East Riding of Yorkshire,Lockington Church of England Voluntary Controlled Primary School,www.lockingtonprimary.co.uk,Driffield,YO25 9SH,Yorkshire and the Humber,no
118073,811,East Riding of Yorkshire,Longcroft School and Sixth Form College,http://www.longcroftschool.co.uk,Beverley,HU17 7EJ,Yorkshire and the Humber,no
117912,811,East Riding of Yorkshire,Market Weighton Infant School,https://marketweightoninfantschool.co.uk/,Market Weighton,YO43 3EY,Yorkshire and the Humber,no
117937,811,East Riding of Yorkshire,Marshlands Primary School,www.marshlandsprimaryschool.co.uk,Goole,DN14 5UE,Yorkshire and the Humber,no
117886,811,East Riding of Yorkshire,Martongate Primary School,www.martongateschool.co.uk,Bridlington,YO16 6YD,Yorkshire and the Humber,no
146161,811,East Riding of Yorkshire,Melbourne Primary School,www.melbourneprimary.org.uk,York,YO42 4QE,Yorkshire and the Humber,no
117983,811,East Riding of Yorkshire,Middleton-on-the-Wolds Church of England Voluntary Controlled Primary School,www.middletononthewoldsprimary.co.uk,Driffield,YO25 9UQ,Yorkshire and the Humber,no
117889,811,East Riding of Yorkshire,Molescroft Primary School,www.molescroftprimary.net,Beverley,HU17 7HF,Yorkshire and the Humber,no
117982,811,East Riding of Yorkshire,Mount Pleasant Church of England Voluntary Controlled Junior School,www.mountpleasantjuniors.co.uk,York,YO43 3BY,Yorkshire and the Humber,no
117858,811,East Riding of Yorkshire,Nafferton Primary School,http://www.naffertonprimaryschool.co.uk,Driffield,YO25 4LJ,Yorkshire and the Humber,no
117909,811,East Riding of Yorkshire,New Pasture Lane Primary School,www.newpasturelane.co.uk,Bridlington,YO16 7NR,Yorkshire and the Humber,no
117859,811,East Riding of Yorkshire,Newbald Primary School,http://www.newbaldprimary.org.uk,York,YO43 4SQ,Yorkshire and the Humber,no
117860,811,East Riding of Yorkshire,Newport Primary School,www.newportprimary.co.uk,Brough,HU15 2PP,Yorkshire and the Humber,no
147504,811,East Riding of Yorkshire,North Cave Church of England Primary School,http://northcave-school.co.uk,BROUGH,HU15 2LA,Yorkshire and the Humber,no
117985,811,East Riding of Yorkshire,North Ferriby Church of England Voluntary Controlled Primary School,https://northferriby.org/,North Ferriby,HU14 3BZ,Yorkshire and the Humber,no
117861,811,East Riding of Yorkshire,North Frodingham Primary School,www.northfrodinghamprimary.co.uk,Driffield,YO25 8LA,Yorkshire and the Humber,no
117916,811,East Riding of Yorkshire,Northfield Infant School,http://www.driffieldnorthfieldinfants.co.uk,Driffield,YO25 5YN,Yorkshire and the Humber,no
147210,811,East Riding of Yorkshire,Our Lady and St Peter Catholic Primary School A Catholic Voluntary Academy,www.olspyorks.org,Bridlington,YO15 3PS,Yorkshire and the Humber,no
117935,811,East Riding of Yorkshire,Parkside Primary School,www.parkside.eriding.net,Goole,DN14 6RQ,Yorkshire and the Humber,no
145190,811,East Riding of Yorkshire,Patrington CofE Primary Academy,www.patrington.ebor.academy,Hull,HU12 0RW,Yorkshire and the Humber,no
117862,811,East Riding of Yorkshire,Paull Primary School,www.paullprimaryschool.co.uk,Hull,HU12 8AW,Yorkshire and the Humber,no
117987,811,East Riding of Yorkshire,Pocklington Church of England Voluntary Controlled Infant School,www.pocklington-infants.org.uk,York,YO42 2HE,Yorkshire and the Humber,no
143587,811,East Riding of Yorkshire,Pocklington Junior School,www.pocklingtonjuniors.co.uk,York,YO42 2BX,Yorkshire and the Humber,no
118044,811,East Riding of Yorkshire,Pollington-Balne Church of England Primary School,www.pollingtonbalneprimary.com,Goole,DN14 0DZ,Yorkshire and the Humber,no
117864,811,East Riding of Yorkshire,Preston Primary School,https://www.prestonprimaryschool.online/,Hull,HU12 8UY,Yorkshire and the Humber,no
140551,811,East Riding of Yorkshire,Quay Academy,www.quayacademy.co.uk,Bridlington,YO16 4LB,Yorkshire and the Humber,no
117893,811,East Riding of Yorkshire,Rawcliffe Bridge Primary School,www.therawcliffeschools.co.uk,Goole,DN14 8NH,Yorkshire and the Humber,no
117892,811,East Riding of Yorkshire,Rawcliffe Primary School,http://www.therawcliffeschools.co.uk/,Goole,DN14 8RG,Yorkshire and the Humber,no
117939,811,East Riding of Yorkshire,Reedness Primary School,www.reednessprimaryschool.co.uk,"Reedness, Goole",DN14 8HG,Yorkshire and the Humber,no
146174,811,East Riding of Yorkshire,Riston Church of England Primary Academy,www.riston.ebor.academy,Hull,HU11 5JF,Yorkshire and the Humber,no
118148,811,East Riding of Yorkshire,Riverside Special School,www.riversideschoolgoole.com,Goole,DN14 5JS,Yorkshire and the Humber,no
117989,811,East Riding of Yorkshire,Roos Church of England Voluntary Controlled Primary School,www.roosprimary.org.uk,Hull,HU12 0HB,Yorkshire and the Humber,no
143823,811,East Riding of Yorkshire,Sigglesthorne Church of England Primary Academy,http://sigglesthorne.ebor.academy/,Hull,HU11 5QA,Yorkshire and the Humber,no
117992,811,East Riding of Yorkshire,Skidby Church of England Voluntary Controlled Primary School,http://www.skidbyprimaryschool.org.uk,Cottingham,HU16 5TX,Yorkshire and the Humber,no
117882,811,East Riding of Yorkshire,Skipsea Primary School,https://www.hbsfed.co.uk/skipsea-primary,Driffield,YO25 8ST,Yorkshire and the Humber,no
117993,811,East Riding of Yorkshire,Skirlaugh Church of England Voluntary Controlled Primary School,http://www.skirlaughprimary.com,Hull,HU11 5EB,Yorkshire and the Humber,no
118028,811,East Riding of Yorkshire,Sledmere Church of England Voluntary Controlled Primary School,www.sledmereandwetwangfederation.co.uk,Driffield,YO25 3XP,Yorkshire and the Humber,no
117894,811,East Riding of Yorkshire,Snaith Primary School,http://www.snaithprimary.org.uk,Goole,DN14 9RD,Yorkshire and the Humber,no
118003,811,East Riding of Yorkshire,South Cave Church of England Voluntary Controlled Primary School,http://www.southcaveprimary.co.uk,Brough,HU15 2EP,Yorkshire and the Humber,no
136667,811,East Riding of Yorkshire,South Hunsley School and Sixth Form College,http://www.southhunsley.org.uk/,North Ferriby,HU14 3HS,Yorkshire and the Humber,no
117885,811,East Riding of Yorkshire,Springhead Primary School,www.springheadschool.eriding.net,Hull,HU10 6TW,Yorkshire and the Humber,no
144082,811,East Riding of Yorkshire,Sproatley Endowed Church of England Academy,www.sproatley.ebor.academy,Hull,HU11 4PR,Yorkshire and the Humber,no
118145,811,East Riding of Yorkshire,St Anne's School and Sixth Form College,www.stannes-eastriding.co.uk,Hessle,HU13 9AR,Yorkshire and the Humber,no
147252,811,East Riding of Yorkshire,St John of Beverley Catholic Primary School - a Catholic voluntary academy,www.stjohnofbeverleyrcprimary.org.uk,Beverley,HU17 0BU,Yorkshire and the Humber,no
148164,811,East Riding of Yorkshire,St Joseph's Catholic Primary School,www.sjg.bkcat.co.uk,Goole,DN14 6HQ,Yorkshire and the Humber,no
118034,811,East Riding of Yorkshire,"St Martin's Church of England Voluntary Aided Primary School, Fangfoss",www.stmartinsfangfoss.co.uk,York,YO41 5QG,Yorkshire and the Humber,no
147248,811,East Riding of Yorkshire,St Mary & St Joseph Catholic Primary School - a Catholic voluntary academy,www.smsjyorks.org,Pocklington,YO42 2HE,Yorkshire and the Humber,no
147244,811,East Riding of Yorkshire,St Mary's Catholic Primary School - a Catholic voluntary academy,www.mwsmschool.co.uk,York,YO43 3DB,Yorkshire and the Humber,no
118030,811,East Riding of Yorkshire,"St Mary's Church of England Voluntary Controlled Primary School, Beverley",http://www.stmaryscofeprimarybeverley.co.uk,Beverley,HU17 7HD,Yorkshire and the Humber,no
143586,811,East Riding of Yorkshire,Stamford Bridge Primary School,www.stamfordbridgeschool.co.uk,York,YO41 1BP,Yorkshire and the Humber,no
118026,811,East Riding of Yorkshire,Sutton Upon Derwent Church of England Voluntary Controlled Primary School,https://www.bugthorpe-sutton.org.uk/,York,YO41 4BN,Yorkshire and the Humber,no
137151,811,East Riding of Yorkshire,Swanland Primary School,www.swanlandschool.co.uk,North Ferriby,HU14 3NE,Yorkshire and the Humber,no
117942,811,East Riding of Yorkshire,Swinefleet Primary School,www.swinefleetprimaryschool.co.uk,Goole,DN14 8BX,Yorkshire and the Humber,no
132209,811,East Riding of Yorkshire,Swinemoor Primary School,www.swinemoorprimary.org.uk,Beverley,HU17 9LW,Yorkshire and the Humber,no
150256,811,East Riding of Yorkshire,The Hub School,www.thehubschool.org.uk,Hull,HU5 5YJ,Yorkshire and the Humber,no
118076,811,East Riding of Yorkshire,The Market Weighton School,http://www.themarketweightonschool.co.uk,Market Weighton,YO43 3JF,Yorkshire and the Humber,no
140866,811,East Riding of Yorkshire,The Snaith School,http://www.thesnaithschool.org.uk/,Goole,DN14 9LB,Yorkshire and the Humber,no
135077,811,East Riding of Yorkshire,Thorngumbald Primary School,www.thorngumbaldprimaryschool.org.uk,Thorngumbald,HU12 9QQ,Yorkshire and the Humber,no
117995,811,East Riding of Yorkshire,Tickton Church of England Voluntary Controlled Primary School,https://www.ticktonprimary.co.uk,Beverley,HU17 9RZ,Yorkshire and the Humber,no
117866,811,East Riding of Yorkshire,Walkington Primary School,http://walkingtonschool.org,Beverley,HU17 8SB,Yorkshire and the Humber,no
117996,811,East Riding of Yorkshire,Warter Church of England Primary School,http://www.warterschool.eriding.net/,York,YO42 1XR,Yorkshire and the Humber,no
117867,811,East Riding of Yorkshire,Wawne Primary School,https://www.wawneprimary.co.uk,Hull,HU7 5XT,Yorkshire and the Humber,no
117868,811,East Riding of Yorkshire,Welton Primary School,www.weltonprimaryschool.com,Brough,HU15 1TJ,Yorkshire and the Humber,no
117883,811,East Riding of Yorkshire,Westfield Primary School,www.westfieldprimaryschool.org,Cottingham,HU16 5PE,Yorkshire and the Humber,no
117997,811,East Riding of Yorkshire,Wetwang Church of England Voluntary Controlled Primary School,http://sledmereandwetwangfederation.co.uk,York,YO25 9XT,Yorkshire and the Humber,no
149646,811,East Riding of Yorkshire,Wilberfoss Church of England Primary School,www.wilberfossprimary.co.uk,York,YO41 5ND,Yorkshire and the Humber,no
118075,811,East Riding of Yorkshire,Withernsea High School,http://www.withernseahigh.org.uk,Withernsea,HU19 2EQ,Yorkshire and the Humber,no
141933,811,East Riding of Yorkshire,Withernsea Primary School,www.withernseaprimary.co.uk,Withernsea,HU19 2EG,Yorkshire and the Humber,no
118120,811,East Riding of Yorkshire,Wold Newton Foundation School,http://www.woldnewton.eriding.net,Driffield,YO25 3YJ,Yorkshire and the Humber,no
143588,811,East Riding of Yorkshire,Woldgate School and Sixth Form College,www.woldgate.net,York,YO42 2LL,Yorkshire and the Humber,no
144561,811,East Riding of Yorkshire,Wolfreton School and Sixth Form College,http://www.wolfreton.co.uk/,Hull,HU10 6HB,Yorkshire and the Humber,no
117999,811,East Riding of Yorkshire,Woodmansey Church of England Voluntary Controlled Primary School,www.woodmanseyprimary.school,Beverley,HU17 0TH,Yorkshire and the Humber,no
118111,811,East Riding of Yorkshire,Bridlington School,http://www.bridlingtonschool.co.uk/,Bridlington,YO16 4QU,Yorkshire and the Humber,yes
135115,811,East Riding of Yorkshire,Willerby Carr Lane Primary School,https://willerbycarrlaneprimary.org.uk/,Hull,HU10 6JT,Yorkshire and the Humber,yes
