urn,district_code,district_name,school_name,website,town,postcode,region,has_email_collected
139649,812,North East Lincolnshire,Beacon Academy,www.beaconacademy.co.uk,Cleethorpes,DN35 9NF,Yorkshire and the Humber,no
138467,812,North East Lincolnshire,Bursar Primary Academy,www.bursaracademy.co.uk,Cleethorpes,DN35 9HU,Yorkshire and the Humber,no
137363,812,North East Lincolnshire,Cambridge Park Academy,www.cambridgepark.co.uk,Grimsby,DN34 5EB,Yorkshire and the Humber,no
136192,812,North East Lincolnshire,Cleethorpes Academy,http://www.cleethorpesacademy.co.uk/,Cleethorpes,DN35 9NX,Yorkshire and the Humber,no
149511,812,North East Lincolnshire,Coomb Briggs Primary Academy,www.coombbriggsprimary.co.uk/,Immingham,DN40 2DY,Yorkshire and the Humber,no
137811,812,North East Lincolnshire,East Ravendale CofE Primary School Academy,www.eastravendale.co.uk,Grimsby,DN37 0RX,Yorkshire and the Humber,no
139981,812,North East Lincolnshire,Eastfield Primary Academy,www.eastfieldprimary.net,Immingham,DN40 1LD,Yorkshire and the Humber,no
138857,812,North East Lincolnshire,Edward Heneage Primary Academy,www.edwardheneage.co.uk,Grimsby,DN32 9HL,Yorkshire and the Humber,no
142269,812,North East Lincolnshire,Enfield Academy of New Waltham,http://www.enfieldacademy.co.uk,Grimsby,DN36 4RB,Yorkshire and the Humber,no
141631,812,North East Lincolnshire,Fairfield Academy,http://www.fairfield-academy.co.uk,Grimsby,DN33 3AE,Yorkshire and the Humber,no
131231,812,North East Lincolnshire,Grange Primary School,www.grangeprimaryschool.co.uk/,Grimsby,DN34 5TA,Yorkshire and the Humber,no
142841,812,North East Lincolnshire,Great Coates Primary School,https://gca.harbourlearningtrust.com/,Grimsby,DN37 9EN,Yorkshire and the Humber,no
135294,812,North East Lincolnshire,Havelock Academy,http://www.havelockacademy.co.uk/,Grimsby,DN32 8JH,Yorkshire and the Humber,no
136277,812,North East Lincolnshire,Healing Academy,https://hsa.harbourlearningtrust.com/,Grimsby,DN41 7QD,Yorkshire and the Humber,no
141302,812,North East Lincolnshire,Healing Primary Academy,hpa.harbourlearningtrust.com,Grimsby,DN41 7RS,Yorkshire and the Humber,no
137200,812,North East Lincolnshire,Humberston Academy,http://www.humberstonacademy.co.uk/,Grimsby,DN36 4TF,Yorkshire and the Humber,no
140801,812,North East Lincolnshire,Humberston Cloverfields Academy,cloverfields.co.uk,Grimsby,DN36 4HS,Yorkshire and the Humber,no
137394,812,North East Lincolnshire,Humberston Park School,http://www.humberstonpark.org.uk/,Grimsby,DN36 4HS,Yorkshire and the Humber,no
137464,812,North East Lincolnshire,John Whitgift Academy,http://www.johnwhitgift.org.uk/,Grimsby,DN37 9EH,Yorkshire and the Humber,no
140581,812,North East Lincolnshire,Laceby Acres Primary Academy,www.lacebyacres.org,Grimsby,DN34 5QN,Yorkshire and the Humber,no
150519,812,North East Lincolnshire,Laceby Stanford Primary Academy,http://www.stanfordschool.org,Grimsby,DN37 7AX,Yorkshire and the Humber,no
137611,812,North East Lincolnshire,Lisle Marsden Church of England Primary Academy,https://lislemarsdenacademy.co.uk/,Grimsby,DN32 0DF,Yorkshire and the Humber,no
142969,812,North East Lincolnshire,Littlecoates Primary Academy,www.littlecoatesacademy.co.uk,Grimsby,DN31 2QX,Yorkshire and the Humber,no
138890,812,North East Lincolnshire,Macaulay Primary Academy,www.mpacademy.org.uk/,Grimsby,DN31 2ES,Yorkshire and the Humber,no
137996,812,North East Lincolnshire,Middlethorpe Primary Academy,www.middlethorpeprimary.co.uk,Cleethorpes,DN35 9PY,Yorkshire and the Humber,no
137761,812,North East Lincolnshire,New Waltham Academy,http://www.newwaltham.net,Grimsby,DN36 4NH,Yorkshire and the Humber,no
138237,812,North East Lincolnshire,Oasis Academy Nunsthorpe,http://www.oasisacademynunsthorpe.org,Grimsby,DN33 1AW,Yorkshire and the Humber,no
139472,812,North East Lincolnshire,Old Clee Primary Academy,www.oldcleeprimaryacademy.co.uk,Grimsby,DN32 8EN,Yorkshire and the Humber,no
137196,812,North East Lincolnshire,Ormiston Maritime Academy,http://www.omacademy.co.uk,Grimsby,DN34 5AH,Yorkshire and the Humber,no
138846,812,North East Lincolnshire,Ormiston South Parade Academy,http://www.osparade.co.uk/,Grimsby,DN31 1TU,Yorkshire and the Humber,no
141101,812,North East Lincolnshire,Phoenix Park Academy,www.phoenixparkacademy.co.uk,Grimsby,DN32 7NQ,Yorkshire and the Humber,no
144148,812,North East Lincolnshire,Pilgrim Academy,http://www.pilgrimacademy.co.uk,Immingham,DN40 2HP,Yorkshire and the Humber,no
117733,812,North East Lincolnshire,Queen Mary Avenue Infant School,http://www.queenmaryinfants.org.uk,Cleethorpes,DN35 7SY,Yorkshire and the Humber,no
139952,812,North East Lincolnshire,Reynolds Primary Academy,www.reynoldsacademy.co.uk/,Cleethorpes,DN35 7LJ,Yorkshire and the Humber,no
138014,812,North East Lincolnshire,Saint Joseph's Catholic Primary Voluntary Academy,www.sjp.academy,Cleethorpes,DN35 9DL,Yorkshire and the Humber,no
139009,812,North East Lincolnshire,Saint Mary's Catholic Voluntary Academy,www.saintmarysprimarygrimsby.co.uk,Grimsby,DN32 7JX,Yorkshire and the Humber,no
150965,812,North East Lincolnshire,Scartho Infants' School and Nursery,www.scarthoinfants.co.uk,Grimsby,DN33 2DH,Yorkshire and the Humber,no
137787,812,North East Lincolnshire,Scartho Junior Academy,http://www.scarthojunior.co.uk,Grimsby,DN33 2DH,Yorkshire and the Humber,no
117700,812,North East Lincolnshire,Scartho Nursery School,www.scarthonursery.co.uk,Grimsby,DN33 2EW,Yorkshire and the Humber,no
141585,812,North East Lincolnshire,Sevenhills Academy,,Grimsby,DN33 1NU,Yorkshire and the Humber,no
136975,812,North East Lincolnshire,Signhills Academy,www.signhillsacademy.co.uk/,Cleethorpes,DN35 0DN,Yorkshire and the Humber,no
138062,812,North East Lincolnshire,Signhills Infant Academy,http://www.signhillsinfants.co.uk,Cleethorpes,DN35 0DN,Yorkshire and the Humber,no
142268,812,North East Lincolnshire,Springfield Primary Academy,http://www.springfieldprimaryacademy.net,Grimsby,DN33 3HG,Yorkshire and the Humber,no
143281,812,North East Lincolnshire,St Peter's CofE Primary School,www.stpetersacademy.co.uk,Cleethorpes,DN35 8LW,Yorkshire and the Humber,no
118017,812,North East Lincolnshire,Stallingborough CofE Primary School,www.stallingboroughprimary.co.uk,Grimsby,DN41 8AP,Yorkshire and the Humber,no
138866,812,North East Lincolnshire,Strand Primary Academy,www.strandpa.org.uk,Grimsby,DN32 7BE,Yorkshire and the Humber,no
140991,812,North East Lincolnshire,The Canon Peter Hall CofE Primary School,www.canonpeterhall.co.uk,Immingham,DN40 1JS,Yorkshire and the Humber,no
149973,812,North East Lincolnshire,The Humberston Church of England Primary School,www.hcep.co.uk,Grimsby,DN36 4HZ,Yorkshire and the Humber,no
138468,812,North East Lincolnshire,Thrunscoe Primary and Nursery Academy,www.thrunscoeacademy.co.uk,Cleethorpes,DN35 8UL,Yorkshire and the Humber,no
137760,812,North East Lincolnshire,Waltham Leas Primary Academy,walthamleas.net/,Grimsby,DN37 0NU,Yorkshire and the Humber,no
136268,812,North East Lincolnshire,Waltham Toll Bar Academy,http://www.walthamtollbaracademy.co.uk/,Grimsby,DN36 4RZ,Yorkshire and the Humber,no
138279,812,North East Lincolnshire,Weelsby Academy,www.weelsby.org.uk/,Grimsby,DN32 7PF,Yorkshire and the Humber,no
141289,812,North East Lincolnshire,Welholme Academy,www.welholmeacademy.com,Grimsby,DN32 9JD,Yorkshire and the Humber,no
117926,812,North East Lincolnshire,Western Primary School,www.westernprimary.co.uk,Grimsby,DN34 5RS,Yorkshire and the Humber,no
143884,812,North East Lincolnshire,William Barcroft Junior School,wba.harbourlearningtrust.com,Cleethorpes,DN35 7SU,Yorkshire and the Humber,no
139420,812,North East Lincolnshire,Willows Academy,www.willowsacademy.org.uk/,Grimsby,DN37 9AT,Yorkshire and the Humber,no
146762,812,North East Lincolnshire,Woodlands Academy,https://wla.harbourlearningtrust.com/,Grimsby,DN33 1RJ,Yorkshire and the Humber,no
138975,812,North East Lincolnshire,Wybers Wood Academy,http://www.wyberswood.org.uk/,Grimsby,DN37 9QZ,Yorkshire and the Humber,no
138542,812,North East Lincolnshire,Yarborough Academy,http://www.yarboroughacademy.co.uk,Grimsby,DN34 4JU,Yorkshire and the Humber,no
141773,812,North East Lincolnshire,Elliston Primary Academy,www.ellistonprimary.net,Cleethopres,DN35 7HT,Yorkshire and the Humber,yes
117697,812,North East Lincolnshire,Great Coates Village Nursery School,www.greatcoatesnursery.com,Grimsby,DN37 9NN,Yorkshire and the Humber,yes
135176,812,North East Lincolnshire,Oasis Academy Immingham,http://www.oasisacademyimmingham.org/,Immingham,DN40 1JU,Yorkshire and the Humber,yes
135209,812,North East Lincolnshire,Oasis Academy Wintringham,http://www.oasisacademywintringham.org/,Grimsby,DN32 0AZ,Yorkshire and the Humber,yes
