urn,district_code,district_name,school_name,website,town,postcode,region,has_email_collected
117726,813,North Lincolnshire,Althorpe and Keadby Primary School,www.akprimary.co.uk,Scunthorpe,DN17 3BN,Yorkshire and the Humber,no
118006,813,North Lincolnshire,Barton St Peter's CofE Primary School,www.barton-st-peters.n-lincs.sch.uk/,Barton-upon-Humber,DN18 5HB,Yorkshire and the Humber,no
118007,813,North Lincolnshire,Belton All Saints CofE Primary School,http://www.beltonceprimary.co.uk,Doncaster,DN9 1LR,Yorkshire and the Humber,no
117781,813,North Lincolnshire,Berkeley Primary School,www.berkeleyprimary.co.uk,Scunthorpe,DN15 8AH,Yorkshire and the Humber,no
117780,813,North Lincolnshire,Bottesford Infant School,http://www.bottesfordinfants.co.uk,Scunthorpe,DN16 3PB,Yorkshire and the Humber,no
117727,813,North Lincolnshire,Bottesford Junior School,www.bottesfordjuniors.com,Scunthorpe,DN16 3PB,Yorkshire and the Humber,no
117812,813,North Lincolnshire,Bowmandale Primary School,www.bowmandale.n-lincs.sch.uk,Barton-upon-Humber,DN18 5EE,Yorkshire and the Humber,no
117728,813,North Lincolnshire,Brigg Primary School,www.briggprimary.co.uk,Brigg,DN20 8AR,Yorkshire and the Humber,no
150025,813,North Lincolnshire,Broughton Primary Academy,www.broughtonprimary.net,Brigg,DN20 0JW,Yorkshire and the Humber,no
117747,813,North Lincolnshire,Bushfield Road Infant School,www.bushfieldinfants.co.uk/,Scunthorpe,DN16 1NA,Yorkshire and the Humber,no
117967,813,North Lincolnshire,Castledyke Primary School,www.castledykeprimary.co.uk,Barton-upon-Humber,DN18 5AW,Yorkshire and the Humber,no
141485,813,North Lincolnshire,Coritani Academy,http://www.coritaniacademy.co.uk/,Scunthorpe,DN16 2PZ,Yorkshire and the Humber,no
117934,813,North Lincolnshire,Crosby Primary School,www.crosbyprimary.co.uk/,Scunthorpe,DN15 6AS,Yorkshire and the Humber,no
139035,813,North Lincolnshire,Crowle Primary Academy,www.crowleprimaryschool.com/,Crowle,DN17 4ET,Yorkshire and the Humber,no
117736,813,North Lincolnshire,East Halton Primary School,www.easthaltonprimary.co.uk/,Immingham,DN40 3PJ,Yorkshire and the Humber,no
118043,813,North Lincolnshire,Eastoft Church of England Primary School,www.riversidefederation.co.uk,Scunthorpe,DN17 4PG,Yorkshire and the Humber,no
117768,813,North Lincolnshire,Enderby Road Infant School,www.enderbyroadinfantandnursery.co.uk,Scunthorpe,DN17 2TD,Yorkshire and the Humber,no
142130,813,North Lincolnshire,Engineering UTC Northern Lincolnshire,www.enlutc.co.uk,Scunthorpe,DN15 6TA,Yorkshire and the Humber,no
138712,813,North Lincolnshire,Epworth Primary Academy,www.epworthprimaryacademy.co.uk,Doncaster,DN9 1DL,Yorkshire and the Humber,no
118097,813,North Lincolnshire,Frederick Gough School,http://www.frederickgoughschool.co.uk,Scunthorpe,DN16 3NG,Yorkshire and the Humber,no
117748,813,North Lincolnshire,Frodingham Infant School,www.frodingham.n-lincs.sch.uk,Scunthorpe,DN16 1ST,Yorkshire and the Humber,no
117737,813,North Lincolnshire,Goxhill Primary School,http://www.goxhillschool.com,Barrow-upon-Humber,DN19 7JR,Yorkshire and the Humber,no
118010,813,North Lincolnshire,Gunness and Burringham Church of England Primary School,www.gandbprimary.co.uk,Scunthorpe,DN17 3LT,Yorkshire and the Humber,no
151079,813,North Lincolnshire,Haxey Cofe Primary Academy,https://www.haxeyceprimary.co.uk/,Doncaster,DN9 2JQ,Yorkshire and the Humber,no
138085,813,North Lincolnshire,Hibaldstow Academy,https://www.hibaldstowacademy.com,Brigg,DN20 9PN,Yorkshire and the Humber,no
117811,813,North Lincolnshire,Holme Valley Primary School,http://www.holmevalley.n-lincs.sch.uk/,Scunthorpe,DN16 3SL,Yorkshire and the Humber,no
118005,813,North Lincolnshire,John Harrison C of E Primary School,www.johnharrisonceprimary.com/,Barrow-upon-Humber,DN19 7AP,Yorkshire and the Humber,no
117743,813,North Lincolnshire,Killingholme Primary School,https://killingholmeprimary.org/,,DN40 3HX,Yorkshire and the Humber,no
118014,813,North Lincolnshire,Kirmington CofE Primary School,kirmingtonst-helenas.co.uk,Ulceby,DN39 6YP,Yorkshire and the Humber,no
150867,813,North Lincolnshire,Kirton Academy,www.kirtonacademy.co.uk,Gainsborough,DN21 4NN,Yorkshire and the Humber,no
117739,813,North Lincolnshire,Kirton Lindsey Primary School,www.kirtonlindseyschool.co.uk,Gainsborough,DN21 4EH,Yorkshire and the Humber,no
117771,813,North Lincolnshire,Leys Farm Junior School,www.leysfarm.org.uk/,Scunthorpe,DN17 2PB,Yorkshire and the Humber,no
133700,813,North Lincolnshire,Lincoln Gardens Primary School,http://www.lincolngardens.net,Scunthorpe,DN16 2ED,Yorkshire and the Humber,no
139059,813,North Lincolnshire,Melior Community Academy,http://www.melior.org.uk/,Scunthorpe,DN17 1HA,Yorkshire and the Humber,no
118023,813,North Lincolnshire,New Holland Church of England and Methodist Primary School,www.humberestuaryfederation.co.uk,Barrow-upon-Humber,DN19 7RN,Yorkshire and the Humber,no
134867,813,North Lincolnshire,Oakfield Primary School,www.oakfield.n-lincs.sch.uk/,Scunthorpe,DN16 3JF,Yorkshire and the Humber,no
139024,813,North Lincolnshire,Oasis Academy Henderson Avenue,www.oasisacademyhendersonavenue.org,Scunthorpe,DN15 7RW,Yorkshire and the Humber,no
139025,813,North Lincolnshire,Oasis Academy Parkwood,www.oasisacademyparkwood.org,Scunthorpe,DN17 1SS,Yorkshire and the Humber,no
139277,813,North Lincolnshire,Outwood Academy Brumby,http://www.brumby.outwood.com/,Scunthorpe,DN16 1NT,Yorkshire and the Humber,no
137004,813,North Lincolnshire,Outwood Academy Foxhills,http://www.foxhills.outwood.com,Scunthorpe,DN15 8LJ,Yorkshire and the Humber,no
146267,813,North Lincolnshire,Outwood Junior Academy Brumby,www.brumbyjunior.outwood.com,Scunthorpe,DN16 2HY,Yorkshire and the Humber,no
117756,813,North Lincolnshire,Priory Lane Community School,www.priorylanecommunityschool.com,Scunthorpe,DN17 1HE,Yorkshire and the Humber,no
138017,813,North Lincolnshire,Saint Augustine Webster Catholic Voluntary Academy,http://www.staugustinewebster.com,Scunthorpe,DN15 8BU,Yorkshire and the Humber,no
138086,813,North Lincolnshire,Scawby Academy,http://www.scawbyacademy.com,Brigg,DN20 9AN,Yorkshire and the Humber,no
118016,813,North Lincolnshire,Scunthorpe CofE Primary School,www.scunthorpe.n-lincs.sch.uk/,Scunthorpe,DN15 6HP,Yorkshire and the Humber,no
137742,813,North Lincolnshire,South Axholme Academy,http://www.southaxholmeacademy.co.uk/,Doncaster,DN9 1BY,Yorkshire and the Humber,no
117752,813,North Lincolnshire,South Ferriby Primary School,http://www.southferribyschool.co.uk,Barton-upon-Humber,DN18 6HU,Yorkshire and the Humber,no
118004,813,North Lincolnshire,"St Barnabas CofE Primary School, Barnetby",www.stbarnabasschool.co.uk,Barnetby,DN38 6JD,Yorkshire and the Humber,no
138018,813,North Lincolnshire,St Bede's Catholic Voluntary Academy,www.stbedesscunthorpe.org.uk,Scunthorpe,DN16 2TF,Yorkshire and the Humber,no
118146,813,North Lincolnshire,St Hugh's Special School,http://www.st-hughs.n-lincs.sch.uk,Scunthorpe,DN16 1NB,Yorkshire and the Humber,no
118147,813,North Lincolnshire,St Luke's Primary School,http://www.stlukesprimary.com,Scunthorpe,DN16 1BN,Yorkshire and the Humber,no
151081,813,North Lincolnshire,St Martin's Cofe Primary Academy,https://stmartinsch.schooljotter2.com/,Doncaster,DN9 1AY,Yorkshire and the Humber,no
138015,813,North Lincolnshire,St Mary's Catholic Primary Voluntary Academy (Brigg),https://www.stmaryscatholicacademybrigg.org.uk/,Brigg,DN20 8BB,Yorkshire and the Humber,no
138827,813,North Lincolnshire,St Norbert's Catholic Voluntary Academy,www.stnorbertscrowle.co.uk/,Scunthorpe,DN17 4HL,Yorkshire and the Humber,no
136058,813,North Lincolnshire,St Peter and St Paul CofE Primary School,www.stpandstp.org.uk,Scunthorpe,DN16 3FX,Yorkshire and the Humber,no
138016,813,North Lincolnshire,St. Bernadette's Catholic Primary Voluntary Academy,www.stbernadettesacademy.co.uk,Scunthorpe,DN16 2LW,Yorkshire and the Humber,no
137759,813,North Lincolnshire,The Axholme Academy,www.theaxholmeacademy.com,Crowle,DN17 4HU,Yorkshire and the Humber,no
140626,813,North Lincolnshire,The Grange Primary School,https://www.tgps.uk.com/,Scunthorpe,DN16 3AW,Yorkshire and the Humber,no
135674,813,North Lincolnshire,The St Lawrence Academy,http://tsla.realsmartcloud.com/,Scunthorpe,DN15 7DF,Yorkshire and the Humber,no
137453,813,North Lincolnshire,The Vale Academy,www.valeacademy.org.uk,Brigg,DN20 8AR,Yorkshire and the Humber,no
149721,813,North Lincolnshire,Trent View College,https://trentviewcollege.co.uk/,Scunthorpe,DN17 1DS,Yorkshire and the Humber,no
140343,813,North Lincolnshire,Ulceby St Nicholas Church of England Primary School,ulcebystnicholas.org.uk,Ulceby,DN39 6TB,Yorkshire and the Humber,no
151080,813,North Lincolnshire,West Butterwick C of E Primary Academy,,Scunthorpe,DN17 3LB,Yorkshire and the Humber,no
131216,813,North Lincolnshire,Westcliffe Primary School,www.westcliffeprimary.com/,Scunthorpe,DN17 1PN,Yorkshire and the Humber,no
138713,813,North Lincolnshire,Westwoodside Church of England Academy,https://westwoodsidecofeacademy.co.uk/,Doncaster,DN9 2DR,Yorkshire and the Humber,no
140625,813,North Lincolnshire,Willoughby Road Primary Academy,www.wrpacademy.org.uk/,Scunthorpe,DN17 2NF,Yorkshire and the Humber,no
117753,813,North Lincolnshire,Winteringham Primary School,www.winteringhamprimary.co.uk,Scunthorpe,DN15 9NL,Yorkshire and the Humber,no
118020,813,North Lincolnshire,Winterton Church of England Infants' School,www.thewintertonfederation.co.uk,Scunthorpe,DN15 9QF,Yorkshire and the Humber,no
138831,813,North Lincolnshire,Winterton Community Academy,http://www.wintertonca.com,Scunthorpe,DN15 9QD,Yorkshire and the Humber,no
117787,813,North Lincolnshire,Winterton Junior School,www.thewintertonfederation.co.uk,Scunthorpe,DN15 9QG,Yorkshire and the Humber,no
118038,813,North Lincolnshire,Wootton St Andrew's CofE Primary School,www.woottonstandrews.co.uk/,Ulceby,DN39 6SG,Yorkshire and the Humber,no
138520,813,North Lincolnshire,Worlaby Academy,http://www.worlabyacademy.org.uk/,Brigg,DN20 0NA,Yorkshire and the Humber,no
148307,813,North Lincolnshire,Wrawby St Mary's CofE Primary School,www.wrawbyprimary.co.uk/,Brigg,DN20 8RY,Yorkshire and the Humber,no
118022,813,North Lincolnshire,Wroot Travis Charity Church of England Primary School,www.wroottravisprimary.co.uk,Doncaster,DN9 2BN,Yorkshire and the Humber,no
117725,813,North Lincolnshire,Alkborough Primary School,https://www.alkboroughps.co.uk/,Scunthorpe,DN15 9JG,Yorkshire and the Humber,yes
118109,813,North Lincolnshire,Baysgarth School,http://www.baysgarthschool.co.uk,Barton-upon-Humber,DN18 6AE,Yorkshire and the Humber,yes
117730,813,North Lincolnshire,Burton-upon-Stather Primary School,www.burtonstatherprimary.com,Scunthorpe,DN15 9HB,Yorkshire and the Humber,yes
117740,813,North Lincolnshire,Luddington & Garthorpe Primary,https://www.riversidefederation.co.uk,Scunthorpe,DN17 4QP,Yorkshire and the Humber,yes
117741,813,North Lincolnshire,Messingham Primary School,www.messinghamprimary.co.uk,Scunthorpe,DN17 3TN,Yorkshire and the Humber,yes
118112,813,North Lincolnshire,Sir John Nelthorpe School,http://www.sirjohnnelthorpe.co.uk/,Brigg,DN20 8AA,Yorkshire and the Humber,yes
