urn,district_code,district_name,school_name,website,town,postcode,region,has_email_collected
109464,822,Bedford,Balliol Primary School,www.balliolschool.co.uk/,Bedford,MK42 7ER,East of England,no
136085,822,Bedford,Bedford Academy,http://bedfordacademy.co.uk/,Bedford,MK42 9TR,East of England,no
138228,822,Bedford,Bedford Free School,http://www.bedfordfreeschool.co.uk/,Bedford,MK42 9AD,East of England,no
150474,822,Bedford,Bedford Road Primary Academy,bedfordroad-primary.org,Bedford,MK42 8QH,East of England,no
109503,822,Bedford,Brickhill Primary School,www.brickhillprimary.co.uk/,Bedford,MK41 7AA,East of England,no
109483,822,Bedford,Broadmead Lower School,www.broadmeadlower.beds.sch.uk/,Bedford,MK43 9NN,East of England,no
109611,822,Bedford,Bromham CofE Primary School,www.bromhamprimary.co.uk,Bedford,MK43 8NR,East of England,no
109462,822,Bedford,Camestone School,www.camestoneschool.co.uk/,Bedford,MK42 8NW,East of England,no
109610,822,Bedford,Carlton CofE Primary School,https://www.carltoncofeprimary.co.uk/,Bedford,MK43 7JR,East of England,no
151042,822,Bedford,Castle Newnham School,http://www.castlenewnham.school,Bedford,MK41 9DT,East of England,no
151125,822,Bedford,Castle Newnham School,https://castlenewnham.school/,Bedford,MK40 3EP,East of England,no
144528,822,Bedford,Cauldwell School,www.cauldwellschool.com/,Bedford,MK42 9DR,East of England,no
109413,822,Bedford,Cherry Trees Nursery School,www.cherrytreesnurseryschool.co.uk,Bedford,MK42 9LS,East of England,no
109622,822,Bedford,Christopher Reeves CofE VA Primary School,www.christopher-reeves-school.co.uk,Wellingborough,NN29 7HU,East of England,no
109446,822,Bedford,Cotton End Forest School,www.cottonendforestschool.co.uk/,Bedford,MK45 3AG,East of England,no
138067,822,Bedford,Daubeney Academy,http://www.daubeneyacademy.co.uk/,Bedford,MK42 7PS,East of England,no
144039,822,Bedford,Elstow School,www.elstowschool.co.uk,Bedford,MK42 9GP,East of England,no
136552,822,Bedford,Goldington Academy,http://www.goldington.beds.sch.uk,Bedford,MK41 9BX,East of England,no
139523,822,Bedford,Goldington Green Academy,www.goldingtongreenacademy.co.uk/,Bedford,MK41 0DP,East of England,no
139374,822,Bedford,Grange Academy,www.grange.beds.sch.uk,Bedford,MK42 8AU,East of England,no
143770,822,Bedford,Great Barford Church of England Primary Academy,www.gbpa.org.uk,Bedford,MK44 3HZ,East of England,no
144746,822,Bedford,Great Ouse Primary Academy,www.greatouse.beds.sch.uk,Bedford,MK40 4TJ,East of England,no
139320,822,Bedford,Greys Education Centre,,Bedford,MK42 7AB,East of England,no
143084,822,Bedford,Harrold Primary Academy,www.harrold.beds.sch.uk,Bedford,MK43 7DB,East of England,no
142387,822,Bedford,Kempston Academy,https://www.kempstonacademy.co.uk/,Bedford,MK42 7EB,East of England,no
109463,822,Bedford,Kempston Rural Primary School,www.kempstonrural.beds.sch.uk/,Kempston,MK42 7FJ,East of England,no
139798,822,Bedford,Kimberley 16 - 19 Stem College,,Bedford,MK43 9LY,East of England,no
109502,822,Bedford,King's Oak Primary School,http://www.kingsoakprimary.co.uk,Bedford,MK42 0HH,East of England,no
109590,822,Bedford,Kymbrook Primary School,www.kymbrookprimary.uk,Bedford,MK44 2HH,East of England,no
135374,822,Bedford,Lakeview School,www.lakeview.beds.sch.uk,Bedford,MK42 6BH,East of England,no
136471,822,Bedford,Lincroft Academy,http://www.lincroft.academy,Bedford,MK43 7RE,East of England,no
139160,822,Bedford,Mark Rutherford School,http://www.markrutherford.beds.sch.uk/,Bedford,MK41 8PX,East of England,no
145861,822,Bedford,Marston Vale Middle School,www.marstonvalemiddle.co.uk,Bedford,MK43 9NH,East of England,no
109613,822,Bedford,Milton Ernest CofE Primary School,www.ewmeschools.org.uk,Bedford,MK44 1RF,East of England,no
143561,822,Bedford,Oakley Primary Academy,http://www.oakley.beds.sch.uk,Bedford,MK43 7RE,East of England,no
109417,822,Bedford,Peter Pan Nursery School,www.peterpannurseryschool.co.uk,Bedford,MK42 9DR,East of England,no
109451,822,Bedford,Pinchmill Primary School,http://www.pinchmill.beds.sch.uk/,Bedford,MK43 7JD,East of England,no
139519,822,Bedford,Putnoe Primary School,www.putnoeprimaryschool.co.uk/,Bedford,MK41 0DH,East of England,no
136660,822,Bedford,Queen's Park Academy,https://www.queensparkacademy.co.uk,Bedford,MK40 4HA,East of England,no
148334,822,Bedford,Ravensden CofE Primary Academy,https://www.ravensdenprimary.org/,Bedford,MK44 2RW,East of England,no
109603,822,Bedford,Renhold VC Primary School,www.renhold.beds.sch.uk,Bedford,MK41 0LU,East of England,no
150792,822,Bedford,Rivertree Free School,https://biltt.org/free-school/,Bedford,MK42 8QP,East of England,no
146269,822,Bedford,Roxton Church of England Academy,www.roxton.school,Bedford,MK44 3DR,East of England,no
144545,822,Bedford,Shackleton Primary School,www.shackletonprimary.co.uk,Bedford,MK42 9LZ,East of England,no
136470,822,Bedford,Sharnbrook Academy,https://sharnbrook.academy/,Bedford,MK44 1JL,East of England,no
139510,822,Bedford,Sharnbrook Primary,www.sharnbrookprimary.beds.sch.uk,Bedford,MK44 1PF,East of England,no
144546,822,Bedford,Shortstown Primary School,www.shortstownprimary.co.uk,Bedford,MK42 0GS,East of England,no
145219,822,Bedford,Springfield Primary School,http://springfieldprimaryschool.org.uk/,Bedford,MK42 7LJ,East of England,no
148982,822,Bedford,St James' CofE Academy,http://www.stjamesprimary.org.uk/,bedford,MK40 4BD,East of England,no
139515,822,Bedford,St John Rigby Catholic Primary School,http://www.stjohnrigby.org,Bedford,MK41 9DQ,East of England,no
137469,822,Bedford,St John's School,www.st-johns-school.co.uk,Bedford,MK42 8AA,East of England,no
139547,822,Bedford,St Joseph's and St Gregory's Catholic Primary School and Nursery,http://www.stjosephsandstgregorys.com,Bedford,MK40 4HN,East of England,no
109628,822,Bedford,St Lawrence Church of England Primary School,www.st-lawrenceschool.co.uk,Rushden,NN10 9LL,East of England,no
139517,822,Bedford,St Thomas More Catholic School,http://www.st-thomasmore.org.uk/,Bedford,MK41 7UL,East of England,no
139522,822,Bedford,The Hills Academy,www.thehillsacademy.co.uk,Bedford,MK41 9AT,East of England,no
109486,822,Bedford,Thurleigh Primary School,www.thurleighprimary.uk,Bedford,MK44 2DB,East of England,no
109489,822,Bedford,Turvey Primary School,www.turveyprimary.co.uk,Bedford,MK43 8DY,East of England,no
139990,822,Bedford,Ursula Taylor Church of England School,www.ursulataylorschool.co.uk,Bedford,MK41 6EG,East of England,no
109666,822,Bedford,Westfield Primary School,http://westfieldschool.net/,Bedford,MK40 4HW,East of England,no
109627,822,Bedford,Wilden CofE VA Primary School,www.wilden.beds.sch.uk/,Bedford,MK44 2PB,East of England,no
150796,822,Bedford,Willow Grove Primary School,,Wixams,MK45 3TE,East of England,no
109492,822,Bedford,Wilstead Primary School,www.wilsteadschool.co.uk,Bedford,MK45 3BX,East of England,no
144595,822,Bedford,Wixams Academy,https://www.wixamsacademy.co.uk,Bedford,MK42 6BA,East of England,no
143926,822,Bedford,Wixams Tree Primary Academy,www.wixamstreeprimary.co.uk,Bedford,MK42 6BA,East of England,no
151126,822,Bedford,Wootton Primary School,www.woottonlowerschool.org,Bedford,MK43 9JT,East of England,no
137522,822,Bedford,Wootton Upper School,www.wootton.beds.sch.uk,Bedford,MK43 9HT,East of England,no
109690,822,Bedford,Biddenham International School and Sports College,http://www.biddenham.beds.sch.uk,Bedford,MK40 4AZ,East of England,yes
109433,822,Bedford,Edith Cavell Primary School,www.edithcavellprimary.co.uk,Bedford,MK41 7NH,East of England,yes
109443,822,Bedford,Eileen Wade Primary School,www.ewmeschools.org.uk,Huntingdon,PE28 0ND,East of England,yes
135996,822,Bedford,Great Denham Primary School,www.greatdenhamprimary.org.uk,Bedford,MK40 4GG,East of England,yes
109506,822,Bedford,Hazeldene School,www.hazeldeneschool.co.uk/,Bedford,MK41 9AT,East of England,yes
109432,822,Bedford,Livingstone Primary School,www.livingstoneprimary.co.uk,Bedford,MK41 7LG,East of England,yes
109436,822,Bedford,Priory Primary School,www.prioryprimary.co.uk/,Bedford,MK40 1JD,East of England,yes
109742,822,Bedford,Ridgeway School,http://www.ridgewayschool.org.uk/,Bedford,MK42 7EB,East of England,yes
109624,822,Bedford,Riseley CofE Primary School,www.riseleyschool.co.uk,Bedford,MK44 1DR,East of England,yes
109512,822,Bedford,Scott Primary School,www.scottprimary.co.uk,Bedford,MK41 7JA,East of England,yes
109442,822,Bedford,Sheerhatch Primary School,www.sheerhatchprimary.org.uk,Bedford,MK44 3TH,East of England,yes
