urn,district_code,district_name,school_name,website,town,postcode,region,has_email_collected
150481,831,Derby,Akaal Primary School,,Derby,DE23 8DG,East Midlands,no
141324,831,Derby,Allenton Primary School,http://www.allentonprimaryschool.co.uk/,Derby,DE24 9BB,East Midlands,no
137911,831,Derby,Allestree Woodlands School,http://woodlands.derby.sch.uk/,Derby,DE22 2LW,East Midlands,no
112744,831,Derby,Alvaston Infant and Nursery School,www.alvastoni.derby.sch.uk,Derby,DE24 0PU,East Midlands,no
145759,831,Derby,Alvaston Junior Academy,www.alvaston.theharmonytrust.org,Derby,DE24 0PU,East Midlands,no
148538,831,Derby,Alvaston Moor Academy,https://www.alvastonmoor.co.uk/,Derby,DE24 0AN,East Midlands,no
146715,831,Derby,Arboretum Primary School,www.arboretum.derby.sch.uk/,Derby,DE23 8GP,East Midlands,no
145806,831,Derby,Ash Croft Primary Academy,www.ashcroft.theharmonytrust.org,Derby,DE24 3HF,East Midlands,no
112479,831,Derby,Ashgate Nursery School,www.canschoolsfederation.co.uk,Derby,DE1 1GJ,East Midlands,no
146079,831,Derby,Ashwood Spencer Academy,www.ashwoodspencer.co.uk,Derby,DE24 8FT,East Midlands,no
146855,831,Derby,Asterdale Primary School,www.asterdaleprimaryschool.co.uk/,Derby,DE21 7PH,East Midlands,no
146877,831,Derby,Beaufort Community Primary School,www.beaufort.derby.sch.uk/,Derby,DE21 6BT,East Midlands,no
112717,831,Derby,Becket Primary School,www.becket.derby.sch.uk,Derby,DE22 3QB,East Midlands,no
140842,831,Derby,Bishop Lonsdale Church of England Primary School and Nursery,www.bishoplonsdale.derby.sch.uk/,Derby,DE22 3HH,East Midlands,no
146847,831,Derby,Borrow Wood Primary School,http://www.borrowwood.derby.sch.uk/,Derby,DE21 7QW,East Midlands,no
148384,831,Derby,Brackensdale Spencer Academy,https://brackensdalespencer.org.uk/,Derby,DE22 4BS,East Midlands,no
144624,831,Derby,Breadsall Hill Top Primary School,BHTP.co.uk,Derby,DE21 4ET,East Midlands,no
136071,831,Derby,Bridge Street School,https://bridgestreetschoolderby.co.uk,Derby,DE1 3LB,East Midlands,no
147119,831,Derby,Brookfield Primary School,www.learnerstrust.org/bps,Derby,DE3 0BW,East Midlands,no
147125,831,Derby,Carlyle Infant and Nursery Academy,www.carlyle.theharmonytrust.org,Derby,DE23 3ES,East Midlands,no
132133,831,Derby,Castle School,https://castleschoolderby.co.uk/,Derby,DE22 1GE,East Midlands,no
148585,831,Derby,Castleward Spencer Academy,http://castlewardspencer.co.uk/,Derby,DE1 2RJ,East Midlands,no
112749,831,Derby,Cavendish Close Infant School,www.cavclosei.derby.sch.uk,Derby,DE21 4LY,East Midlands,no
144822,831,Derby,Cavendish Close Junior Academy,www.cavendish.theharmonytrust.org,Derby,DE21 4RJ,East Midlands,no
112472,831,Derby,Central Community Nursery School,www.canschoolsfederation.co.uk,Derby,DE1 3LR,East Midlands,no
145592,831,Derby,Chaddesden Park Primary School,https://www.learnerstrust.org/cpp,Derby,DE21 6JW,East Midlands,no
148639,831,Derby,Chellaston Academy,https://www.chellaston.derby.sch.uk/,Derby,DE73 5UB,East Midlands,no
146507,831,Derby,Chellaston Infant School,https://www.chellastoni.derby.sch.uk/,Derby,DE73 6TA,East Midlands,no
146500,831,Derby,Chellaston Junior School,www.cjs.derby.sch.uk,Derby,DE73 6PZ,East Midlands,no
146921,831,Derby,Cherry Tree Hill Primary School,www.cherrytreehillprimary.co.uk,Derby,DE21 6WL,East Midlands,no
145132,831,Derby,City of Derby Academy,www.cityofderbyacademy.org,Derby,DE24 3AR,East Midlands,no
145982,831,Derby,Cottons Farm Primary Academy,www.cottonsfarm.theharmonytrust.org,Derby,DE24 9HG,East Midlands,no
144066,831,Derby,Da Vinci Academy,www.davinciacademy.co.uk,Derby,DE21 4ET,East Midlands,no
112720,831,Derby,Dale Community Primary School,http://dale.derby.sch.uk,Derby,DE23 6NL,East Midlands,no
143734,831,Derby,Derby Cathedral School,www.derbycathedralschool.org.uk,Derby,DE1 1LR,East Midlands,no
145327,831,Derby,Derby Moor Spencer Academy,www.derbymoorspencer.org.uk,Derby,DE23 2FS,East Midlands,no
138277,831,Derby,Derby Pride Academy,https://dpaesteem.co.uk,Derby,DE24 8BY,East Midlands,no
146575,831,Derby,Derby St Chad's CofE Nursery and Infant School,www.stchads.derby.sch.uk/,Derby,DE23 6WR,East Midlands,no
144343,831,Derby,Derwent Primary School,www.derwentprimary.net,Derby,DE21 6AL,East Midlands,no
142041,831,Derby,Firs Primary School,www.firsprimary.derby.sch.uk,Derby,DE22 3WA,East Midlands,no
112756,831,Derby,Gayton Junior School,www.gaytonj.derby.sch.uk/,Derby,DE23 1GA,East Midlands,no
138992,831,Derby,Grampian Primary Academy,www.grampian.anthemtrust.uk,Derby,DE24 9LU,East Midlands,no
146579,831,Derby,Griffe Field Primary School,www.griffefield.derby.sch.uk/,Derby,DE23 3UQ,East Midlands,no
147307,831,Derby,Hackwood Primary Academy,www.hackwood.theharmonytrust.org,Derby,DE3 0FD,East Midlands,no
143875,831,Derby,Hardwick Primary School,www.hardwickprimaryschoolderby.co.uk/,Derby,DE23 6QP,East Midlands,no
146477,831,Derby,Homefields Primary School,www.homefields.derby.sch.uk,Derby,DE73 5NY,East Midlands,no
147491,831,Derby,Ivy House School,www.ivyhouse.derby.sch.uk,Derby,DE23 2FS,East Midlands,no
135345,831,Derby,Kingsmead School,https://kingsmeadschoolderby.co.uk,Derby,DE24 8TE,East Midlands,no
146080,831,Derby,Lakeside Primary Academy,www.lakeside.theharmonytrust.org,Derby,DE24 8UY,East Midlands,no
138790,831,Derby,Landau Forte Academy Moorhead,www.lfadm.org.uk/,Derby,DE24 0AN,East Midlands,no
135120,831,Derby,Landau Forte College,http://www.landau-forte.org.uk/,Derby,DE1 2LF,East Midlands,no
147624,831,Derby,Lawn Primary School,http://www.lawn.derby.sch.uk,Derby,DE22 2QR,East Midlands,no
143934,831,Derby,Lees Brook Academy,http://www.leesbrook.co.uk,Derby,DE21 4QX,East Midlands,no
112471,831,Derby,Lord Street Nursery School,www.lordstreet.derby.sch.uk.,Derby,DE24 9AX,East Midlands,no
112739,831,Derby,Markeaton Primary School,www.markeaton.derby.sch.uk,Derby,DE22 1HL,East Midlands,no
112752,831,Derby,Meadow Farm Community Primary School,http://www.meadowfarmschool.co.uk,Derby,DE21 6TZ,East Midlands,no
112790,831,Derby,Mickleover Primary School,www.mickleover.derby.sch.uk,Derby,DE3 0EY,East Midlands,no
143853,831,Derby,Noel-Baker Academy,www.noelbakeracademy.co.uk,Derby,DE24 0BR,East Midlands,no
149747,831,Derby,Oak Grange Primary School,https://www.oakgrange.org/,Derby,DE24 0BL,East Midlands,no
112767,831,Derby,Oakwood Infant and Nursery School,www.oakwoodinfant.com,Derby,DE24 0GZ,East Midlands,no
146938,831,Derby,Oakwood Junior School,www.oakwoodjuniorschool.co.uk/,Derby,DE24 0DD,East Midlands,no
144466,831,Derby,Pear Tree Community Junior School,www.peartreej.derby.sch.uk,Derby,DE23 8PN,East Midlands,no
112728,831,Derby,Pear Tree Infant School,www.peartreeinfantandnursery.co.uk,Derby,DE23 8PN,East Midlands,no
112740,831,Derby,Portway Infant School,http://www.portwayi.derby.sch.uk,Derby,DE22 2HE,East Midlands,no
146879,831,Derby,Portway Junior School,http://www.portwayj.derby.sch.uk,Derby,DE22 2GL,East Midlands,no
112759,831,Derby,Ravensdale Infant and Nursery School,www.ravensdalei.derby.sch.uk/,Derby,DE3 9HE,East Midlands,no
147399,831,Derby,Ravensdale Junior School,www.ravensdalej.derby.sch.uk,Derby,DE3 9EY,East Midlands,no
112770,831,Derby,Redwood Primary School,www.redwoodprimary.com/,Derby,DE24 9PG,East Midlands,no
145855,831,Derby,Reigate Park Primary Academy,www.reigate.theharmonytrust.org,Derby,DE22 4EQ,East Midlands,no
112757,831,Derby,Ridgeway Infant School,http://www.ridgewayinfantschool.org.uk,Derby,DE23 1GG,East Midlands,no
131401,831,Derby,Roe Farm Primary School,www.roefarmprimary.co.uk,Derby,DE21 4HG,East Midlands,no
112733,831,Derby,Rosehill Infant and Nursery School,www.rosehillinfants.co.uk,Derby,DE23 8FQ,East Midlands,no
138622,831,Derby,"Saint Benedict, A Catholic Voluntary Academy",https://www.stbenedictderby.srscmat.co.uk/,Derby,DE22 1JD,East Midlands,no
112745,831,Derby,Shelton Infant School,www.sheltoni.derby.sch.uk/,Derby,DE24 9EJ,East Midlands,no
112765,831,Derby,Silverhill Primary School,http://www.silverhill.co.uk/,Derby,DE3 0QE,East Midlands,no
146839,831,Derby,Springfield Primary School,http://www.springfield.derby.sch.uk,Derby,DE21 7AB,East Midlands,no
146253,831,Derby,St Alban's Catholic Voluntary Academy,www.stalbansderby.srscmat.co.uk,Derby,DE21 6NU,East Midlands,no
147132,831,Derby,St Andrew's Academy,www.standrewsacademy.co.uk,Derby,DE21 4EW,East Midlands,no
147137,831,Derby,St Clare's School,https://stclaresschool.co.uk/,Derby,DE3 9AZ,East Midlands,no
138666,831,Derby,St George's Catholic Voluntary Academy,https://www.stgeorgesderby.srscmat.co.uk/,Derby,DE23 1GG,East Midlands,no
147558,831,Derby,St Giles' Spencer Academy,www.stgilesspencer.org.uk,Derby,DE21 6BT,East Midlands,no
112915,831,Derby,St James' Church of England Aided Infant School,www.stjamesinfants.derby.sch.uk,Derby,DE23 8EG,East Midlands,no
148368,831,Derby,St James' Church of England Aided Junior School,www.stjames.derby.sch.uk,Derby,DE23 8FQ,East Midlands,no
138514,831,Derby,St John Fisher Catholic Voluntary Academy,www.stjohnfisherderby.srscmat.co.uk/,Derby,DE24 0PA,East Midlands,no
146104,831,Derby,St Joseph's Catholic Voluntary Academy,https://www.stjosephsderby.srscmat.co.uk/,Derby,DE23 6SB,East Midlands,no
147143,831,Derby,St Martins School,https://www.stmartinsschoolderby.co.uk/,Derby,DE24 0BT,East Midlands,no
146140,831,Derby,St Mary's Catholic Voluntary Academy,https://www.stmarysderby.srscmat.co.uk,Derby,DE22 1AU,East Midlands,no
147725,831,Derby,St Peter's Church of England Aided Junior School,www.stpetersschoolderby.co.uk,Derby,DE23 6FZ,East Midlands,no
147490,831,Derby,St Werburgh's CofE Primary School,www.stwerburghs.co.uk/,Derby,DE21 7LL,East Midlands,no
147685,831,Derby,UTC Derby Pride Park,www.utcderby.org.uk,Derby,DE24 8PU,East Midlands,no
145760,831,Derby,Village Primary Academy,www.village.theharmonytrust.org,Derby,DE23 8DF,East Midlands,no
112475,831,Derby,Walbrook Nursery School,http://www.peartreeinfantandnursery.co.uk,Derby,DE23 8QJ,East Midlands,no
142752,831,Derby,Walter Evans Church of England Aided Primary School,http://www.walterevans.derby.sch.uk,Derby,DE22 1EF,East Midlands,no
136634,831,Derby,West Park School,http://www.westpark.derby.sch.uk/,Derby,DE21 7BT,East Midlands,no
112480,831,Derby,Whitecross Nursery School,www.whitecross.derby.sch.uk,Derby,DE1 3PJ,East Midlands,no
112758,831,Derby,Wren Park Primary School,http://www.wrenpark.derby.sch.uk,Derby,DE3 9AY,East Midlands,no
138443,831,Derby,Wyndham Spencer Academy,www.wyndhamspencer.org.uk,Derby,DE24 0EP,East Midlands,no
138776,831,Derby,Zaytouna Primary School,http://zaytounaprimary.co.uk,Derby,DE24 8WH,East Midlands,no
131685,831,Derby,Ashgate Primary School,www.ashgate.derby.sch.uk,Derby,DE22 3FS,East Midlands,yes
112474,831,Derby,Harrington Nursery School,www.harrington.derby.sch.uk,Derby,DE23 8PE,East Midlands,yes
112956,831,Derby,Littleover Community School,http://www.littleover.derby.sch.uk,Derby,DE23 4BZ,East Midlands,yes
112991,831,Derby,Murray Park Community School,http://www.murraypark.derby.sch.uk,Derby,DE3 9LL,East Midlands,yes
131799,831,Derby,Parkview Primary School,http://www.parkview-sch.co.uk,Derby.,DE21 2RQ,East Midlands,yes
112983,831,Derby,Shelton Junior School,http://www.sheltonj.derby.sch.uk,Derby,DE24 9EJ,East Midlands,yes
112476,831,Derby,Stonehill Nursery School,http://stonehillnurseryderby.com/,Derby,DE23 6TJ,East Midlands,yes
112951,831,Derby,The Bemrose School,http://www.bemrose.derby.sch.uk/,Derby,DE22 3HU,East Midlands,yes
