urn,district_code,district_name,school_name,website,town,postcode,region,has_email_collected
140696,855,Leicestershire,Ab Kettleby Primary School,www.abkettleby.org,Melton Mowbray,LE14 3JJ,East Midlands,no
143608,855,Leicestershire,Albert Village Primary School,www.albertvillage.leics.sch.uk,Swadlincote,DE11 8HA,East Midlands,no
145973,855,Leicestershire,All Saints Church of England Primary School,www.allsaintscofe.leics.sch.uk,Wigston,LE18 2AH,East Midlands,no
120123,855,Leicestershire,"All Saints Church of England Primary School, Coalville",,Coalville,LE67 3LB,East Midlands,no
144113,855,Leicestershire,"All Saints Church of England Primary School, Sapcote",www.allsaintssapcote.com,Leicester,LE9 4FB,East Midlands,no
146602,855,Leicestershire,Arnesby Church of England Primary School,https://arnesby.embracemat.org,Leicester,LE8 5WG,East Midlands,no
139340,855,Leicestershire,Asfordby Hill Primary School,www.asfordbyhill.leics.sch.uk,Melton Mowbray,LE14 3QX,East Midlands,no
148624,855,Leicestershire,Ashby Hastings Primary School,https://www.ashbyhastingsprimary.co.uk/,Ashby-De-La-Zouch,LE65 2AX,East Midlands,no
138804,855,Leicestershire,Ashby Hill Top Primary School,www.ashbyhilltop.leics.sch.uk,Ashby-de-la-Zouch,LE65 2NF,East Midlands,no
148549,855,Leicestershire,Ashby School,www.ashbyschool.org.uk,Ashby-De-La-Zouch,LE65 1DT,East Midlands,no
143251,855,Leicestershire,Ashby Willesley Primary School,www.ashbywillesley.org.uk,Ashby-de-la-Zouch,LE65 2QG,East Midlands,no
120352,855,Leicestershire,Ashmount School,http://www.ashmount.leics.sch.uk,Loughborough,LE11 4SQ,East Midlands,no
151128,855,Leicestershire,Badgerbrook Primary School,https://badgerbrook.org,Leicester,LE8 6ZW,East Midlands,no
140850,855,Leicestershire,Barlestone Church of England Primary School,www.barlestoneprimaryschool.co.uk,Nuneaton,CV13 0EP,East Midlands,no
140230,855,Leicestershire,Barrow Hall Orchard Church of England Primary School,www.hall-orchard.leics.sch.uk,Loughborough,LE12 8HP,East Midlands,no
138965,855,Leicestershire,Barwell Church of England Academy,www.barwellceacademy.co.uk,Leicester,LE9 8DS,East Midlands,no
119930,855,Leicestershire,Barwell Infant School,www.barwellinfantschool.co.uk/,Leicester,LE9 8HG,East Midlands,no
139737,855,Leicestershire,Battling Brook Primary School,http://www.bbrook.leics.sch.uk/,Hinckley,LE10 0EX,East Midlands,no
139005,855,Leicestershire,Beacon Academy,www.thebeaconacademy.org,Loughborough,LE11 2NF,East Midlands,no
139624,855,Leicestershire,Beauchamp College,http://www.beauchamp.org.uk,Leicester,LE2 5TP,East Midlands,no
119913,855,Leicestershire,Belvoirdale Community Primary School,www.belvoirdale.org,Coalville,LE67 3RD,East Midlands,no
149144,855,Leicestershire,Bishop Ellis Catholic Voluntary Academy,www.bishopellis.leics.sch.uk,Leicester,LE4 8GP,East Midlands,no
145488,855,Leicestershire,Blaby Stokes Church of England Primary School,www.blabystokes.co.uk,Leicester,LE8 4EG,East Midlands,no
119956,855,Leicestershire,Blaby Thistly Meadow Primary School,www.thistlymeadow.net/,Leicester,LE8 4FE,East Midlands,no
145084,855,Leicestershire,Blackfordby St Margaret's Church of England Primary School,www.blackfordbyschool.org/,Swadlincote,DE11 8AB,East Midlands,no
151155,855,Leicestershire,Booth Wood Academy,https://boothwoodacademy.co.uk,Loughborough,LE11 4PG,East Midlands,no
137969,855,Leicestershire,Bosworth Academy,http://www.bosworthacademy.org.uk,Leicester,LE9 9JL,East Midlands,no
138905,855,Leicestershire,Bottesford Church of England Primary School,https://bottesfordprimary.co.uk/,Nottingham,NG13 0BS,East Midlands,no
150787,855,Leicestershire,Bowman Academy,https://bowman-cit.co.uk/welcome/,Loughborough,LE12 9BN,East Midlands,no
141279,855,Leicestershire,Bringhurst Primary School,http://www.bringhurstprimary.co.uk,Market Harborough,LE16 8RH,East Midlands,no
138521,855,Leicestershire,Brockington College,www.brockington.leics.sch.uk,Leicester,LE19 4AQ,East Midlands,no
139739,855,Leicestershire,Brocks Hill Primary School,https://www.brockshill.org.uk,Leicester,LE2 5WP,East Midlands,no
145619,855,Leicestershire,Brookside Primary School,www.brookside.leics.sch.uk,Leicester,LE2 4FU,East Midlands,no
138323,855,Leicestershire,Brookvale Groby Learning Campus,http://www.brookvalegroby.com/,Leicester,LE6 0FP,East Midlands,no
138891,855,Leicestershire,Broom Leys School,http://www.broomleys.org.uk,Coalville,LE67 4DB,East Midlands,no
138805,855,Leicestershire,Broomfield Community Primary School,www.broomfield.bepschools.org,Leicester,LE7 3ZQ,East Midlands,no
140702,855,Leicestershire,Brownlow Primary School,www.brownlowprimary.org,Melton Mowbray,LE13 1QL,East Midlands,no
150511,855,Leicestershire,Buckminster Primary School,,Grantham,NG33 5RZ,East Midlands,no
119964,855,Leicestershire,Burbage Junior School,http://www.burbage-jun.leics.sch.uk/,Hinckley,LE10 2AD,East Midlands,no
119912,855,Leicestershire,Burton-on-the-Wolds Primary School,www.burton-on-the-wolds-school.org/,Loughborough,LE12 5TB,East Midlands,no
139845,855,Leicestershire,Captains Close Primary School,http://www.captains-close.leics.sch.uk,Melton Mowbray,LE14 3TU,East Midlands,no
138820,855,Leicestershire,Castle Donington College,http://www.cdcollege.uk,Derby,DE74 2LN,East Midlands,no
141874,855,Leicestershire,Charnwood College,http://www.charnwoodcollege.org/,Loughborough,LE11 4SQ,East Midlands,no
141222,855,Leicestershire,Christ Church & Saint Peter's Cofe Primary School,www.mountsorrelschool.org.uk,Loughborough,LE12 7JU,East Midlands,no
138930,855,Leicestershire,Church Hill Church of England Junior School,www.churchhill-jun.leics.sch.uk,Leicester,LE4 8DE,East Midlands,no
138929,855,Leicestershire,Church Hill Infant School,https://www.churchhillinfants.bepschools.org,Leicester,LE4 8DE,East Midlands,no
145203,855,Leicestershire,Church Langton Church of England Primary School,http://www.churchlangton.leics.sch.uk,Market Harborough,LE16 7SZ,East Midlands,no
144115,855,Leicestershire,Claybrooke Primary School,www.claybrooke.leics.sch.uk,Leicester,LE17 5AF,East Midlands,no
139366,855,Leicestershire,Cobden Primary School & Community Centre,https://www.cobden.bepschools.org/,Loughborough,LE11 1AF,East Midlands,no
138528,855,Leicestershire,Cosby Primary School,http://www.cosby.school,Leicester,LE9 1TE,East Midlands,no
120124,855,Leicestershire,Cossington Church of England Primary School,http://www.cossingtonschool.org,LEICESTER,LE7 4UU,East Midlands,no
147902,855,Leicestershire,Countesthorpe Academy,www.clcc.college,Countesthorpe,LE8 5PR,East Midlands,no
146621,855,Leicestershire,Croft Church of England Primary School,http://www.croftprimaryschool.co.uk,Leicester,LE9 3GJ,East Midlands,no
140317,855,Leicestershire,Croxton Kerrial Church of England Primary School,www.ckschool.leics.sch.uk,Grantham,NG32 1QR,East Midlands,no
138298,855,Leicestershire,De Lisle College Loughborough Leicestershire,http://www.delisle.leics.sch.uk/,Loughborough,LE11 4SQ,East Midlands,no
149267,855,Leicestershire,Desford Community Primary School,www.desford.leics.sch.uk,Leicester,LE9 9JH,East Midlands,no
120127,855,Leicestershire,Diseworth Church of England Primary School,http://www.diseworthprimary.co.uk,Derby,DE74 2QD,East Midlands,no
149269,855,Leicestershire,Donisthorpe Primary School,www.donisthorpeprimary.org,Swadlincote,DE12 7QF,East Midlands,no
138156,855,Leicestershire,Dorothy Goodman School Hinckley,www.dorothygoodman.co.uk,Hinckley,LE10 0EA,East Midlands,no
149270,855,Leicestershire,Dove Bank Primary School,www.dovebankprimary.co.uk/,Nuneaton,CV13 0QJ,East Midlands,no
144108,855,Leicestershire,Dunton Bassett Primary School,www.duntonbassett.leics.sch.uk/,Lutterworth,LE17 5JL,East Midlands,no
138806,855,Leicestershire,Eastfield Primary School,www.eastfield.bepschools.org,Leicester,LE4 8FP,East Midlands,no
119959,855,Leicestershire,Elizabeth Woodville Primary School,www.elizabethwoodvilleprimaryschool.co.uk,Leicester,LE6 0GT,East Midlands,no
119914,855,Leicestershire,Ellistown Community Primary School,http://www.ellistown.leics.sch.uk/,Coalville,LE67 1EN,East Midlands,no
140316,855,Leicestershire,Enderby Danemill Primary School,www.danemill.com,Leicester,LE19 4LH,East Midlands,no
137933,855,Leicestershire,Fairfield Community Primary School,http://www.fairfieldcpschool.co.uk,Wigston,LE18 4WA,East Midlands,no
138345,855,Leicestershire,Farndon Fields Primary School,www.farndonfields.org,Market Harborough,LE16 9JH,East Midlands,no
143248,855,Leicestershire,Fernvale Primary School,www.fernvale.leics.sch.uk,Leicester,LE7 9PR,East Midlands,no
120129,855,Leicestershire,Fleckney Church of England Primary School,http://www.fleckney.leics.sch.uk/,Leicester,LE8 8BE,East Midlands,no
137905,855,Leicestershire,Forest Way School,www.forestway.leics.sch.uk,Coalville,LE67 4UU,East Midlands,no
142410,855,Leicestershire,Fossebrook Primary School,www.fossebrook.org.uk,Leicester,LE3 3FF,East Midlands,no
149040,855,Leicestershire,Foxbridge Primary School,https://www.foxbridgeprimaryschool.co.uk/,Castle Donington,DE74 2SN,East Midlands,no
148029,855,Leicestershire,Foxfields Academy,www.foxfields-cit.co.uk,Blaby,LE8 4FE,East Midlands,no
151090,855,Leicestershire,Foxton Primary School,http://www.foxton.leics.sch.uk,Market Harborough,LE16 7QZ,East Midlands,no
139744,855,Leicestershire,Frisby Church of England Primary School,www.frisbyprimary.co.uk,Melton Mowbray,LE14 2NH,East Midlands,no
138807,855,Leicestershire,Gaddesby Primary School,http://www.gaddesby.bepschools.org/,Leicester,LE7 4WF,East Midlands,no
138155,855,Leicestershire,Gartree High School,http://www.gartree.leics.sch.uk,Leicester,LE2 5TQ,East Midlands,no
139854,855,Leicestershire,Gilmorton Chandler Church of England Primary School,http://www.gilmortonchandler.leics.sch.uk,Lutterworth,LE17 5LU,East Midlands,no
137932,855,Leicestershire,Glen Hills Primary School,www.glen-hills.leics.sch.uk/,Leicester,LE2 9NY,East Midlands,no
140608,855,Leicestershire,Glenfield Primary School,www.glenfield.leics.sch.uk/,Leicester,LE3 8DL,East Midlands,no
139855,855,Leicestershire,Glenmere Community Primary School,http://www.glenmere.leics.sch.uk,Wigston,LE18 3RD,East Midlands,no
138359,855,Leicestershire,"Great Bowden Academy, A Church of England Primary School",www.greatbowden.leics.sch.uk,Market Harborough,LE16 7HZ,East Midlands,no
139342,855,Leicestershire,Great Dalby School,http://www.greatdalbyprimaryschool.co.uk,Melton Mowbray,LE14 2HA,East Midlands,no
120131,855,Leicestershire,Great Glen St Cuthbert's Church of England Primary School,www.stcuthberts.leics.sch.uk,Leicester,LE8 9EQ,East Midlands,no
132226,855,Leicestershire,Greenfield Primary School,http://greenfieldprimary.net/,Leicester,LE8 5SG,East Midlands,no
141903,855,Leicestershire,Greystoke Primary School,www.greystoke.leics.sch.uk,Leicester,LE19 2GX,East Midlands,no
119918,855,Leicestershire,Griffydam Primary School,http://www.griffydam.leics.sch.uk,Coalville,LE67 8HU,East Midlands,no
144749,855,Leicestershire,"Hallam Fields, Birstall",,Leicester,LE4 3LL,East Midlands,no
143609,855,Leicestershire,Hallbrook Primary School,www.hallbrook.leics.sch.uk,Broughton Astley,LE9 6WX,East Midlands,no
120132,855,Leicestershire,Harby Church of England Primary School,www.harbyprimary.org,Melton Mowbray,LE14 4BZ,East Midlands,no
140103,855,Leicestershire,Hastings High School,http://www.hastings.leics.sch.uk,Hinckley,LE10 2QE,East Midlands,no
138327,855,Leicestershire,Heath Lane Academy,https://www.heathlaneacademy.org.uk,Leicester,LE9 7PD,East Midlands,no
141468,855,Leicestershire,Higham-on-the-Hill Church of England Primary School,www.leicestershire.schooljotter.com/,Nuneaton,CV13 6AJ,East Midlands,no
140725,855,Leicestershire,Highcliffe Primary School and Community Centre,www.highcliffeacademy.org.uk,Leicester,LE4 3DL,East Midlands,no
148390,855,Leicestershire,Highgate Primary School,https://www.highgate.bepschools.org,Loughborough,LE12 7ND,East Midlands,no
144911,855,Leicestershire,Hinckley Parks Primary School,http://www.hinckleyparks.leics.sch.uk,Hinckley,LE10 1LP,East Midlands,no
149749,855,Leicestershire,Hollycroft Primary School,https://www.hollycroftschool.co.uk/,HINCKLEY,LE10 3GL,East Midlands,no
138297,855,Leicestershire,Holy Cross School A Catholic Voluntary Academy,www.holycrosswhitwick.co.uk,Coalville,LE67 5AT,East Midlands,no
138906,855,Leicestershire,Holywell Primary School,http://www.holywell.leics.sch.uk/,Loughborough,LE11 3SJ,East Midlands,no
120135,855,Leicestershire,Hose Church of England Primary School,www.hoseprimaryschool.co.uk/,Melton Mowbray,LE14 4JE,East Midlands,no
145974,855,Leicestershire,Houghton-on-the-Hill Church of England Primary School,www.houghton.leics.sch.uk,Leicester,LE7 9GD,East Midlands,no
119915,855,Leicestershire,Hugglescote Community Primary School,www.hugglescote.leics.sch.uk,Coalville,LE67 2HA,East Midlands,no
137799,855,Leicestershire,Humphrey Perkins School,www.humphreyperkins.org.uk,Loughborough,LE12 8JU,East Midlands,no
138321,855,Leicestershire,Huncote Primary School,www.huncoteprimary.org,Leicester,LE9 3BS,East Midlands,no
143252,855,Leicestershire,Husbands Bosworth Church of England Primary School,www.husbandsbosworth.leics.sch.uk/,Lutterworth,LE17 6JU,East Midlands,no
138721,855,Leicestershire,Ibstock School,http://www.ibstockschool.co.uk,Ibstock,LE67 6NE,East Midlands,no
138350,855,Leicestershire,Ivanhoe School,http://www.ivanhoe.co.uk/,Ashby-de-la-Zouch,LE65 1HX,East Midlands,no
149271,855,Leicestershire,Iveshead School,www.ivesheadschool.org,Loughborough,LE12 9DB,East Midlands,no
137617,855,Leicestershire,John Ferneley College,http://www.johnferneley.org,Melton Mowbray,LE13 1LH,East Midlands,no
144111,855,Leicestershire,John Wycliffe Primary School,https://www.johnwycliffeprimaryschool.co.uk/,Lutterworth,LE17 4QJ,East Midlands,no
119932,855,Leicestershire,Kegworth Primary School,www.kegworthprimary.org,Derby,DE74 2DA,East Midlands,no
138358,855,Leicestershire,Kibworth Church of England Primary School,www.kibprimary.leics.sch.uk,Leicester,LE8 0NH,East Midlands,no
137540,855,Leicestershire,Kibworth Mead Academy,www.kibworth-tmet.uk,Leicester,LE8 0LG,East Midlands,no
120195,855,Leicestershire,Kilby St Mary's Church of England Primary School,www.kilby.leics.sch.uk,Wigston,LE18 3TD,East Midlands,no
144538,855,Leicestershire,Kingsway Primary School,www.kingsway.org.uk,Leicester,LE3 3BD,East Midlands,no
140315,855,Leicestershire,Kirby Muxloe Primary School,https://www.kmprimary.org,Leicester,LE9 2AA,East Midlands,no
138809,855,Leicestershire,Lady Jane Grey Primary School,www.ladyjanegreyprimary.org.uk/,Leicester,LE6 0ZA,East Midlands,no
139859,855,Leicestershire,Langmoor Primary School Oadby,www.langmoor.leics.sch.uk,Leicester,LE2 5HS,East Midlands,no
139751,855,Leicestershire,Launde Primary School,www.launde.leics.sch.uk/,Leicestershire,LE2 4LJ,East Midlands,no
137367,855,Leicestershire,Limehurst Academy,http://www.limehurst.org.uk,Loughborough,LE11 1NH,East Midlands,no
142261,855,Leicestershire,Little Hill Primary,http://www.littlehill.leics.sch.uk/,Wigston,LE18 2GZ,East Midlands,no
120141,855,Leicestershire,Long Clawson Church of England Primary School,http://www.longclawson.leics.sch.uk/,Melton Mowbray,LE14 4PB,East Midlands,no
138628,855,Leicestershire,Long Field Spencer Academy,http://www.longfieldtrust.org.uk,Melton Mowbray,LE13 0BN,East Midlands,no
120142,855,Leicestershire,Long Whatton Church of England Primary School and Community Centre,www.longwhattonschool.org,Loughborough,LE12 5DB,East Midlands,no
140911,855,Leicestershire,Loughborough Church of England Primary School,www.loughborough-primary.co.uk,Loughborough,LE11 3BY,East Midlands,no
139864,855,Leicestershire,Lubenham All Saints Church of England Primary School,www.lubenham.leics.sch.uk,Market Harborough,LE16 9TW,East Midlands,no
138150,855,Leicestershire,Lutterworth College,www.lutterworthcollege.com,Lutterworth,LE17 4EW,East Midlands,no
137115,855,Leicestershire,Lutterworth High School,http://www.lutterworthhigh.co.uk,Lutterworth,LE17 4QH,East Midlands,no
137120,855,Leicestershire,Manor High School,http://www.manorhigh.leics.sch.uk/,Leicester,LE2 4FU,East Midlands,no
146618,855,Leicestershire,Manorfield Church of England Primary School,http://www.manorfield.leics.sch.uk/,Leicester,LE9 4LU,East Midlands,no
120348,855,Leicestershire,Maplewell Hall School,www.maplewell.leics.sch.uk,Loughborough,LE12 8QY,East Midlands,no
141151,855,Leicestershire,Market Harborough Church of England Academy,http://www.marketharboroughcofe.co.uk,Market Harborough,LE16 9QH,East Midlands,no
119925,855,Leicestershire,Martinshaw Primary School,www.martinshaw.leics.sch.uk,Leicester,LE6 0BB,East Midlands,no
138346,855,Leicestershire,Meadowdale Primary School,www.meadowdale.info/,Market Harborough,LE16 7XQ,East Midlands,no
139097,855,Leicestershire,Measham Church of England Primary School,www.meashamprimary.org,Swadlincote,DE12 7LG,East Midlands,no
145158,855,Leicestershire,Melton Vale Sixth Form College,www.mv16.org.uk,Melton Mowbray,LE13 1DN,East Midlands,no
139441,855,Leicestershire,Mercenfeld Primary School,www.mercenfeld.bepschools.org,Markfield,LE67 9WG,East Midlands,no
138999,855,Leicestershire,Millfield L.E.A.D. Academy,www.millfieldacademy.co.uk,Leicester,LE3 2WF,East Midlands,no
119906,855,Leicestershire,Moira Primary School,www.moira.leics.sch.uk,Swadlincote,DE12 6EX,East Midlands,no
139034,855,Leicestershire,Mountfields Lodge School,https://www.mountfields.bepschools.org/,Loughborough,LE11 3GE,East Midlands,no
147089,855,Leicestershire,New Lubbesthorpe Primary School,www.newlubbesthorpe.leics.sch.uk,Leicester,LE19 4BF,East Midlands,no
119917,855,Leicestershire,New Swannington Primary School,www.newswanningtonprimary.org.uk/,Coalville,LE67 5DQ,East Midlands,no
120149,855,Leicestershire,Newbold Church of England Primary School,http://www.newbold-cecp.leics.sch.uk/,Coalville,LE67 8PF,East Midlands,no
143250,855,Leicestershire,Newcroft Primary Academy,www.newcroftprimaryacademy.co.uk,Loughborough,LE12 9DU,East Midlands,no
150436,855,Leicestershire,Newlands Community Primary School,www.newlands.leics.sch.uk,Leicester,LE9 7PA,East Midlands,no
119953,855,Leicestershire,Newton Burgoland Primary School,www.newburland.leics.sch.uk/,Coalville,LE67 2SL,East Midlands,no
143253,855,Leicestershire,Newtown Linford Primary School,https://www.newtown.bepschools.org/,Leicester,LE6 0AD,East Midlands,no
136754,855,Leicestershire,Oakfield School,www.oakfield.leics.sch.uk/,Shepshed,LE12 9DB,East Midlands,no
143611,855,Leicestershire,Oakthorpe Primary School,www.oakthorpeprimary.co.uk,Swadlincote,DE12 7RE,East Midlands,no
140095,855,Leicestershire,Old Dalby Church of England Primary School,www.olddalbyschool.org.uk,Melton Mowbray,LE14 3JY,East Midlands,no
144837,855,Leicestershire,Old Mill Primary School,http://www.oldmillprimary.co.uk,Leicester,LE9 6PT,East Midlands,no
148947,855,Leicestershire,Orchard Community Primary School,http://www.orchardprimary.org,Derby,DE74 2QU,East Midlands,no
139038,855,Leicestershire,Outwoods Edge Primary School,http://www.outwoodsedge.leics.sch.uk,Loughborough,LE11 2LD,East Midlands,no
138348,855,Leicestershire,Parkland Primary School South Wigston,www.parklandprimary.co.uk/,Wigston,LE18 4TA,East Midlands,no
138931,855,Leicestershire,Queniborough Church of England Primary School,www.quenischool.org.uk,Leicester,LE7 3DR,East Midlands,no
139284,855,Leicestershire,Ratby Primary School,www.ratby.bepschools.org,Leicester,LE6 0LN,East Midlands,no
149371,855,Leicestershire,Ravenhurst Primary School,www.ravenhurst.leics.sch.uk/,Leicester,LE3 2PS,East Midlands,no
137640,855,Leicestershire,Rawlins,http://www.rawlins.embracemat.org,Loughborough,LE12 8DY,East Midlands,no
139344,855,Leicestershire,Red Hill Field Primary School,http://www.redhillfield.com,Leicester,LE19 3EF,East Midlands,no
140910,855,Leicestershire,Redmile Church of England Primary School,www.redmile.leics.sch.uk,Nottingham,NG13 0GL,East Midlands,no
137968,855,Leicestershire,Redmoor Academy,http://www.redmooracademy.org/,Hinckley,LE10 0EP,East Midlands,no
138908,855,Leicestershire,Rendell Primary School,http://www.rendellps.leics.sch.uk,Loughborough,LE11 1LL,East Midlands,no
145972,855,Leicestershire,Richard Hill Church of England Primary School,www.richardhillschool.co.uk,Leicester,LE7 7JA,East Midlands,no
143795,855,Leicestershire,Richmond Primary School,http://www.richmond.leics.sch.uk/,Hinckley,LE10 0ZD,East Midlands,no
138347,855,Leicestershire,Ridgeway Primary Academy,www.ridgewayprimary.org.uk,Market Harborough,LE16 7HQ,East Midlands,no
140746,855,Leicestershire,Riverside Community Primary School Birstall,http://www.riversideacademy.org.uk,Leicester,LE4 4JU,East Midlands,no
140476,855,Leicestershire,Robert Bakewell Primary School,www.robertbakewellprimary.com,Loughborough,LE11 5UJ,East Midlands,no
139874,855,Leicestershire,Rothley Church of England Primary School,www.rothley.leics.sch.uk,Leicester,LE7 7RZ,East Midlands,no
138294,855,Leicestershire,Sacred Heart Catholic Voluntary Academy,http://sacredheartacademy.org.uk,Loughborough,LE11 2BG,East Midlands,no
138296,855,Leicestershire,"Saint Clare's Primary School A Catholic Voluntary Academy, Coalville, Leicestershire",www.st-clares.leics.sch.uk/,Coalville,LE67 3SF,East Midlands,no
146180,855,Leicestershire,Saint Francis Catholic Primary School,http://www.st-francis.leics.sch.uk,Melton Mowbray,LE13 0BP,East Midlands,no
138090,855,Leicestershire,"Saint John Fisher Catholic Voluntary Academy, Wigston, Leicestershire",www.stjohnfisher-wigston.leics.sch.uk,Wigston,LE18 3QL,East Midlands,no
138290,855,Leicestershire,Saint Martin's Catholic Voluntary Academy,http://www.saint-martins.net/,Nuneaton,CV13 6BF,East Midlands,no
138295,855,Leicestershire,"Saint Mary's Catholic Primary School, Loughborough",www.stmarys-rc.leics.sch.uk,Loughborough,LE11 5AX,East Midlands,no
142724,855,Leicestershire,"Saint Peter's Catholic Primary School, A Voluntary Academy",www.stpetershinckley.net,Hinckley,LE10 1HJ,East Midlands,no
146133,855,Leicestershire,Saint Peters Catholic Voluntary Academy,www.stpetersprimary.org,,LE9 7AW,East Midlands,no
138299,855,Leicestershire,"Saint Winefride's Catholic Voluntary Academy, Shepshed, Leicestershire",http://www.winefrides-rc.leics.sch.uk,Loughborough,LE12 9AE,East Midlands,no
150049,855,Leicestershire,Scalford Church of England Primary School,http://www.scalford.leics.sch.uk/,Melton Mowbray,LE14 4DT,East Midlands,no
143249,855,Leicestershire,Seagrave Village Primary School,https://www.seagrave.bepschools.org,Loughborough,LE12 7LU,East Midlands,no
144110,855,Leicestershire,Sharnford Church of England Primary School,www.sharnfordprimaryschool.com,Hinckley,LE10 3PN,East Midlands,no
120158,855,Leicestershire,Sheepy Magna Church of England Primary School,http://www.sheepymagna.leics.sch.uk,Atherstone,CV9 3QR,East Midlands,no
145083,855,Leicestershire,Sherard Primary School,www.sherardschool.org,Melton Mowbray,LE13 1HA,East Midlands,no
146611,855,Leicestershire,Sherrier Church of England Primary School,www.sherrierprimaryschool.co.uk,Lutterworth,LE17 4EX,East Midlands,no
140101,855,Leicestershire,Sileby Redlands Community Primary School,http://www.redlands.org.uk,Loughborough,LE12 7LZ,East Midlands,no
120192,855,Leicestershire,Sir John Moore Church of England Primary School,www.sirjohnmoore.co.uk,Swadlincote,DE12 7AH,East Midlands,no
142678,855,Leicestershire,"Sketchley Hill Menphys Nursery School, Burbage",www.menphysnursery.co.uk,Hinckley,LE10 2DY,East Midlands,no
149584,855,Leicestershire,Snarestone Church of England School,www.snarestoneprimary.org/,Swadlincote,DE12 7DB,East Midlands,no
140754,855,Leicestershire,Somerby Primary School,www.somerby.org.uk,Melton Mowbray,LE14 2PZ,East Midlands,no
139442,855,Leicestershire,South Charnwood High School,www.southcharnwood.leics.sch.uk,Markfield,LE67 9TB,East Midlands,no
144117,855,Leicestershire,South Kilworth Church of England Primary School,www.southkilworthprimaryschool.com,Lutterworth,LE17 6EG,East Midlands,no
137931,855,Leicestershire,South Wigston High School,www.southwigston.leics.sch.uk,Wigston,LE18 4TA,East Midlands,no
143254,855,Leicestershire,"St Andrew's Church of England Primary School, North Kilworth",www.standrewsnorthkilworth.co.uk,Lutterworth,LE17 6HD,East Midlands,no
120153,855,Leicestershire,St Bartholomew's Church of England Primary School,www.st-bartholomews.leics.sch.uk,Loughborough,LE12 8HQ,East Midlands,no
146105,855,Leicestershire,St Charles Catholic Primary Voluntary Academy,www.st-charles.leics.sch.uk,Swadlincote,DE12 7LQ,East Midlands,no
120138,855,Leicestershire,"St Denys Church of England Infant School, Ibstock",https://www.stdenysinfantschool.org/,Ibstock,LE67 6NL,East Midlands,no
138080,855,Leicestershire,St Joseph's Catholic Voluntary Academy,http://www.stjosephs.leics.sch.uk,Market Harborough,LE16 9BZ,East Midlands,no
144112,855,Leicestershire,"St Margaret's Church of England Primary School, Stoke Golding",https://st-margarets-coe-primary-school.secure-primarysite.net/,Nuneaton,CV13 6HE,East Midlands,no
139194,855,Leicestershire,St Mary's Church of England Primary School,www.st-marys-school.co.uk/,Melton Mowbray,LE13 0NA,East Midlands,no
144116,855,Leicestershire,"St Mary's Church of England Primary School, Bitteswell",http://www.stmarysbitteswell.uk,Lutterworth,LE17 4SB,East Midlands,no
120134,855,Leicestershire,"St Mary's Church of England Primary School, Hinckley",www.stmarys.leics.sch.uk/,Hinckley,LE10 1AW,East Midlands,no
138902,855,Leicestershire,St Michael & All Angels Church of England Primary School,www.stmichaels.leics.sch.uk,Leicester,LE7 4YB,East Midlands,no
139349,855,Leicestershire,St Peter and St Paul Church of England Academy,www.spspacademy.org/,Leicester,LE7 1HR,East Midlands,no
139098,855,Leicestershire,St Peter's Church of England Primary Academy,www.stpeterscofemb.co.uk,Nuneaton,CV13 0NP,East Midlands,no
146603,855,Leicestershire,St Peter's Church of England Primary School Whetstone,http://www.stpeterswhetstone.co.uk/,Leicester,LE8 6NJ,East Midlands,no
140909,855,Leicestershire,St Peter's Church of England Primary School Wymondham,www.wymondhamprimary.org/,Melton Mowbray,LE14 2AF,East Midlands,no
139200,855,Leicestershire,St Simon and St Jude CofE Primary School,http://www.stsimonandstjude.leics.sch.uk,Leicester,LE9 7AE,East Midlands,no
138154,855,Leicestershire,Stafford Leys Community Primary School,www.staffordleys.bepschools.org,Leicester,LE3 3LJ,East Midlands,no
140251,855,Leicestershire,Stanton Under Bardon Community Primary School,http://www.stanton-u-b.leics.sch.uk/,Markfield,LE67 9TQ,East Midlands,no
139287,855,Leicestershire,Stonebow Primary School Loughborough,http://www.stonebow.leics.sch.uk/,Loughborough,LE11 4ZH,East Midlands,no
139341,855,Leicestershire,Swallowdale Primary School and Community Centre,www.swallowdale.bepschools.org,Melton Mowbray,LE13 0BJ,East Midlands,no
144310,855,Leicestershire,Swannington Church of England Primary School,https://www.swanningtonceprimary.org/,Coalville,LE67 8QJ,East Midlands,no
144118,855,Leicestershire,Swinford Church of England Primary School,https://www.swinford.leics.sch.uk/,Lutterworth,LE17 6BG,East Midlands,no
138478,855,Leicestershire,The Castle Rock School,https://www.castlerock.org.uk/,Coalville,LE67 4BR,East Midlands,no
140787,855,Leicestershire,The Cedars Academy,www.TheCedarsAcademy.org.uk,Leicester,LE4 4GH,East Midlands,no
147858,855,Leicestershire,The Fusion Academy,https://openthinkingpartnership.co.uk/fusion-academy/,Leicester,LE9 8AG,East Midlands,no
141469,855,Leicestershire,The Grove Primary School,www.meltongrove.org,Melton Mowbray,LE13 0HN,East Midlands,no
120070,855,Leicestershire,The Hall School,www.thehallprimary.com/,Leicester,LE3 8PQ,East Midlands,no
148417,855,Leicestershire,The Hinckley School,http://www.hajc.leics.sch.uk,Hinckley,LE10 1LE,East Midlands,no
119903,855,Leicestershire,The Latimer Primary School,www.latimerprimary.co.uk,Leicester,LE7 7AW,East Midlands,no
138108,855,Leicestershire,The Market Bosworth School,www.tmbs.leics.sch.uk,Nuneaton,CV13 0JT,East Midlands,no
137828,855,Leicestershire,The Martin High School Anstey,www.martinhigh.org.uk,Leicester,LE7 7EB,East Midlands,no
138173,855,Leicestershire,The Meadow Community Primary School,www.meadowcommunity.co.uk,Wigston,LE18 3QZ,East Midlands,no
138818,855,Leicestershire,The Merton Primary School,www.merton.bepschools.org,Leicester,LE7 2PT,East Midlands,no
138301,855,Leicestershire,The Newbridge School,http://www.newbridge.org.uk,Coalville,LE67 3SJ,East Midlands,no
139620,855,Leicestershire,The Pastures Primary School,www.pastures-primary.leics.sch.uk,Leicester,LE19 3YP,East Midlands,no
138838,855,Leicestershire,The Pochin School,www.pochin.bepschools.org,Leicester,LE7 3QL,East Midlands,no
138819,855,Leicestershire,The Priory Belvoir Academy,http://www.belvoiracademy.co.uk/,Nottingham,NG13 0AX,East Midlands,no
137161,855,Leicestershire,The Robert Smyth Academy,http://www.robertsmyth.tgacademy.org.uk,Market Harborough,LE16 7JG,East Midlands,no
138079,855,Leicestershire,The Roundhill Academy,www.roundhill.bepschools.org,Leicester,LE4 8GQ,East Midlands,no
143844,855,Leicestershire,The Winstanley School,https://www.winstanleyschool.org.uk/,Leicester,LE3 3BD,East Midlands,no
138527,855,Leicestershire,Thomas Estley Community College,http://www.thomasestley.org.uk/,Leicester,LE9 6PT,East Midlands,no
140253,855,Leicestershire,Thornton Primary School,www.thornton.leics.sch.uk,Coalville,LE67 1AH,East Midlands,no
119958,855,Leicestershire,Thorpe Acre Infant School,www.tais.leics.sch.uk/,Loughborough,LE11 4SQ,East Midlands,no
119957,855,Leicestershire,Thorpe Acre Junior School,www.thorpeacrejuniorschool.co.uk,Loughborough,LE11 4SQ,East Midlands,no
139767,855,Leicestershire,Thringstone Primary School,http://www.thringstone.leics.sch.uk,Coalville,LE67 8LJ,East Midlands,no
138926,855,Leicestershire,Thrussington Church of England Primary School,http://www.thrussington.leics.sch.uk/,Leicester,LE7 4TH,East Midlands,no
144109,855,Leicestershire,"Thurnby, St Luke's Church of England Primary School",www.st-lukes.leics.sch.uk,Leicester,LE7 9PN,East Midlands,no
141630,855,Leicestershire,Townlands Church of England Primary School,www.townlandsprimary.org/,Leicester,LE9 7FF,East Midlands,no
140912,855,Leicestershire,Tugby Church of England Primary School,http://www.tugby.leics.sch.uk/,Leicester,LE7 9WD,East Midlands,no
144114,855,Leicestershire,Ullesthorpe Church of England Primary School,www.ullesthorpe.leics.sch.uk,Lutterworth,LE17 5DN,East Midlands,no
143610,855,Leicestershire,Viscount Beaumont's Church of England Primary School,www.viscountbeaumonts.leics.sch.uk,Coalville,LE67 8FD,East Midlands,no
140913,855,Leicestershire,Waltham on the Wolds Church of England Primary School,http://www.waltham.leics.sch.uk/,Melton Mowbray,LE14 4AJ,East Midlands,no
120079,855,Leicestershire,Water Leys Primary School,www.waterleysprimaryschool.co.uk/,Wigston,LE18 1HG,East Midlands,no
137170,855,Leicestershire,Welland Park Academy,http://wellandparkacademy.co.uk/,Market Harborough,LE16 9DR,East Midlands,no
150744,855,Leicestershire,Wellington Place Primary School,https://wellingtonplaceprimary.co.uk/,Market Harborough,LE16 7BY,East Midlands,no
137984,855,Leicestershire,Wigston Academy,www.wigstonacademy.org,Wigston,LE18 2DT,East Midlands,no
138935,855,Leicestershire,Wigston Birkett House Community Special School,www.birketthouse.leics.sch.uk,Leics,LE18 2DT,East Midlands,no
138894,855,Leicestershire,Wigston College,www.wigstoncollege.org,Wigston,LE18 2DS,East Midlands,no
142677,855,Leicestershire,Wigston Menphys Nursery School,http://www.menphyscentre.leics.sch.uk,Wigston,LE18 2FR,East Midlands,no
120172,855,Leicestershire,Witherley Church of England Primary School,http://www.witherley.leics.sch.uk,Atherstone,CV9 3NA,East Midlands,no
137401,855,Leicestershire,Woodbrook Vale School,http://www.wbvs.co.uk,Loughborough,LE11 2ST,East Midlands,no
150642,855,Leicestershire,Woodhouse Eaves St Paul's Church of England Primary School,http://www.st-pauls.leics.sch.uk,Loughborough,LE12 8SA,East Midlands,no
145620,855,Leicestershire,Woodland Grange Primary School,http://www.woodlandwideweb.org.uk/,Leicester,LE2 4TY,East Midlands,no
119916,855,Leicestershire,Woodstone Community Primary School,www.woodstoneprimary.co.uk,Coalville,LE67 2AH,East Midlands,no
140851,855,Leicestershire,Woolden Hill Primary School,www.wooldenhillprimary.org.uk/,Leicester,LE7 7ES,East Midlands,no
119954,855,Leicestershire,Worthington School,www.worthington.leics.sch.uk,Ashby-de-la-Zouch,LE65 1RQ,East Midlands,no
137983,855,Leicestershire,Wreake Valley Academy,https://www.wreake.bepschools.org/,Leicester,LE7 1LY,East Midlands,no
120190,855,Leicestershire,Ashby-de-la-Zouch Church of England Primary School,http://www.ashbyce.leics.sch.uk/,Ashby-de-la-Zouch,LE65 2LL,East Midlands,yes
120114,855,Leicestershire,Belton Church of England Primary School,www.belton.leics.sch.uk,Loughborough,LE12 9TS,East Midlands,yes
120115,855,Leicestershire,Billesdon Church of England Primary School,www.billesdon.leics.sch.uk,Leicester,LE7 9AG,East Midlands,yes
134640,855,Leicestershire,Birch Wood (Melton Area Special School),www.birchwoodschool.co.uk,Melton Mowbray,LE13 1HA,East Midlands,yes
120121,855,Leicestershire,Burbage Church of England Infant School,www.burbageinfants.org/,Hinckley,LE10 2AE,East Midlands,yes
119949,855,Leicestershire,Congerstone Primary School,http://www.congerstone.leics.sch.uk/,Nuneaton,CV13 6NH,East Midlands,yes
120176,855,Leicestershire,Hallaton Church of England Primary School,www.hallatonprimary.co.uk/,Market Harborough,LE16 8TY,East Midlands,yes
120175,855,Leicestershire,Hathern Church of England Primary School,www.hathernprimary.org/,Loughborough,LE12 5LJ,East Midlands,yes
119926,855,Leicestershire,Heather Primary School,https://www.heather.leics.sch.uk/,Coalville,LE67 2QP,East Midlands,yes
119934,855,Leicestershire,Hemington Primary School,www.hemington.leics.sch.uk,Derby,DE74 2RB,East Midlands,yes
119931,855,Leicestershire,Ibstock Junior School,www.ibstockjuniorschool.co.uk,Ibstock,LE67 6NP,East Midlands,yes
119936,855,Leicestershire,Little Bowden School,www.littlebowden.leics.sch.uk,Market Harborough,LE16 8AY,East Midlands,yes
119942,855,Leicestershire,Newbold Verdon Primary School,www.newboldverdonprimaryschool.co.uk,Leicester,LE9 9NG,East Midlands,yes
120120,855,Leicestershire,"Orchard Church of England Primary School, Broughton Astley",http://www.orchardcofe.leics.sch.uk/,Broughton Astley,LE9 6QX,East Midlands,yes
119961,855,Leicestershire,Oxley Primary School Shepshed,https://www.oxleyprimary.org/,Loughborough,LE12 9LU,East Midlands,yes
120151,855,Leicestershire,Packington Church of England Primary School,http://www.packington.leics.sch.uk/,Ashby-de-la-Zouch,LE65 1WL,East Midlands,yes
119986,855,Leicestershire,Sketchley Hill Primary School Burbage,www.sketchleyhill.leics.sch.uk,Hinckley,LE10 2DY,East Midlands,yes
120159,855,Leicestershire,St Botolph's Church of England Primary School,http://www.st-botolphs.leics.sch.uk,Loughborough,LE12 9DA,East Midlands,yes
120122,855,Leicestershire,St Edward's Church of England Primary School,www.stedwards-cd.leics.sch.uk,Derby,DE74 2LH,East Midlands,yes
120119,855,Leicestershire,St Hardulph's Church of England Primary School,www.st-hardulphs.leics.sch.uk,Derby,DE73 8AN,East Midlands,yes
119952,855,Leicestershire,Stathern Primary School,http://www.stathern.leics.sch.uk,Melton Mowbray,LE14 4HX,East Midlands,yes
120163,855,Leicestershire,Swithland St Leonard's Church of England Primary School,http://www.st-leonards.leics.sch.uk/,Loughborough,LE12 8TQ,East Midlands,yes
120201,855,Leicestershire,Thurlaston Church of England Primary School,http://www.thurlaston.leics.sch.uk/,Leicester,LE9 7TE,East Midlands,yes
119993,855,Leicestershire,Thythorn Field Community Primary School,www.thythornfield.co.uk,Wigston,LE18 2QU,East Midlands,yes
119981,855,Leicestershire,Warren Hills Community Primary School,http://www.warrenhills.leics.sch.uk,Coalville,LE67 4TA,East Midlands,yes
119929,855,Leicestershire,Westfield Infant School,http://www.westfield-inf.leics.sch.uk,Hinckley,LE10 0JL,East Midlands,yes
119928,855,Leicestershire,Westfield Junior School,www.westfield-jun.leics.sch.uk,Hinckley,LE10 0LT,East Midlands,yes
120171,855,Leicestershire,Whitwick St John The Baptist Church of England Primary School,http://www.whitwickce.leics.sch.uk,Coalville,LE67 5AT,East Midlands,yes
120096,855,Leicestershire,Woodcote Primary School,http://www.woodcoteprimary.com,Ashby-de-la-Zouch,LE65 1JX,East Midlands,yes
120174,855,Leicestershire,Wymeswold Church of England Primary School,http://www.wymeswold.leics.sch.uk,Loughborough,LE12 6TU,East Midlands,yes
