urn,district_code,district_name,school_name,website,town,postcode,region,has_email_collected
149990,861,Stoke-on-Trent,Abbey Hill Academy & College,www.abbeyhillschool.co.uk,Stoke-On-Trent,ST3 5PP,West Midlands,no
146487,861,Stoke-on-Trent,Abbey Hulton Primary School,www.abbeyhultonprimary.org.uk/,Stoke-on-Trent,ST2 8BS,West Midlands,no
143489,861,Stoke-on-Trent,Alexandra Infants' School,www.alexinfants.co.uk/,Stoke-on-Trent,ST3 4PZ,West Midlands,no
143485,861,Stoke-on-Trent,Alexandra Junior School,www.alexandra-jun.stoke.sch.uk/,Stoke-on-Trent,ST3 7JG,West Midlands,no
142990,861,Stoke-on-Trent,Ash Green Primary Academy,www.ashgreenprimary.co.uk/,Stoke-on-Trent,ST4 8BX,West Midlands,no
136549,861,Stoke-on-Trent,Belgrave St Bartholomew's Academy,www.belgraveacademy.org.uk/,Stoke-on-Trent,ST3 4TP,West Midlands,no
148220,861,Stoke-on-Trent,Birches Head Academy,http://www.bircheshead.org.uk,Stoke-on-Trent,ST2 8DD,West Midlands,no
124221,861,Stoke-on-Trent,Burnwood Community Primary School,www.burnwoodcommunityschool.co.uk,Stoke-on-Trent,ST6 7LP,West Midlands,no
139846,861,Stoke-on-Trent,Carmountside Primary Academy,www.carmountsideprimary.org.uk/,Stoke-on-Trent,ST2 8DJ,West Midlands,no
146155,861,Stoke-on-Trent,Christ Church CofE Primary Academy,http://www.christchurchfenton.co.uk,Stoke-on-Trent,ST4 2JG,West Midlands,no
145003,861,Stoke-on-Trent,City of Stoke-On-Trent Sixth Form College,https://www.stokesfc.ac.uk/,Stoke-on-Trent,ST4 2RU,West Midlands,no
148219,861,Stoke-on-Trent,Co-op Academy Clarice Cliff,claricecliff.coopacademies.co.uk,Stoke-on-Trent,ST4 3DP,West Midlands,no
150790,861,Stoke-on-Trent,Co-op Academy Florence MacWilliams,https://www.florencemacwilliams.coopacademies.co.uk/,Stoke-on-Trent,ST3 6AP,West Midlands,no
140280,861,Stoke-on-Trent,Co-op Academy Glebe,https://glebe.coopacademies.co.uk/,Stoke-on-Trent,ST4 3HZ,West Midlands,no
144696,861,Stoke-on-Trent,Co-op Academy Grove,https://www.grove.coopacademies.co.uk/,Stoke-on-Trent,ST1 2NL,West Midlands,no
143484,861,Stoke-on-Trent,Co-op Academy Hamilton,https://www.hamilton.coopacademies.co.uk/,Stoke-on-Trent,ST1 6NW,West Midlands,no
143486,861,Stoke-on-Trent,Co-op Academy Northwood,https://www.northwood.coopacademies.co.uk/,Stoke-on-Trent,ST1 6QA,West Midlands,no
136102,861,Stoke-on-Trent,Co-op Academy Stoke-On-Trent,stokeontrent.coopacademies.co.uk,Stoke-on-Trent,ST6 4LD,West Midlands,no
136681,861,Stoke-on-Trent,Discovery Academy,http://www.thediscoveryacademy.co.uk/,Stoke-on-Trent,ST2 0GA,West Midlands,no
138550,861,Stoke-on-Trent,Eaton Park Academy,www.eatonparkacademy.co.uk,Stoke-on-Trent,ST2 9PF,West Midlands,no
146464,861,Stoke-on-Trent,Etruscan Primary School,www.etruscan.stoke.sch.uk,Stoke-on-Trent,ST1 4BS,West Midlands,no
146459,861,Stoke-on-Trent,Forest Park Primary School,www.forestpark.org.uk,Stoke-on-Trent,ST1 5ED,West Midlands,no
142991,861,Stoke-on-Trent,Gladstone Primary Academy,http://www.gladstone.stoke.sch.uk,Stoke-on-Trent,ST3 5EW,West Midlands,no
142992,861,Stoke-on-Trent,Goldenhill Primary Academy,http://www.goldenhill.stoke.sch.uk,Stoke-on-Trent,ST6 4QE,West Midlands,no
143012,861,Stoke-on-Trent,Greenways Primary Academy,www.greenwaysprimaryacademy.org.uk,Stoke-on-Trent,ST9 9NY,West Midlands,no
150423,861,Stoke-on-Trent,Hanley St Luke's Church of England Academy,http://www.hanleystlukes.com,Stoke-on-Trent,ST1 3QH,West Midlands,no
138497,861,Stoke-on-Trent,Harpfield Primary Academy,www.harpfieldprimaryacademy.org.uk,Stoke-on-Trent,ST4 6AP,West Midlands,no
138549,861,Stoke-on-Trent,Haywood Academy,http://www.haywoodacademy.coop/,Stoke-on-Trent,ST6 7AB,West Midlands,no
150050,861,Stoke-on-Trent,Holden Lane Academy,www.holdenlane-pri.stoke.sch.uk/,Stoke-on-Trent,ST1 6JS,West Midlands,no
143487,861,Stoke-on-Trent,Jackfield Infant School,http://www.jackfield.stoke.sch.uk,Stoke-on-Trent,ST6 1ET,West Midlands,no
146497,861,Stoke-on-Trent,Kemball School,www.kemballschool.co.uk,Stoke-on-Trent,ST3 3JD,West Midlands,no
142640,861,Stoke-on-Trent,Kingsland CofE Academy,www.kingslandceacademy.co.uk/,Stoke-on-Trent,ST2 9AS,West Midlands,no
150771,861,Stoke-on-Trent,Manor Abbey School,https://manorabbey.uk/,Stoke-on-Trent,ST2 8LG,West Midlands,no
139228,861,Stoke-on-Trent,Maple Court Academy,https://maple.alphaacademiestrust.co.uk/,Stoke-on-Trent,ST2 0QD,West Midlands,no
134159,861,Stoke-on-Trent,Merit Hospital School and Medical Pupil Referral Unit,www.meritpru-stoke.org.uk,Stoke-on-Trent,ST2 9JA,West Midlands,no
141405,861,Stoke-on-Trent,Mill Hill Primary Academy,www.millhillprimaryacademy.coop,Stoke-on-Trent,ST6 6ED,West Midlands,no
144441,861,Stoke-on-Trent,Milton Primary Academy,https://www.miltonprimaryacademy.org.uk/,Stoke-on-Trent,ST2 7AF,West Midlands,no
143488,861,Stoke-on-Trent,Moorpark Junior School,www.moorpark.stoke.sch.uk,Stoke-on-Trent,ST6 1EL,West Midlands,no
142642,861,Stoke-on-Trent,New Ford Academy,www.newford.org.uk/,Stoke-on-Trent,ST6 1PY,West Midlands,no
140285,861,Stoke-on-Trent,Newstead Primary Academy,http://www.newstead.stoke.sch.uk,Stoke-on-Trent,ST3 3LQ,West Midlands,no
140859,861,Stoke-on-Trent,Norton-Le-Moors Primary Academy,www.norton.stoke.sch.uk/,Stoke-on-Trent,ST6 8BZ,West Midlands,no
146466,861,Stoke-on-Trent,Oakhill Primary School,www.oakhillprimaryschool.co.uk,Stoke-on-Trent,ST4 5NS,West Midlands,no
136680,861,Stoke-on-Trent,Ormiston Horizon Academy,http://www.ormistonhorizonacademy.co.uk/,Stoke on Trent,ST6 6JZ,West Midlands,no
142186,861,Stoke-on-Trent,Ormiston Meridian Academy,,Stoke-on-Trent,ST3 7DF,West Midlands,no
136145,861,Stoke-on-Trent,Ormiston Sir Stanley Matthews Academy,http://www.ormistonsirstanleymatthewsacademy.co.uk/,Stoke-on-Trent,ST3 3JD,West Midlands,no
140141,861,Stoke-on-Trent,Our Lady and St Benedict Catholic Academy,www.ourladyandstbenedict.co.uk,Stoke-on-Trent,ST2 8AU,West Midlands,no
140287,861,Stoke-on-Trent,Our Lady's Catholic Academy,www.ourladysca.org.uk,Stoke-on-Trent,ST4 4NP,West Midlands,no
142643,861,Stoke-on-Trent,Packmoor Ormiston Academy,http://www.packmoorormistonacademy.co.uk,Stoke-on-Trent,ST7 4SP,West Midlands,no
142989,861,Stoke-on-Trent,Park Hall Academy,www.parkhallacademy.co.uk,Stoke-on-Trent,ST3 5QU,West Midlands,no
149392,861,Stoke-on-Trent,Portland School,http://portlandschool.net/,Stoke-on-Trent,ST11 9JG,West Midlands,no
150003,861,Stoke-on-Trent,Priory CofE Academy,www.prioryceprimary.org.uk/,Stoke-on-Trent,ST4 8EF,West Midlands,no
140562,861,Stoke-on-Trent,Saint Nathaniel's Academy,www.saintnathaniels.org.uk,Stoke-on-Trent,ST6 4JG,West Midlands,no
140872,861,Stoke-on-Trent,Sandon Primary Academy,www.sandonprimaryacademy.com,Stoke-on-Trent,ST3 7AW,West Midlands,no
142207,861,Stoke-on-Trent,Smallthorne Primary Academy,https://clt.smallthorne.coop,Stoke-on-Trent,ST6 1PR,West Midlands,no
145691,861,Stoke-on-Trent,Sneyd Academy,https://sneyd.alphaacademiestrust.co.uk,Stoke-on-Trent,ST6 2NS,West Midlands,no
140296,861,Stoke-on-Trent,St Augustine's Catholic Academy,www.staugustinescatholicacademy.org/,Stoke-on-Trent,ST3 7DF,West Midlands,no
140145,861,Stoke-on-Trent,St George and St Martin's Catholic Academy,www.sgsmacademy.co.uk,Stoke-on-Trent,ST1 2NQ,West Midlands,no
140297,861,Stoke-on-Trent,St Gregory's Catholic Academy,www.saintgregorys.org.uk,Stoke-on-Trent,ST3 2QN,West Midlands,no
124309,861,Stoke-on-Trent,St John's CofE (A) Primary School,http://www.stjohns.stoke.sch.uk,Stoke-on-Trent,ST4 6SB,West Midlands,no
140148,861,Stoke-on-Trent,"St Joseph's Catholic Academy, Goldenhill",www.stjosephscatholicacademy.co.uk,Stoke-on-Trent,ST6 5RN,West Midlands,no
136460,861,Stoke-on-Trent,St Joseph's College,http://stjosephstrentvale.com/,Stoke-on-Trent,ST4 5NT,West Midlands,no
140149,861,Stoke-on-Trent,St Margaret Ward Catholic Academy,http://www.stmargaretward.co.uk/,Stoke-on-Trent,ST6 6LZ,West Midlands,no
140298,861,Stoke-on-Trent,St Maria Goretti Catholic Academy,http://www.stmariagoretti.org.uk,Stoke-on-Trent,ST2 0LY,West Midlands,no
146465,861,Stoke-on-Trent,St Mark's CofE Primary School,https://www.stmarksprimary.org.uk/,Stoke-on-Trent,ST1 4LR,West Midlands,no
144210,861,Stoke-on-Trent,St Mary's Church of England Primary School,www.stmarysce.org.uk,Stoke-on-Trent,ST6 5DE,West Midlands,no
140114,861,Stoke-on-Trent,St Marys Catholic Academy,http://www.st-marysrc.stoke.sch.uk,Stoke-on-Trent,ST6 8EZ,West Midlands,no
140299,861,Stoke-on-Trent,St Matthews Church of England Academy,www.stmatthews.stoke.sch.uk/,Stoke-on-Trent,ST3 7NE,West Midlands,no
140150,861,Stoke-on-Trent,St Peter's Catholic Academy,https://www.stpetersnewman.co.uk/,Stoke-on-Trent,ST6 3HL,West Midlands,no
136824,861,Stoke-on-Trent,St Peter's CofE Academy,http://www.spa.woodard.co.uk/,Stoke-on-Trent,ST4 2RR,West Midlands,no
140804,861,Stoke-on-Trent,St Teresa's Catholic (A) Primary School,www.st-teresas.stoke.sch.uk/,Stoke-on-Trent,ST4 6SP,West Midlands,no
140805,861,Stoke-on-Trent,St Thomas Aquinas Catholic Primary School,www.st-thomasaquinas.stoke.sch.uk/,Stoke-on-Trent,ST4 7DG,West Midlands,no
140304,861,Stoke-on-Trent,St Thomas More Catholic Academy,http://www.stmca.org.uk,Stoke-on-Trent,ST3 2NJ,West Midlands,no
140151,861,Stoke-on-Trent,St Wilfrid's Catholic Primary School,www.stwilfridsnewman.co.uk,Stoke-on-Trent,ST6 6EE,West Midlands,no
139226,861,Stoke-on-Trent,"Star Academy, Sandyford",www.staracademy.attrust.org.uk/,Stoke-on-Trent,ST6 5PT,West Midlands,no
144592,861,Stoke-on-Trent,Stoke Minster CofE Primary Academy,www.stokeminster.stoke.sch.uk/,Stoke-on-Trent,ST4 4EE,West Midlands,no
142988,861,Stoke-on-Trent,Summerbank Primary Academy,www.summerbank.co.uk/,Stoke-on-Trent,ST6 5HA,West Midlands,no
138548,861,Stoke-on-Trent,Sutherland Primary Academy,http://www.sutherlandprimary.co.uk,Stoke-on-Trent,ST3 3DY,West Midlands,no
138551,861,Stoke-on-Trent,The Crescent Academy,www.thecrescentacademy.com,Stoke-on-Trent,ST3 6HZ,West Midlands,no
140633,861,Stoke-on-Trent,The Excel Academy,http://www.excelacademy.info/,Stoke-on-Trent,ST1 6LG,West Midlands,no
146473,861,Stoke-on-Trent,The Meadows Primary Academy,www.themeadowsprimaryacademy.org.uk,Stoke-on-Trent,ST3 3AZ,West Midlands,no
139068,861,Stoke-on-Trent,Thistley Hough Academy,http://www.thistleyhoughacademy.org.uk/,Stoke-on-Trent,ST4 5JJ,West Midlands,no
144558,861,Stoke-on-Trent,Trentham Academy,https://clt.trentham.coop/,Stoke-on-Trent,ST4 8PQ,West Midlands,no
146503,861,Stoke-on-Trent,Watermill School,,Stoke-on-Trent,ST6 6JZ,West Midlands,no
148121,861,Stoke-on-Trent,Waterside Primary School,www.waterside.stoke.sch.uk/,Stoke-on-Trent,ST1 3JS,West Midlands,no
143358,861,Stoke-on-Trent,Weston Infant Academy,www.westonfederation.co.uk,Stoke-on-Trent,ST3 6PT,West Midlands,no
143356,861,Stoke-on-Trent,Weston Junior Academy,www.westonfederation.co.uk,Stoke-on-Trent,ST3 6NG,West Midlands,no
141346,861,Stoke-on-Trent,Whitfield Valley Primary Academy,www.whitfieldv.org.uk/,Stoke-on-Trent,ST6 6TD,West Midlands,no
124020,861,Stoke-on-Trent,Ball Green Primary School,www.ballgreenprimary.co.uk,Stoke-on-Trent,ST6 8AJ,West Midlands,yes
123970,861,Stoke-on-Trent,Bentilee Nursery School,www.bentileenursery.co.uk,Stoke-on-Trent,ST2 0HW,West Midlands,yes
124003,861,Stoke-on-Trent,Heron Cross Primary School,www.heroncrossprimary.co.uk,Stoke-on-Trent,ST4 4LJ,West Midlands,yes
124024,861,Stoke-on-Trent,Hillside Primary School,www.hillsideprimary.org.uk,Stoke-on-Trent,ST2 7AS,West Midlands,yes
124030,861,Stoke-on-Trent,Sandford Hill Primary School,www.sandfordhill.org.uk,Stoke-on-Trent,ST3 5AQ,West Midlands,yes
124227,861,Stoke-on-Trent,St Paul's CofE (C) Primary School,www.stpaulsprimaryschool.org.uk,Stoke-on-Trent,ST3 2RH,West Midlands,yes
123999,861,Stoke-on-Trent,The Willows Primary School,www.willowsprimary.com,Stoke-on-Trent,ST4 7JY,West Midlands,yes
