urn,district_code,district_name,school_name,website,town,postcode,region,has_email_collected
149038,866,Swindon,Abbey Farm Educate Together Primary,https://abbeyfarmet.org.uk/,Swindon,SN25 2SJ,South West,no
146073,866,Swindon,Abbey Meads Community Primary School,http://www.abbeymeads.swindon.sch.uk,Swindon,SN25 4GY,South West,no
145744,866,Swindon,Abbey Park School,www.abbeyparkschool.org.uk,Swindon,SN25 2ND,South West,no
147065,866,Swindon,Badbury Park Primary School,www.badburyparkprimary.co.uk,Swindon,SN3 6ER,South West,no
126210,866,Swindon,Beechcroft Infant School,www.beechcroft.swindon.sch.uk/,Swindon,SN2 7QE,South West,no
126300,866,Swindon,Bishopstone Church of England Primary School,www.bishopstone.swindon.sch.uk/,Swindon,SN6 8PW,South West,no
149193,866,Swindon,Bridlewood Primary School,www.bridlewoodprimaryschool.org.uk,Swindon,SN25 2EX,South West,no
143013,866,Swindon,Brimble Hill Special School,https://www.brimblehillschool.org.uk/,Swindon,SN25 2NB,South West,no
147755,866,Swindon,Brook Field Primary School,www.brookfieldprimary.org,Swindon,SN5 5SB,South West,no
147250,866,Swindon,Catherine Wayte Primary School,www.catherinewayte.swindon.sch.uk/,Swindon,SN25 4TA,South West,no
145874,866,Swindon,Churchward School,churchwardschool.org.uk,Swindon,SN25 2PP,South West,no
137620,866,Swindon,Colebrook Infant Academy,www.colebrookinfants.co.uk,Swindon,SN3 4AS,South West,no
150192,866,Swindon,Covingham Park Primary School,www.cpps.swindon.sch.uk/,Swindon,SN3 5BD,South West,no
126549,866,Swindon,Crowdys Hill School,www.crowdyshill.swindon.sch.uk,Swindon,SN2 7HJ,South West,no
138309,866,Swindon,Drove Primary School,https://drove-pri.swindon.sch.uk/,Swindon,SN1 3AH,South West,no
136068,866,Swindon,East Wichel Primary School & Nursery,www.eastwichel.swindon.sch.uk/,SWINDON,SN1 7AG,South West,no
137365,866,Swindon,Eastrop Infant School,www.eastropinfantschool.org.uk,Swindon,SN6 7AP,South West,no
132229,866,Swindon,Eldene Nursery and Primary School,www.eldeneprimaryschool.org.uk,Swindon,SN3 3TQ,South West,no
151248,866,Swindon,Even Swindon Primary School,www.evenswindon.co.uk,Swindon,SN2 2UJ,South West,no
142546,866,Swindon,Ferndale Primary School & Nursery,www.ferndaleprimaryschool.co.uk/,swindon,SN2 1NX,South West,no
136293,866,Swindon,Goddard Park Community Primary School,http://www.goddardpark.co.uk,Swindon,SN3 2QN,South West,no
144500,866,Swindon,Gorse Hill Primary School,https://gorsehill.swindon.sch.uk/,Swindon,SN2 8BZ,South West,no
146850,866,Swindon,Grange Infants' School,http://www.grange-inf.swindon.sch.uk,Swindon,SN3 4XE,South West,no
146986,866,Swindon,Grange Junior School,www.grange-jun.swindon.sch.uk,Swindon,SN3 4JY,South West,no
145883,866,Swindon,Great Western Academy,www.gwacademy.co.uk,Swindon,SN25 2PP,South West,no
148925,866,Swindon,Greenmeadow Primary School,www.greenmeadow-pri.swindon.sch.uk,Swindon,SN25 3LW,South West,no
141273,866,Swindon,Haydon Wick Primary School,http://www.haydonwick.swindon.sch.uk,Swindon,SN25 1HT,South West,no
151130,866,Swindon,Haydonleigh Primary School,www.haydonleighschool.co.uk/,Swindon,SN25 1JP,South West,no
139207,866,Swindon,Hazelwood Academy,www.hazelwoodacademy.org,Swindon,SN5 8DR,South West,no
150277,866,Swindon,Highworth Warneford School,,Swindon,SN6 7BZ,South West,no
136981,866,Swindon,Holy Cross Catholic Primary School,http://www.holycross.swindon.sch.uk,Swindon,SN3 1AR,South West,no
138636,866,Swindon,Holy Family Catholic Primary School,www.holyfamily.swindon.sch.uk/,Swindon,SN3 2PT,South West,no
137074,866,Swindon,Holy Rood Catholic Primary School,www.holyroodcatholicprimary.co.uk,Swindon,SN1 2LU,South West,no
138479,866,Swindon,King William Street Church of England Primary School,http://www.kingwilliam.swindon.sch.uk,Swindon,SN1 3LB,South West,no
143673,866,Swindon,Kingfisher CE Academy,https://www.kcea.org.uk/,Swindon,SN1 7DA,South West,no
145139,866,Swindon,Kingsdown School,www.kingsdownschool.co.uk,Swindon,SN2 7SH,South West,no
144773,866,Swindon,Lawn Manor Academy,www.lawnmanor.org,Swindon,SN3 1ER,South West,no
126240,866,Swindon,Lawn Primary and Nursery School,http://www.lawn-pri.swindon.sch.uk,Swindon,SN3 1LE,South West,no
137191,866,Swindon,Lethbridge Primary School,www.lethbridgeprimary.co.uk/,Swindon,SN1 4BY,South West,no
148321,866,Swindon,Liden Academy,www.liden-pri.swindon.sch.uk/,Swindon,SN3 6EX,South West,no
137264,866,Swindon,Lydiard Park Academy,http://www.lydiardparkacademy.org.uk,Swindon,SN5 6HN,South West,no
140284,866,Swindon,Millbrook Primary School,www.millbrook.swindon.sch.uk/,Swindon,SN5 8NU,South West,no
140264,866,Swindon,Moredon Primary School,www.moredonprimary.com/,Swindon,SN2 2JG,South West,no
138308,866,Swindon,Mountford Manor Primary School,www.mountfordmanor.swindon.sch.uk/,Swindon,SN3 3EZ,South West,no
140515,866,Swindon,Nova Hreod Academy,http://www.novahreodacademy.org.uk,Swindon,SN2 2NQ,South West,no
138307,866,Swindon,Nyland School,www.nyland-pri.swindon.sch.uk,Swindon,SN3 3RD,South West,no
147511,866,Swindon,Nythe Primary School,www.nythe.excalibur.org.uk,Swindon,SN3 3RR,South West,no
150191,866,Swindon,OakTree Nursery and Primary School,www.oaktree.swindon.sch.uk/,Swindon,SN3 2HA,South West,no
149880,866,Swindon,Oakhurst Community Primary School,www.oakhurst.swindon.sch.uk,Swindon,SN25 2HY,South West,no
126443,866,Swindon,Oliver Tomkins Church of England Infant and Nursery School,http://olivertomkinsschools.co.uk/swindon/primary/olivertomkins,Swindon,SN5 8LW,South West,no
126440,866,Swindon,Oliver Tomkins Church of England Junior School,www.olivertomkinsschools.co.uk/,Swindon,SN5 8LW,South West,no
147513,866,Swindon,Orchid Vale Primary School,https://orchidvale-swindon.secure-dbprimary.com/swindon/primary/orchidvale,Swindon,SN25 1UG,South West,no
140289,866,Swindon,Peatmoor Community Primary School,http://www.peatmoor.org.uk,Swindon,SN5 5DP,South West,no
146150,866,Swindon,Red Oaks Primary School,http://www.redoaks.org/,Swindon,SN25 2AN,South West,no
149130,866,Swindon,Robert Le Kyng Primary School,www.robertlekyng.co.uk/,Swindon,SN1 5HS,South West,no
138306,866,Swindon,Rodbourne Cheney Primary School,www.rodbournecheney.swindon.sch.uk/,Swindon,SN25 3BN,South West,no
142539,866,Swindon,Ruskin Junior School,http://www.ruskinjuniorschool.com/,Swindon,SN2 7NG,South West,no
138005,866,Swindon,Seven Fields Primary School,http://www.sevenfieldsprimary.org,Swindon,SN2 5DE,South West,no
140291,866,Swindon,Shaw Ridge Primary School,http://www.shawridgeprimary.org.uk,Swindon,SN5 5PU,South West,no
143494,866,Swindon,South Marston Church of England Primary School,https://smcea.org.uk/,Swindon,SN3 4SH,South West,no
137460,866,Swindon,Southfield Junior School,www.southfieldjuniorsch.co.uk,Swindon,SN6 7BZ,South West,no
138619,866,Swindon,"St Catherine's Catholic Primary School, Swindon",http://www.stcatherines.swindon.sch.uk,Swindon,SN2 7LL,South West,no
134151,866,Swindon,St Francis CofE Primary School,www.stfrancis.swindon.sch.uk,Swindon,SN25 1UH,South West,no
136980,866,Swindon,St Joseph's Catholic College,http://www.stjosephscollege.net,Swindon,SN3 3LR,South West,no
148009,866,Swindon,St Leonard's Church of England Primary Academy,https://www.stleonardsblunsdon.org.uk/,Swindon,SN26 7AP,South West,no
145852,866,Swindon,St Luke's Academy,,Swindon,SN2 7AS,South West,no
137147,866,Swindon,St Mary's Catholic Primary School,www.st-marys.swindon.sch.uk/,Swindon,SN2 1PE,South West,no
135364,866,Swindon,Swindon Academy,www.swindon-academy.org,Swindon,SN2 1JR,South West,no
140420,866,Swindon,Tadpole Farm CofE Primary Academy,www.tadpolefarmcepa.co.uk,Swindon,SN25 2QS,South West,no
146668,866,Swindon,The Chalet School,www.thechaletschool.org.uk,Swindon,SN3 6EX,South West,no
137190,866,Swindon,The Commonweal School,www.commonweal.co.uk,Swindon,SN1 4JE,South West,no
138424,866,Swindon,The Croft Primary School,www.thecroft.swindon.sch.uk/,Swindon,SN3 1RA,South West,no
151305,866,Swindon,The Deanery CofE Academy,,Swindon,SN1 7DA,South West,no
137684,866,Swindon,The Dorcan Academy,http://www.dorcan.co.uk/,Swindon,SN3 5DA,South West,no
137160,866,Swindon,The Ridgeway School & Sixth Form College,http://www.ridgewayschool.com/,Swindon,SN4 9DJ,South West,no
138305,866,Swindon,Tregoze Primary School,www.tregoze-pri.swindon.sch.uk/,Swindon,SN5 6JU,South West,no
145155,866,Swindon,UTC Swindon,www.utcswindon.co.uk,Swindon,SN1 5ET,South West,no
143014,866,Swindon,Uplands School,,Swindon,SN25 2NB,South West,no
151109,866,Swindon,Wanborough Primary School,http://www.wanboroughprimary.org,Swindon,SN4 0EJ,South West,no
140302,866,Swindon,Westlea Primary School,westleaschool.org.uk,Swindon,SN5 7BT,South West,no
126253,866,Swindon,Westrop Primary & Nursery School,www.westropprimaryschool.co.uk/,Swindon,SN6 7DN,South West,no
147093,866,Swindon,William Morris Primary School,www.williammorrisprimary.co.uk,Swindon,SN25 2PP,South West,no
148884,866,Swindon,Wroughton Infant School,www.wroughton-infants.co.uk,Swindon,SN4 9LE,South West,no
148885,866,Swindon,Wroughton Junior School,www.wroughton-juniors.co.uk,Swindon,SN4 9DL,South West,no
126183,866,Swindon,Chiseldon Primary & Nursery School,www.chiseldonprimary.co.uk,Swindon,SN4 0NS,South West,yes
126252,866,Swindon,Colebrook Junior School,www.colebrook-jun.swindon.sch.uk/,Swindon,SN3 4AS,South West,yes
126171,866,Swindon,EOTAS Swindon,www.eotas.org.uk,Swindon,SN2 1HL,South West,yes
126228,866,Swindon,Lainesmead Primary School and Nursery,www.lainesmeadprimaryschool.org.uk,Swindon,SN3 1EA,South West,yes
