urn,district_code,district_name,school_name,website,town,postcode,region,has_email_collected
151046,872,Wokingham,Addington School,https://addington.schooljotter2.com/,Reading,RG5 3EU,South East,no
147862,872,Wokingham,Alder Grove Church of England Primary School,https://www.aldergrove.wokingham.sch.uk,Shinfield,RG2 9RA,South East,no
109850,872,Wokingham,Aldryngton Primary School,www.aldryngton.wokingham.sch.uk/,Reading,RG6 7HR,South East,no
149352,872,Wokingham,All Saints Church of England Primary School,allsaints.wokingham.sch.uk,Wokingham,RG40 1UX,South East,no
147023,872,Wokingham,Beechwood Primary School,Beechwoodprimaryschool.com,Reading,RG5 4JJ,South East,no
142181,872,Wokingham,Bohunt School Wokingham,www.bohuntwokingham.com,Wokingham,RG2 9GB,South East,no
128088,872,Wokingham,CAMHS Phoenix School,http://camhsphoenix.wokingham.sch.uk/,Wokingham,RG41 2RE,South East,no
148349,872,Wokingham,Chiltern Way Academy Wokingham,https://chilternway.org/,Wokingham,RG40 2HR,South East,no
147378,872,Wokingham,Crazies Hill Church of England Primary School,www.crazieshill.co.uk,Reading,RG10 8LY,South East,no
144571,872,Wokingham,Earley St Peter's Church of England Primary School,www.earley-st-peters.wokingham.sch.uk,Reading,RG6 1EY,South East,no
149722,872,Wokingham,Emmbrook Infant School,www.emmbrookinfantschool.co.uk,Wokingham,RG41 1JR,South East,no
149723,872,Wokingham,Emmbrook Junior School,www.emmbrookjuniorschool.co.uk,Wokingham,RG41 1JR,South East,no
140953,872,Wokingham,Evendons Primary School,www.evendons-primary.co.uk/,Wokingham,RG40 3HD,South East,no
142182,872,Wokingham,Floreat Montague Park Primary School,http://www.floreatmontaguepark.org.uk/,Wokingham,RG40 1BG,South East,no
109924,872,Wokingham,Gorse Ride Infants' School,www.gorserideschools.co.uk,Wokingham,RG40 4EH,South East,no
109877,872,Wokingham,Gorse Ride Junior School,http://www.gorserideschools.co.uk,Wokingham,RG40 4JJ,South East,no
110015,872,Wokingham,Grazeley Parochial Church of England Aided Primary School,www.grazeley.wokingham.sch.uk/,Reading,RG7 1JY,South East,no
145284,872,Wokingham,Hatch Ride Primary School,http://www.hatchride.wokingham.sch.uk/,Crowthorne,RG45 6LP,South East,no
149956,872,Wokingham,Hawkedon Primary School,www.hawkedon.wokingham.sch.uk/,Reading,RG6 3AP,South East,no
109930,872,Wokingham,Hillside Primary School,www.hillside.wokingham.sch.uk,Reading,RG6 4HQ,South East,no
147805,872,Wokingham,Keep Hatch Primary School,www.keephatch.wokingham.sch.uk,Wokingham,RG40 1PG,South East,no
136637,872,Wokingham,Maiden Erlegh School,http://maidenerleghschool.co.uk/,Reading,RG6 7HS,South East,no
145281,872,Wokingham,Nine Mile Ride Primary School,www.ninemileride.co.uk,Wokingham,RG40 3RB,South East,no
149839,872,Wokingham,Oak Tree School,https://www.oaktreeschool.org/,Wokingham,RG41 5LP,South East,no
138367,872,Wokingham,Oakbank,www.oakbank.anthemtrust.uk,Reading,RG7 1ER,South East,no
145283,872,Wokingham,Oaklands Infant School,http://oaklandsinfants.org,Crowthorne,RG45 6QZ,South East,no
145282,872,Wokingham,Oaklands Junior School,http://www.oaklandsjunior-school.org.uk,Crowthorne,RG45 6QZ,South East,no
147556,872,Wokingham,Polehampton Church of England Infant School,https://www.polehampton.org.uk/,Reading,RG10 9HS,South East,no
147580,872,Wokingham,Polehampton Church of England Junior School,https://www.polehampton.org.uk/,Reading,RG10 9AX,South East,no
109927,872,Wokingham,Radstock Primary School,www.radstockprimary.org.uk,Reading,RG6 5UZ,South East,no
149521,872,Wokingham,Rivermead Primary School,http://www.rivermead.wokingham.sch.uk/,Reading,RG5 4BS,South East,no
109989,872,Wokingham,Robert Piggott CofE Infant School,http://www.robertpiggott.wokingham.sch.uk,Reading,RG10 8ED,South East,no
109993,872,Wokingham,Robert Piggott CofE Junior School,www.robertpiggott.wokingham.sch.uk/,Reading,RG10 8DY,South East,no
145285,872,Wokingham,Saint Sebastians Church of England Primary School,www.st-sebastians.wokingham.sch.uk/,Wokingham,RG40 3AT,South East,no
147249,872,Wokingham,Shinfield Infant and Nursery School,www.shinfieldschools.co.uk/,Reading,RG2 9EH,South East,no
109976,872,Wokingham,Shinfield St Mary's CofE Junior School,https://www.shinfield-st-marys-junior.co.uk/,Reading,RG2 9EJ,South East,no
147379,872,Wokingham,Sonning Church of England Primary School,www.sonning.wokingham.sch.uk/,Reading,RG4 6XF,South East,no
150004,872,Wokingham,South Lake Primary School,www.southlakeprimary.co.uk,Reading,RG5 3NA,South East,no
149555,872,Wokingham,St Cecilia's CofE Primary School,https://www.st-cecilias.wokingham.sch.uk/,Wokingham,RG41 1BJ,South East,no
145286,872,Wokingham,St Crispin's School,http://www.crispins.co.uk/,Wokingham,RG40 1SS,South East,no
110041,872,Wokingham,St Dominic Savio Catholic Primary School,www.stdominicsavio.co.uk,Woodley,RG5 3BH,South East,no
147377,872,Wokingham,"St Nicholas Church of England Primary, Hurst",www.st-nicholas.wokingham.sch.uk/,Wokingham,RG10 0DR,South East,no
144455,872,Wokingham,St Teresa's Catholic Academy,www.st-teresas.wokingham.sch.uk,Wokingham,RG40 2EB,South East,no
109759,872,Wokingham,The Ambleside Centre,,Reading,RG5 4JJ,South East,no
149611,872,Wokingham,The Bulmershe School,http://www.thebulmersheschool.com/,Reading,RG5 3EU,South East,no
109878,872,Wokingham,The Colleton Primary School,www.colleton.wokingham.sch.uk,Reading,RG10 0AX,South East,no
144637,872,Wokingham,The Coombes Church of England Primary School,http://www.thecoombes.com/,Reading,RG2 9NX,South East,no
148453,872,Wokingham,The Emmbrook School,http://www.emmbrook.wokingham.sch.uk,Wokingham,RG41 1JP,South East,no
139853,872,Wokingham,The Forest School,http://www.forest.wokingham.sch.uk/,Wokingham,RG41 5NE,South East,no
151413,872,Wokingham,The Hawthorns Primary School,www.hawthorns.wokingham.sch.uk/,Wokingham,RG41 3PQ,South East,no
136880,872,Wokingham,The Holt School,http://www.holtschool.co.uk,Wokingham,RG41 1EE,South East,no
136891,872,Wokingham,The Piggott School,www.piggottschool.org,Reading,RG10 8DS,South East,no
142166,872,Wokingham,Waingels,http://www.waingels.wokingham.sch.uk/,Reading,RG5 4RF,South East,no
109869,872,Wokingham,Walter Infant School,www.walter.wokingham.sch.uk,Wokingham,RG41 2TA,South East,no
147926,872,Wokingham,Wescott Infant School,https://wescottinfant.co.uk/wokingham/primary/wescott,Wokingham,RG40 2EN,South East,no
148014,872,Wokingham,Westende Junior School,http://www.westende.wokingham.sch.uk/,Wokingham,RG40 2EJ,South East,no
139900,872,Wokingham,Wheatfield Primary School,www.wheatfieldschool.org,Winnersh,RG41 5UU,South East,no
148800,872,Wokingham,Whiteknights Primary School,,Reading,RG2 8EP,South East,no
109889,872,Wokingham,Willow Bank Infant School,www.willowbankinfant.com,Reading,RG5 4RW,South East,no
109890,872,Wokingham,Willow Bank Junior School,www.willowbankjunior.com,Reading,RG5 4RW,South East,no
139899,872,Wokingham,Windmill Primary School,www.windmillschool.org,Wokingham,RG41 3DR,South East,no
109876,872,Wokingham,Winnersh Primary School,www.winnershprimaryschool.co.uk,Wokingham,RG41 5LH,South East,no
109836,872,Wokingham,Bearwood Primary School,www.bearwood-pri.wokingham.sch.uk,Wokingham,RG41 5BB,South East,yes
109829,872,Wokingham,Farley Hill Primary School,www.farleyhillprimary.co.uk,Arborfield Green,RG2 9YW,South East,yes
110012,872,Wokingham,Finchampstead CofE VA Primary School,www.finchampsteadschool.org/,Wokingham,RG40 4JR,South East,yes
101493,872,Wokingham,Foundry College,https://www.foundry.wokingham.sch.uk,Wokingham,RG40 1PX,South East,yes
131689,872,Wokingham,Highwood Primary School,www.highwood.wokingham.sch.uk/,Reading,RG5 3JE,South East,yes
109830,872,Wokingham,Lambs Lane Primary School,www.lambslane.wokingham.sch.uk/,Reading,RG7 1JB,South East,yes
131192,872,Wokingham,Loddon Primary School,www.loddonprimary.co.uk/,Reading,RG6 7LR,South East,yes
109987,872,Wokingham,St Paul's CofE Junior School,www.stpauls.wokingham.sch.uk,Wokingham,RG41 2YJ,South East,yes
109988,872,Wokingham,Woodley CofE Primary School,www.woodleyceprimary.co.uk/,Reading,RG5 4UX,South East,yes
