urn,district_code,district_name,school_name,website,town,postcode,region,has_email_collected
131217,876,Halton,All Saints Upton Church of England Voluntary Controlled Primary School,http://www.allsaintsupton.co.uk,Widnes,WA8 4PG,North West,no
111515,876,Halton,Ashley High School,ashleyschool.com,Widnes,WA8 7HG,North West,no
110959,876,Halton,Aspiring Foundations Federated Nursery Schools - Warrington Road Nursery School,www.warringtonroadnurseryschool.co.uk,Widnes,WA8 0BS,North West,no
111217,876,Halton,Astmoor Primary School,www.astmoorprimaryschool.co.uk/,Runcorn,WA7 2JE,North West,no
111175,876,Halton,Beechwood Primary School,www.beechwoodschoolruncorn.co.uk/,Runcorn,WA7 2TT,North West,no
110958,876,Halton,Birchfield Nursery School,http://birchfield.haltonschools.info/,widnes,WA8 7TH,North West,no
149032,876,Halton,Blessed Carlo Acutis Catholic and Church of England Academy,https://blessedca.co.uk,Runcorn,WA7 5YH,North West,no
140612,876,Halton,Bridgewater Park Primary School,www.bridgewaterpark.halton.sch.uk/,Runcorn,WA7 2LW,North West,no
146110,876,Halton,Brookfields School,http://www.brookfieldsschool.com,Widnes,WA8 3JA,North West,no
143602,876,Halton,Daresbury Primary School,www.daresburyschool.co.uk,Warrington,WA4 4AJ,North West,no
147266,876,Halton,Ditton Primary School,dittonprimary.co.uk,Widnes,WA8 7HD,North West,no
111197,876,Halton,Fairfield Primary School,www.fairfieldprimaryschool.org.uk/,Widnes,WA8 6TH,North West,no
111394,876,Halton,Farnworth Church of England Controlled Primary School,https://www.farnworthcofeprimary.co.uk/,Widnes,WA8 9HS,North West,no
111176,876,Halton,Gorsewood Primary School,www.gorsewood.halton.sch.uk,Runcorn,WA7 6ES,North West,no
150963,876,Halton,Hallwood Park Primary School and Nursery,https://www.hallwoodpark.co.uk/,Runcorn,WA7 2FL,North West,no
149959,876,Halton,Halton Lodge Primary School,http://www.haltonlodge.co.uk,Runcorn,WA7 5LU,North West,no
111169,876,Halton,Hillview Primary School,,Runcorn,WA7 3HB,North West,no
147267,876,Halton,Kingsway Primary Academy School,,Widnes,WA8 7QS,North West,no
111199,876,Halton,Lunts Heath Primary School,www.luntsheathprimary.co.uk,Widnes,WA8 9RJ,North West,no
110990,876,Halton,Moore Primary School,www.mooreprimary.co.uk,Warrington,WA4 6UG,North West,no
111188,876,Halton,Moorfield Primary School,www.moorfieldprimary.co.uk,Widnes,WA8 3HJ,North West,no
111174,876,Halton,Murdishaw West Community Primary School,www.mwcp.co.uk,Runcorn,WA7 6EP,North West,no
133322,876,Halton,Oakfield Community Primary School,https://www.oakfieldwidnes.co.uk/,Widnes,WA8 8BQ,North West,no
136185,876,Halton,Ormiston Bolingbroke Academy,http://www.ormistonbolingbrokeacademy.co.uk/,Runcorn,WA7 6EP,North West,no
140864,876,Halton,Ormiston Chadwick Academy,http://www.ormistonchadwickacademy.co.uk/,Widnes,WA8 7HU,North West,no
111378,876,Halton,Our Lady Mother of the Saviour Catholic Primary School,www.ourladysruncorn.halton.sch.uk,Runcorn,WA7 2TP,North West,no
133320,876,Halton,Our Lady of Perpetual Succour Catholic Primary School,www.olpsprimary.co.uk,Widnes,WA8 8JN,North West,no
143768,876,Halton,Palace Fields Primary Academy,www.palacefieldsprimary.org.uk,Runcorn,WA7 2QW,North West,no
111141,876,Halton,Pewithall School,www.pewithall.org.uk,Runcorn,WA7 4XQ,North West,no
111314,876,Halton,Runcorn All Saints CofE Primary School,www.allsaintsceprimaryschool.co.uk,Runcorn,WA7 1LD,North West,no
111457,876,Halton,Saints Peter and Paul Catholic High School,http://www.saintspeterandpaul.halton.sch.uk/,Widnes,WA8 7DW,North West,no
147683,876,Halton,Sandymoor Ormiston Academy,http://www.sandymooroa.co.uk,Runcorn,WA7 1QU,North West,no
141980,876,Halton,"St Augustine's Catholic Primary School, A Voluntary Academy",https://www.staugustines-runcorn.com/,Runcorn,WA7 2JJ,North West,no
111390,876,Halton,St Basil's Catholic Primary School,www.stbasilsprimary.halton.sch.uk/,Widnes,WA8 4SZ,North West,no
111372,876,Halton,St Bede's Catholic Infant School,www.stbedesinfants.co.uk,Widnes,WA8 6EL,North West,no
111371,876,Halton,St Bede's Catholic Junior School,www.stbedesjuniorschool.co.uk,WIDNES,WA8 6EL,North West,no
111383,876,Halton,St Berteline's CofE Primary School,http://www.stbertelines.org.uk,Runcorn,WA7 6QN,North West,no
111320,876,Halton,St Clement's Catholic Primary School,www.st-clements.halton.sch.uk/,Runcorn,WA7 4NX,North West,no
111319,876,Halton,St Edward's Catholic Primary School,www.stedwardscatholicprimaryschool.co.uk,Runcorn,WA7 1RZ,North West,no
111391,876,Halton,St Gerard's Catholic Primary and Nursery School,www.st-gerards.halton.sch.uk/,Widnes,WA8 6DD,North West,no
111392,876,Halton,St John Fisher Catholic Primary School,www.st-johnfisherprimary.co.uk/,Widnes,WA8 0BW,North West,no
111380,876,Halton,St Martin's Catholic Primary School and Preschool,www.st-martins.halton.sch.uk/,Runcorn,WA7 6HZ,North West,no
150879,876,Halton,St Mary's Church of England Primary School,st-marys.halton.sch.uk/,Runcorn,WA7 2NR,North West,no
147262,876,Halton,St Michael with St Thomas CE Primary School,www.smwst.co.uk,Widnes,WA8 8LD,North West,no
111393,876,Halton,St Michaels Catholic Primary School,http://www.stmichaelscatholicprimaryschool.co.uk,Widnes,WA8 8TD,North West,no
134321,876,Halton,The Bridge School,www.thebridge.halton.sch.uk,Runcorn,WA7 1PW,North West,no
140578,876,Halton,The Cavendish High Academy,www.chs.academy,Runcorn,WA7 4YX,North West,no
144617,876,Halton,The Grange School,www.thegrangeacademy.co.uk,Runcorn,WA7 5DX,North West,no
136779,876,Halton,The Heath School,http://www.heathschool.org.uk/,Runcorn,WA7 4SY,North West,no
111321,876,Halton,The Holy Spirit Catholic Primary School,www.holyspiritruncorn.co.uk,Runcorn,WA7 2NL,North West,no
150794,876,Halton,The Raise Academy,https://theraiseacademy.org/,Widnes,WA8 0BS,North West,no
139368,876,Halton,Wade Deacon High School,www.wadedeacon.co.uk,Widnes,WA8 7TD,North West,no
111240,876,Halton,Westfield Primary School,www.westfieldprimaryschool.com,Runcorn,WA7 4TR,North West,no
150204,876,Halton,Weston Point Primary Academy,,Runcorn,WA7 4EQ,North West,no
141538,876,Halton,Widnes Academy,www.widnesacademy.co.uk,Widnes,WA8 0EL,North West,no
111177,876,Halton,Windmill Hill Primary School,www.windmillhill.school,Runcorn,WA7 6QE,North West,no
111125,876,Halton,Woodside Primary School,,Runcorn,WA7 5YP,North West,no
110957,876,Halton,Aspiring Foundations Federated Nursery Schools - Ditton Nursery School,https://www.dittonnurseryschool.co.uk/,Widnes,WA8 8DF,North West,yes
132195,876,Halton,Brookvale Primary School,www.brookvaleprimary.co.uk,Runcorn,WA7 6BZ,North West,yes
111116,876,Halton,Castle View Primary School,https://castleviewprimary.co.uk/,Runcorn,WA7 2DZ,North West,yes
111514,876,Halton,Chesnut Lodge Special School,https://www.chesnutlodge.net/website,Widnes,WA8 7HF,North West,yes
111294,876,Halton,Hale Church of England Voluntary Controlled Primary School,www.hale.halton.sch.uk/,Liverpool,L24 4AN,North West,yes
111244,876,Halton,Halebank CofE Primary School,www.halebank.halton.sch.uk,Widnes,WA8 8UZ,North West,yes
111124,876,Halton,The Brow Community Primary School,www.thebrowprimaryschool.com,Runcorn,WA7 2HB,North West,yes
110992,876,Halton,Victoria Road Primary School,https://victoriaroadprimary.uk,Runcorn,WA7 5BN,North West,yes
111114,876,Halton,Weston Primary School,www.weston.halton.sch.uk/,Runcorn,WA7 4RA,North West,yes
