urn,district_code,district_name,school_name,website,town,postcode,region,has_email_collected
145800,877,Warrington,Alderman Bolton Primary School,www.aldermanbolton.org.uk,Warrington,WA4 1PW,North West,no
149676,877,Warrington,Appleton Thorn Primary School,http://www.appletonthornprimary.org.uk,Warrington,WA4 4RW,North West,no
111234,877,Warrington,Barrow Hall Community Primary School,www.barrowhall.co.uk,Warrington,WA5 3TX,North West,no
139196,877,Warrington,Beamont Collegiate Academy,https://bca.warrington.ac.uk/,Warrington,WA2 8PX,North West,no
145799,877,Warrington,Beamont Primary School,https://www.beamontprimary.co.uk,Warrington,WA2 7RQ,North West,no
110971,877,Warrington,Bewsey Lodge Primary School,www.bewsey-lodge.eschools.co.uk/,Warrington,WA5 0AG,North West,no
111304,877,Warrington,Birchwood CofE Primary School,www.birchwoodceprimary.co.uk/,Warrington,WA3 6QG,North West,no
139840,877,Warrington,Birchwood Community High School,http://www.birchwoodhigh.org/,Warrington,WA3 7PT,North West,no
150572,877,Warrington,Bradshaw Primary School,http://www.bradshawcps.org.uk,Warrington,WA4 2QN,North West,no
141598,877,Warrington,Bridgewater High School,https://bridgewaterhigh.org/,Warrington,WA4 3AE,North West,no
151050,877,Warrington,Brook Acre Community Primary School,http://www.brookacre.co.uk,Warrington,WA2 0JP,North West,no
147637,877,Warrington,Broomfields Junior School,www.broomfieldsjunior.co.uk,Warrington,WA4 3AH,North West,no
143058,877,Warrington,Bruche Primary School Academy,www.brucheprimary.co.uk,Warrington,WA1 3TT,North West,no
145390,877,Warrington,Burtonwood Community Primary School,http://www.burtonwoodcp.co.uk,Warrington,WA5 4AQ,North West,no
111214,877,Warrington,Callands Community Primary School,www.callands.warrington.dbprimary.com,Warrington,WA5 9RJ,North West,no
111456,877,Warrington,Cardinal Newman Catholic High School,http://www.cardinal-newman.org.uk,Warrington,WA4 1RX,North West,no
145388,877,Warrington,Chapelford Village Primary School,www.chapelfordvillageprimary.co.uk/,Warrington,WA5 3AL,North West,no
111150,877,Warrington,Cherry Tree School,www.cherrytreeschool.co.uk,Warrington,WA13 0NX,North West,no
111363,877,Warrington,Christ Church CofE Primary School Padgate,http://www.christchurchcofeprimary.com,Warrington,WA2 0QJ,North West,no
111381,877,Warrington,Cinnamon Brow CofE Primary School,cinnamonbrow-warrington.secure-dbprimary.com,Warrington,WA2 0SF,North West,no
147387,877,Warrington,Croft Primary School,www.croftprimary.co.uk/,Warrington,WA3 7DG,North West,no
151049,877,Warrington,Culcheth Community Primary School,culchethprimary.co.uk,Warrington,WA3 5HH,North West,no
111430,877,Warrington,Culcheth High School,http://culchethhigh.org.uk/,Warrington,WA3 5HH,North West,no
150824,877,Warrington,Dallam Community Primary School,www.dallamprimary.com,Warrington,WA5 0JG,North West,no
143064,877,Warrington,Evelyn Street Primary Academy and Nursery,http://www.evelynstreetschool.co.uk,Warrington,WA5 1BD,North West,no
111496,877,Warrington,Fox Wood Special School,http://www.foxwoodschool.org.uk,Warrington,WA1 4LS,North West,no
146417,877,Warrington,Glazebury Church of England Primary School,www.glazebury.eschools.co.uk,Warrington,WA3 5LZ,North West,no
147389,877,Warrington,Gorse Covert Primary School,www.gorsecovert.co.uk/,Warrington,WA3 6TS,North West,no
132768,877,Warrington,Grappenhall Heys Community Primary School,http://www.grappenhallheys.co.uk,Warrington,WA4 3EA,North West,no
111315,877,Warrington,Grappenhall St Wilfrid's CofE Primary School,www.stwilfridsprimary.co.uk,Warrington,WA4 3EP,North West,no
139152,877,Warrington,Great Sankey High School,http://www.greatsankey.org,Warrington,WA5 3AA,North West,no
144798,877,Warrington,Great Sankey Primary School,www.greatsankeyprimaryschool.co.uk,Warrington,WA5 1SB,North West,no
111495,877,Warrington,Green Lane Community Special School,http://greenlaneschool.co.uk,Warrington,WA1 4LS,North West,no
144240,877,Warrington,Kassia Academy and Support Services,https://tkas.org.uk/,Warrington,WA2 0QQ,North West,no
138562,877,Warrington,King's Leadership Academy Warrington,http://www.kingswarrington.com/,Warrington,WA1 4PF,North West,no
132247,877,Warrington,Latchford St James CofE Primary School,www.lsj.org.uk/,Warrington,WA4 1AP,North West,no
151051,877,Warrington,Locking Stumps Community Primary School,www.locking-stumps.co.uk/,Warrington,WA3 7PH,North West,no
138732,877,Warrington,Lymm High School,http://www.lymmhigh.org.uk,Lymm,WA13 0RB,North West,no
147636,877,Warrington,Meadowside Community Primary and Nursery School,www.meadowside.warrington.sch.uk,Warrington,WA2 9PH,North West,no
111189,877,Warrington,Newchurch Community Primary School,newchurchprimary.co.uk,Warrington,WA3 4DX,North West,no
144241,877,Warrington,Oakwood Avenue Community Primary School,www.oakwoodavenue.co.uk,Warrington,WA1 3SZ,North West,no
148458,877,Warrington,Oughtrington Primary School,https://oughtringtoncps.co.uk,Lymm,WA13 9EH,North West,no
150540,877,Warrington,"Our Lady's Catholic Primary School, a Voluntary Academy",www.ourladys-primary.co.uk,Warrington,WA4 1JD,North West,no
146765,877,Warrington,Padgate Academy,padgateacademy.co.uk,Warrington,WA2 0LN,North West,no
145387,877,Warrington,Park Road Community Primary School,www.parkroadprimary.co.uk,WARRINGTON,WA5 3EF,North West,no
145157,877,Warrington,Penketh High School,www.penkethhigh.org,Warrington,WA5 2BY,North West,no
143072,877,Warrington,Penketh Primary School,www.penkethprimary.co.uk,Warrington,WA5 2QY,North West,no
145710,877,Warrington,Penketh South Community Primary School,http://penkethsouthcp.co.uk/,Warrington,WA5 2PN,North West,no
144782,877,Warrington,Priestley College,www.priestley.ac.uk,Warrington,WA4 6RD,North West,no
148457,877,Warrington,Ravenbank Primary School,www.ravenbankschool.co.uk,Lymm,WA13 0JT,North West,no
111306,877,Warrington,Sacred Heart Catholic Primary School,www.sacredheartcp.co.uk,Warrington,WA5 1NS,North West,no
144799,877,Warrington,Sir Thomas Boteler Church of England High School,https://www.boteler.org.uk,Warrington,WA4 1JL,North West,no
111307,877,Warrington,St Alban's Catholic Primary School,http://www.stalbanswarrington.co.uk,Warrington,WA5 0JS,North West,no
111301,877,Warrington,St Andrew's CofE Primary School,www.standrews-cp.co.uk,Warrington,WA2 9HF,North West,no
111309,877,Warrington,St Augustine's Catholic Primary School,www.st-augustines-warrington.co.uk,Warrington,WA4 1PY,North West,no
111308,877,Warrington,St Benedict's Catholic Primary School,www.stbenedictswarrington.co.uk,Warrington,WA2 7SB,North West,no
111377,877,Warrington,St Bridget's Catholic Primary School,www.stbridgetscatholicprimaryschool.co.uk/,WARRINGTON,WA2 0ER,North West,no
111296,877,Warrington,St Elphin's (Fairfield) CofE Voluntary Aided Primary School,www.stelphinsprimary.co.uk,Warrington,WA1 2GN,North West,no
111454,877,Warrington,St Gregory's Catholic High School,http://www.stgregoryshigh.com,Warrington,WA5 1HG,North West,no
146412,877,Warrington,St Helen's Church of England Primary School,https://www.sthelensprimary.uk/,Warrington,WA3 6JS,North West,no
111373,877,Warrington,St Joseph's Catholic Primary School,www.stjprimary.co.uk,Warrington,WA5 2AU,North West,no
111368,877,Warrington,St Lewis Catholic Primary School,www.stlewiscroft.co.uk,Warrington,WA3 7BD,North West,no
131349,877,Warrington,St Margaret's CofE Voluntary Aided Primary School,www.st-margarets.warrington.sch.uk,Warrington,WA2 9AD,North West,no
111322,877,Warrington,St Monica's Catholic Primary School,www.stmonicasprimary.co.uk/,Warrington,WA4 3AG,North West,no
111369,877,Warrington,St Oswald's Catholic Primary School,www.stoswaldscatholicprimary.co.uk/,Warrington,WA1 3LB,North West,no
111367,877,Warrington,St Paul of the Cross Catholic Primary School,www.stpaulofthecross.org.uk,Warrington,WA5 4PN,North West,no
111370,877,Warrington,St Peter's Catholic Primary School,www.stpeterswoolston.co.uk,Warrington,WA1 4PQ,North West,no
111385,877,Warrington,St Philip (Westbrook) CofE Aided Primary School,http://www.stphilipwestbrook.co.uk,Warrington,WA5 8UE,North West,no
111310,877,Warrington,St Stephen's Catholic Primary School,https://ststephenscps.com/,Warrington,WA2 9HS,North West,no
111318,877,Warrington,St Thomas' CofE Primary School,www.st-thomas.co.uk/,Warrington,WA4 2AP,North West,no
111376,877,Warrington,St Vincent's Catholic Primary School,www.stvincentsprimary.org,Warrington,WA5 2PN,North West,no
148456,877,Warrington,Statham Primary School,www.stathamprimaryandnursery.co.uk,Lymm,WA13 9BE,North West,no
110996,877,Warrington,Stockton Heath Primary School,www.stocktonheathprimary.com/,Warrington,WA4 6HX,North West,no
149613,877,Warrington,Stretton St Matthew's CofE Primary School,www.stmatthewsceprimary.com,Warrington,WA4 4NT,North West,no
111001,877,Warrington,The Cobbs Infant and Nursery School,http://www.thecobbs.org.uk/,Warrington,WA4 3DB,North West,no
111000,877,Warrington,Thelwall Community Junior School,http://www.thelwalljuniorschool.org.uk/,Warrington,WA4 2HX,North West,no
148488,877,Warrington,Thelwall Infant School,www.thelwallinfantschool.co.uk,Warrington,WA4 2HF,North West,no
111195,877,Warrington,Twiss Green Community Primary School,www.twiss-green.eschools.co.uk/,Warrington,WA3 4DQ,North West,no
142899,877,Warrington,UTC Warrington,https://utcw.co.uk,Warrington,WA2 7NG,North West,no
111298,877,Warrington,Warrington St Ann's CofE Primary School,www.stanns.warrington.dbprimary.com,Warrington,WA2 8AL,North West,no
111299,877,Warrington,Warrington St Barnabas CofE Primary School,www.stbarnabasceprimary.co.uk,Warrington,WA5 1TG,North West,no
145389,877,Warrington,Westbrook Old Hall Primary School,http://www.westbrookoldhall.co.uk,Warrington,WA5 9QA,North West,no
111365,877,Warrington,Winwick CofE Primary School,https://winwick.eschools.co.uk/website,Warrington,WA2 8LQ,North West,no
111366,877,Warrington,Woolston CofE Aided Primary School,www.woolstonceprimary.co.uk,Warrington,WA1 4QL,North West,no
147388,877,Warrington,Woolston Community Primary School,http://www.woolstoncp.co.uk,Warrington,WA1 4NW,North West,no
110956,877,Warrington,Sandy Lane Nursery and Forest School,www.sandylanenurseryandforestschool.co.uk,Warrington,WA2 9HY,North West,yes
133676,877,Warrington,Sankey Valley St James Church of England Primary School,www.sankeyvalleystjames.org.uk/,Warrington,WA5 1XE,North West,yes
111501,877,Warrington,Woolston Brook School,http://www.woolstonbrookschool.co.uk,Warrington,WA1 4JL,North West,yes
