urn,district_code,district_name,school_name,website,town,postcode,region,has_email_collected
147064,878,Devon,ACE Tiverton Special School,www.atss.transformingfutures.org.uk,Tiverton,EX16 5HB,South West,no
113183,878,Devon,Abbotskerswell Primary School,http://www.abbotskerswell-primary.devon.sch.uk,Newton Abbot,TQ12 5NS,South West,no
143186,878,Devon,All Saints Church of England Primary School,http://www.all-saints-ce-primary.devon.sch.uk/,Axminster,EX13 7LX,South West,no
142251,878,Devon,All Saints Marsh CofE Academy,https://allsaintsmarsh-lap.co.uk/,Newton Abbot,TQ12 2DJ,South West,no
143188,878,Devon,Alphington Primary School,www.alphington.devon.sch.uk/,Exeter,EX2 8RQ,South West,no
136561,878,Devon,Ashburton Primary School,www.ashburton-primary.devon.sch.uk,Newton Abbot,TQ13 7DW,South West,no
145810,878,Devon,Ashleigh CofE Primary School,www.ashleighdevon.co.uk/,Barnstaple,EX32 8LJ,South West,no
113126,878,Devon,Ashwater Primary School,www.thecareyfederation.co.uk,Beaworthy,EX21 5EW,South West,no
146567,878,Devon,Atlantic Academy,www.atlanticacademy.uk/home,Bideford,EX39 5DW,South West,no
138631,878,Devon,Aveton Gifford CofE Primary School,http://www.avetongiffordprimary.co.uk,Kingsbridge,TQ7 4LB,South West,no
144392,878,Devon,Axe Valley Academy,www.axevalley.bep.ac,Axminster,EX13 5EA,South West,no
141523,878,Devon,Axminster Community Primary Academy,www.acornacademy.org,Axminster,EX13 5BU,South West,no
145762,878,Devon,Bampton Church of England Primary School,www.bamptonschool.org,Tiverton,EX16 9NW,South West,no
113636,878,Devon,Barley Lane School,www.barleylaneschool.org.uk,Exeter,EX4 1TA,South West,no
149090,878,Devon,Beaford Community Primary & Nursery School,www.beaford-primary.devon.sch.uk/,Winkleigh,EX19 8LJ,South West,no
142649,878,Devon,Bearnes Voluntary Primary School,http://www.bearnes.thelink.academy/website,Newton Abbot,TQ12 2AU,South West,no
143190,878,Devon,Beer Church of England Primary School,www.beer-ce-primary.devon.sch.uk/,Seaton,EX12 3NB,South West,no
147639,878,Devon,Bere Alston Primary Academy,http://www.berealston.devon.sch.uk/,Yelverton,PL20 7AU,South West,no
147812,878,Devon,Berry Pomeroy Parochial CofE Primary School,https://www.berrypomeroyschool.org/,Totnes,TQ9 6LH,South West,no
113371,878,Devon,Berrynarbor Church of England Primary School,,Ilfracombe,EX34 9SE,South West,no
113493,878,Devon,Bickleigh Down Church of England Primary School,www.bickleighdown.co.uk/,Plymouth,PL6 7JW,South West,no
137776,878,Devon,Bickleigh on Exe Church of England Primary School,www.bickleighschool.co.uk/,Tiverton,EX16 8RE,South West,no
142540,878,Devon,Bideford College,www.bidefordcollege.org,Bideford,EX39 3AR,South West,no
113643,878,Devon,Bidwell Brook School,www.bidwellbrook.devon.sch.uk,Totnes,TQ9 6JU,South West,no
113185,878,Devon,Bishopsteignton School,www.bishopsteignton.devon.sch.uk/,Teignmouth,TQ14 9RJ,South West,no
145341,878,Devon,Black Torrington Church of England Primary School,http://www.blacktorrington.devon.sch.uk,Beaworthy,EX21 5PU,South West,no
141284,878,Devon,Blackawton Primary School,http://www.blackawtonprimary.org.uk/,Totnes,TQ9 7BE,South West,no
137665,878,Devon,Blackpool Church of England Primary School,www.blackpool.devon.sch.uk/,Newton Abbot,TQ12 6JB,South West,no
145330,878,Devon,Boasley Cross Community Primary School,http://www.boasleycross.devon.sch.uk,Okehampton,EX20 4JH,South West,no
149168,878,Devon,Bolham Community Primary School,http://www.tiverton-bolham-primary.devon.sch.uk,Tiverton,EX16 7RA,South West,no
150891,878,Devon,Bovey Tracey Academy,,Newton Abbot,TQ13 9HZ,South West,no
113060,878,Devon,Bow Community Primary School,https://www.bowcps.devon.sch.uk/,Crediton,EX17 6HU,South West,no
143193,878,Devon,Bowhill Primary School,www.bowhill.devon.sch.uk/,Exeter,EX4 1JT,South West,no
145346,878,Devon,Bradford Primary School,http://www.bradford.devon.sch.uk/,Holsworthy,EX22 7AB,South West,no
136492,878,Devon,Bradworthy Primary Academy,www.bradworthyacademy.co.uk/,Holsworthy,EX22 7RT,South West,no
113347,878,Devon,Brampford Speke Church of England Primary School,http://www.exevalleyfederation.co.uk/Brampford-Speke-C-of-E/,Exeter,EX5 5HE,South West,no
151001,878,Devon,Branscombe Church of England Primary School,http://www.branscombe.devon.sch.uk,Seaton,EX12 3DA,South West,no
145809,878,Devon,Bratton Fleming Community Primary School,www.primaryschoolsnorthdevon.co.uk/,Barnstaple,EX31 4SB,South West,no
138041,878,Devon,Braunton Academy,https://www.braunton.academy/,Braunton,EX33 2BP,South West,no
141761,878,Devon,Brayford Academy,www.brayford.devon.sch.uk/,Barnstaple,EX32 7QJ,South West,no
145331,878,Devon,Bridestowe Primary School,http://www.bridestowe-primary.devon.sch.uk/,Okehampton,EX20 4EL,South West,no
145342,878,Devon,Bridgerule Church of England Primary School,http://www.bridgerule.devon.sch.uk/,Holsworthy,EX22 7EN,South West,no
142044,878,Devon,Brixington Primary Academy,www.brixington.devon.sch.uk,Exmouth,EX8 4JQ,South West,no
136280,878,Devon,Broadclyst Community Primary School,http://www.bcps.org.uk/,Exeter,EX5 3JG,South West,no
151002,878,Devon,Broadhembury Church of England Primary School,www.broadhembury.devon.sch.uk/,Honiton,EX14 3NF,South West,no
147493,878,Devon,Broadhempston Village Primary School,www.broadhempston-primary.devon.sch.uk/,Totnes,TQ9 6BL,South West,no
136562,878,Devon,Buckfastleigh Primary School,http://www.buckfastleigh.devon.sch.uk,Buckfastleigh,TQ11 0DD,South West,no
149055,878,Devon,Burlescombe Church of England Primary School,www.burlescombe.devon.sch.uk,Tiverton,EX16 7JH,South West,no
113340,878,Devon,Castle Primary School,http://www.castletiverton.school,Tiverton,EX16 6QR,South West,no
145338,878,Devon,Chagford Church of England Primary School,www.chagford-primaryschool.org,Newton Abbot,TQ13 8BZ,South West,no
144073,878,Devon,Charleton Church of England Academy,https://charleton-lap.co.uk,Kingsbridge,TQ7 2AL,South West,no
145397,878,Devon,Cheriton Bishop Community Primary School,cheritonbishop.thelink.academy,Exeter,EX6 6HY,South West,no
113064,878,Devon,Cheriton Fitzpaine Primary School,www.cheriton-fitzpaine-primary.devon.sch.uk/,Crediton,EX17 4AN,South West,no
113050,878,Devon,Chestnut Nursery,http://www.chestnutnursery.co.uk/,Exeter,EX2 6DJ,South West,no
138733,878,Devon,Christow Primary School,http://www.christowprimary.org.uk,Exeter,EX6 7PE,South West,no
137666,878,Devon,Chudleigh Knighton Church of England Primary School,http://www.chudleigh-knighton.devon.sch.uk,Newton Abbot,TQ13 0EU,South West,no
137024,878,Devon,Chulmleigh Community College,http://www.chulmleigh.devon.sch.uk/,Chulmleigh,EX18 7AA,South West,no
137023,878,Devon,Chulmleigh Primary School,http://www.chulmleigh-primary.devon.sch.uk,Chulmleigh,EX18 7AA,South West,no
147492,878,Devon,Clawton Primary School,www.clawton-sch.org,Holsworthy,EX22 6QN,South West,no
150888,878,Devon,Clyst Heath Nursery and Community Primary School,www.tcat.education,Exeter,EX2 7QT,South West,no
113065,878,Devon,Clyst Hydon Primary School,http://www.clyst-hydon-primary.devon.sch.uk,Cullompton,EX15 2ND,South West,no
113066,878,Devon,Clyst St Mary Primary School,http://www.clyststmary.devon.sch.uk,Exeter,EX5 1BG,South West,no
136638,878,Devon,Clyst Vale Community College,http://www.clystvale.org/,Exeter,EX5 3AJ,South West,no
145766,878,Devon,Cockwood Primary School,https://cockwood-primary.co.uk/,Exeter,EX6 8RB,South West,no
136366,878,Devon,Colyton Grammar School,http://www.colytongrammar.com,Colyton,EX24 6HN,South West,no
148011,878,Devon,Colyton Primary Academy,,Colyton,EX24 6NU,South West,no
145764,878,Devon,Combe Martin Primary School,www.combemartin-sch.org/,Ilfracombe,EX34 0DF,South West,no
137176,878,Devon,Coombeshead Academy,www.coombesheadacademy.org.uk,Newton Abbot,TQ12 1PT,South West,no
113068,878,Devon,Copplestone Primary School,www.copplestone-primary.devon.sch.uk/,Crediton,EX17 5NX,South West,no
113409,878,Devon,Cornwood Church of England Primary School,http://www.moorswayfederation.org.uk,Ivybridge,PL21 9PZ,South West,no
150755,878,Devon,Countess Wear Primary School,www.tcat.education,Exeter,EX2 7BS,South West,no
141514,878,Devon,Cranbrook Education Campus,www.cranbrookeducationcampus.org.uk,Exeter,EX5 7EE,South West,no
151057,878,Devon,Cullompton Community College,www.cullompton.devon.sch.uk,Cullompton,EX15 1DX,South West,no
148490,878,Devon,Dartington Church of England Academy,http://dartington-lap.co.uk,Totnes,TQ9 6JU,South West,no
136200,878,Devon,Dartmouth Academy,www.dartmouthacademy.org.uk,Dartmouth,TQ6 9HW,South West,no
147643,878,Devon,Dawlish College,http://www.dawlish.devon.sch.uk,Dawlish,EX7 0BY,South West,no
113209,878,Devon,Decoy Primary School,www.decoyschool.co.uk,Newton Abbot,TQ12 1DH,South West,no
113197,878,Devon,Denbury Primary School,http://www.denbury.devon.sch.uk/,Newton Abbot,TQ12 6DP,South West,no
134859,878,Devon,Devon Hospitals' Short Stay School,www.devonhospitalschool.org.uk,Exeter,EX2 5DW,South West,no
142652,878,Devon,Diptford Parochial Church of England Primary School,http://www.diptford.thelink.academy/website,Totnes,TQ9 7NY,South West,no
113198,878,Devon,Doddiscombsleigh Primary School,http://www.doddi.devon.sch.uk,Exeter,EX6 7PR,South West,no
145770,878,Devon,Dolton Church of England Primary School,www.clintonanddolton.org,Winkleigh,EX19 8QF,South West,no
147495,878,Devon,Drake's Church of England Primary School,http://www.drakes.thelink.academy/website,Budleigh Salterton,EX9 7DQ,South West,no
145347,878,Devon,Dunsford Community Academy,https://dunsford-lap.co.uk/,Exeter,EX6 7DD,South West,no
141287,878,Devon,East Allington Primary School,http://www.eastallingtonprimary.org.uk,Totnes,TQ9 7RE,South West,no
137025,878,Devon,East Worlington Primary School,www.east-worlington-primary.devon.sch.uk/,Crediton,EX17 4TS,South West,no
146096,878,Devon,Eden Park Academy,www.eden-park.academy,Barnstaple,EX32 8EF,South West,no
148871,878,Devon,Ermington Primary School,https://beaconfederation.com/devon/primary/beaconfederation,Ivybridge,PL21 9NH,South West,no
145339,878,Devon,Exbourne Church of England Primary School,www.exbourne-primary.devon.sch.uk,Okehampton,EX20 3SQ,South West,no
140971,878,Devon,Exeter Mathematics School,http://www.exetermathematicsschool.ac.uk/,Exeter,EX4 3PU,South West,no
113095,878,Devon,Exeter Road Community Primary School,http://www.exeterroad.devon.sch.uk,Exmouth,EX8 1PU,South West,no
113201,878,Devon,Exminster Community Primary,www.exminster-primary.devon.sch.uk/,Exeter,EX6 8AJ,South West,no
136612,878,Devon,Exmouth Community College,http://exmouthcollege.devon.sch.uk/,Exmouth,EX8 3AF,South West,no
144072,878,Devon,Exwick Heights Primary School,www.exwickheights.devon.sch.uk/,Exeter,EX4 2FB,South West,no
151003,878,Devon,Farway Church of England Primary School,http://www.farway.devon.sch.uk,Colyton,EX24 6EQ,South West,no
113433,878,Devon,Feniton Church of England Primary School,http://www.feniton.devon.sch.uk/,Honiton,EX14 3EA,South West,no
113148,878,Devon,Filleigh Community Primary School,www.filleigh-primary.devon.sch.uk/,Barnstaple,EX32 0RS,South West,no
148019,878,Devon,Fremington Primary School,www.fremington-primary.devon.sch.uk,Barnstaple,EX31 3DD,South West,no
141353,878,Devon,Gatehouse Primary Academy,www.gatehouse.devon.sch.uk/,Dawlish,EX7 0LW,South West,no
150687,878,Devon,Georgeham Church of England Primary School,www.georgeham-primary.devon.sch.uk/,Braunton,EX33 1JT,South West,no
147840,878,Devon,Glendinning Academy,www.wavemat.org,Newton Abbot,TQ12 4HD,South West,no
137228,878,Devon,Great Torrington School,http://www.gts.devon.sch.uk,Torrington,EX38 7DJ,South West,no
149729,878,Devon,Gulworthy Primary Academy,https://gulworthy-lap.co.uk/,Tavistock,PL19 8JA,South West,no
113338,878,Devon,Halberton Primary School,http://www.halberton.school,Tiverton,EX16 7AT,South West,no
113151,878,Devon,Halwill Community Primary School,www.thecareyfederation.co.uk,Beaworthy,EX21 5XU,South West,no
142707,878,Devon,Harbertonford Church of England Primary School,http://www.harbertonford.thelink.academy/website,Totnes,TQ9 7TA,South West,no
143187,878,Devon,Hawkchurch Church of England School,https://www.hawkchurch-primary.devon.sch.uk/,Axminster,EX13 5XD,South West,no
133893,878,Devon,Haytor View Community Primary School,www.haytorview.devon.sch.uk,Newton Abbot,TQ12 4BD,South West,no
113224,878,Devon,Hazeldown School,www.hazeldown.co.uk,Teignmouth,TQ14 8SE,South West,no
137654,878,Devon,Hemyock Primary School,http://www.hemyock-primary.devon.sch.uk/,Cullompton,EX15 3RY,South West,no
142709,878,Devon,Hennock Community Primary School,http://www.hennock.thelink.academy/website,Newton Abbot,TQ13 9QB,South West,no
144535,878,Devon,High Bickington Church of England Primary Academy,http://www.teamacademytrust.com,Umberleigh,EX37 9AY,South West,no
146248,878,Devon,Highampton Community Primary School,www.highampton-primary.devon.sch.uk/,Beaworthy,EX21 5LE,South West,no
113210,878,Devon,Highweek Community Primary and Nursery School,http://www.highweekprimary.co.uk,Newton Abbot,TQ12 1TX,South West,no
146254,878,Devon,Holbeton Primary School,www.holbeton.devon.sch.uk/,Plymouth,PL8 1LT,South West,no
145343,878,Devon,Holsworthy Community College,http://www.hcc.devon.sch.uk,Holsworthy,EX22 6JD,South West,no
145767,878,Devon,Holywell Church of England School,www.holywell.devon.sch.uk/,Barnstaple,EX31 3HZ,South West,no
136912,878,Devon,Honiton Community College,https://honitoncommunitycollege.co.uk,Honiton,EX14 1QT,South West,no
113098,878,Devon,Honiton Primary School,www.honitonprimary.co.uk,Honiton,EX14 1QF,South West,no
150243,878,Devon,Horwood and Newton Tracey Community Primary School,http://www.hntps.devon.sch.uk,Barnstaple,EX31 3PU,South West,no
143189,878,Devon,Ide Primary School,www.ide.devon.sch.uk/,Exeter,EX2 9RN,South West,no
136919,878,Devon,Ilsington Church of England Primary School,http://www.ilsington.thelink.academy/website,Newton Abbot,TQ13 9RE,South West,no
113156,878,Devon,Instow Community Primary and Pre-School,http://www.instowcps.co.uk/,Bideford,EX39 4LU,South West,no
113203,878,Devon,Ipplepen Primary School,http://www.ipplepen-primary.devon.sch.uk,Newton Abbot,TQ12 5QL,South West,no
139682,878,Devon,Isca Academy,http://www.iscaexeter.co.uk/,Exeter,EX2 6AP,South West,no
136336,878,Devon,Ivybridge Community College,http://www.ivybridge.devon.sch.uk/,Ivybridge,PL21 0JA,South West,no
145768,878,Devon,Kenn Church of England Primary School,https://kennschool.co.uk/,Exeter,EX6 7TX,South West,no
113157,878,Devon,Kentisbury Primary School,www.westexmoorfederation.org.uk/,Barnstaple,EX31 4NG,South West,no
145761,878,Devon,Kenton Primary School,https://kentonschool.co.uk/,Exeter,EX6 8JT,South West,no
113100,878,Devon,Kilmington Primary School,http://www.kilmington-primary.org.uk,Axminster,EX13 7RG,South West,no
149247,878,Devon,King Edward VI Community College,http://www.kingedwardvi.devon.sch.uk/,Totnes,TQ9 5JX,South West,no
113158,878,Devon,Kings Nympton Community Primary School,https://www.woodlandfederation.org.uk/kingsnympton,Umberleigh,EX37 9SP,South West,no
113179,878,Devon,Kingsacre Primary School,www.kingsacre-primary.devon.sch.uk,Braunton,EX33 1BQ,South West,no
136367,878,Devon,Kingsbridge Academy,http://www.kingsbridgecollege.org.uk/,Kingsbridge,TQ7 1PL,South West,no
150495,878,Devon,Kingsbridge Primary School,www.kingsbridgeprimary.co.uk,Kingsbridge,TQ7 1NL,South West,no
113398,878,Devon,Kingskerswell Church of England Primary School,www.kingskerswellprimaryschool.co.uk,Newton Abbot,TQ12 5HN,South West,no
142670,878,Devon,Kingsteignton School,www.kingsteigntonschool.org,Newton Abbot,TQ12 3QY,South West,no
143185,878,Devon,Lady Modiford's Church of England Primary School,https://www.ladymodifords.devon.sch.uk/,Yelverton,PL20 6JR,South West,no
137642,878,Devon,Lady Seaward's Church of England Primary School,http://www.clyst-st-george.devon.sch.uk,Exeter,EX3 0RE,South West,no
151327,878,Devon,Ladysmith Infant & Nursery School,http://www.ladysmithfederation.net,Exeter,EX1 2PS,South West,no
151328,878,Devon,Ladysmith Junior School,www.ladysmithfederation.net,Exeter,EX1 2PT,South West,no
149730,878,Devon,Lamerton CofE Primary Academy,http://www.devon.gov.uk/eal/schools/lewt/,Tavistock,PL19 8RJ,South West,no
146093,878,Devon,Landkey Community Primary Academy,www.landkey-primary.devon.sch.uk/,Barnstaple,EX32 0LJ,South West,no
142641,878,Devon,Landscove Church of England Primary School,http://www.landscove.thelink.academy/website,Nr Ashburton,TQ13 7LY,South West,no
137780,878,Devon,Lapford Community Primary School,http://www.lapford-primary.devon.sch.uk,Crediton,EX17 6QE,South West,no
144384,878,Devon,Lew Trenchard Church of England Primary School,www.lewtrenchard.devon.sch.uk,Okehampton,EX20 4DP,South West,no
148987,878,Devon,Lifton Community Academy,lifton-lap.co.uk,Lifton,PL16 0EH,South West,no
150836,878,Devon,Littleham Church of England Primary School,littleham.devon.sch.uk,Exmouth,EX8 2QY,South West,no
137732,878,Devon,Littletown Primary Academy,www.littletown.devon.sch.uk/,Honiton,EX14 2EG,South West,no
113207,878,Devon,Loddiswell Primary School,www.loddiswellprimaryschool.co.uk/,Kingsbridge,TQ7 4BY,South West,no
145332,878,Devon,Lydford Primary School,www.lydford-primary.co.uk/,Okehampton,EX20 4AU,South West,no
113451,878,Devon,Lynton Church of England Primary School,http://www.westexmoorfederation.org.uk/,Lynton,EX35 6AF,South West,no
113399,878,Devon,Malborough with South Huish Church of England Primary School,www.malboroughprimaryschool.co.uk,Kingsbridge,TQ7 3RN,South West,no
148872,878,Devon,"Manor Primary School, Ivybridge",https://www.manorprimary.org.uk/,Ivybridge,PL21 9BG,South West,no
131552,878,Devon,Marland School,http://www.marland.devon.sch.uk,Torrington,EX38 8QQ,South West,no
113465,878,Devon,Marldon Church of England Primary School,http://www.marldon-primary.devon.sch.uk,Paignton,TQ3 1PD,South West,no
150964,878,Devon,Marpool Primary School,www.tcat.education,Exmouth,EX8 3QW,South West,no
151601,878,Devon,Marwood School,www.marwood.devon.sch.uk/,Barnstaple,EX31 4HF,South West,no
143724,878,Devon,Matford Brook Academy,https://www.matfordbrook.academy/,Exeter,EX2 0BZ,South West,no
143192,878,Devon,Meavy Church of England Primary School,www.meavy.devon.sch.uk/,Yelverton,PL20 6PJ,South West,no
142250,878,Devon,Membury Primary Academy,membury.acornacademy.org,Axminster,EX13 7AF,South West,no
151329,878,Devon,Mill Water School,www.millwater.devon.sch.uk,Budleigh Salterton,EX9 7BJ,South West,no
150881,878,Devon,Milton Abbot Primary School,http://www.miltonabbot.devon.sch.uk,Tavistock,PL19 0PS,South West,no
113335,878,Devon,Modbury Primary School,www.modburyprimaryschool.co.uk/,Ivybridge,PL21 0RB,South West,no
147846,878,Devon,Monkerton Community Primary School,,Exeter,EX1 3WS,South West,no
113162,878,Devon,Monkleigh Primary School,www.monkleigh-primary.devon.sch.uk,Bideford,EX39 5JY,South West,no
113082,878,Devon,Montgomery Primary School,http://www.montgomeryprimary.org.uk,Exeter,EX4 1BS,South West,no
148743,878,Devon,Morchard Bishop Church of England Primary School,www.morchardbishop.thelink.academy,Crediton,EX17 6PJ,South West,no
141285,878,Devon,Moretonhampstead Primary School,http://moretonhampstead.thelink.academy/,Newton Abbot,TQ13 8NA,South West,no
141525,878,Devon,Mrs Ethelston's CofE Primary Academy,http://www.acornacademy.org,Lyme Regis,DT7 3TT,South West,no
143182,878,Devon,Musbury Primary School,www.musbury-primary.devon.sch.uk/,Axminster,EX13 8BB,South West,no
137012,878,Devon,Newport Community School Primary Academy,www.newportprimary.devon.sch.uk/,Barnstaple,EX32 9BW,South West,no
137124,878,Devon,Newton Abbot College,https://na-college.co.uk/,Newton Abbot,TQ12 2NF,South West,no
137664,878,Devon,Newton Ferrers Church of England Primary School,www.newton-ferrers.devon.sch.uk/,Newton Ferrers Plymouth,PL8 1AS,South West,no
113104,878,Devon,Newton St Cyres Primary School,https://www.exevalleyfederation.co.uk/Newton-St-Cryes/,Exeter,EX5 5DL,South West,no
149615,878,Devon,Newtown Primary School,www.newtownprimaryexeter.org,Exeter,EX1 2BP,South West,no
148020,878,Devon,North Molton Primary School,http://www.north-molton-primary.devon.sch.uk,South Molton,EX36 3HL,South West,no
145333,878,Devon,North Tawton Community Primary School and Nursery,www.ntcps.co.uk,North Tawton,EX20 2HB,South West,no
145340,878,Devon,Northlew and Ashbury Parochial Church of England Primary School,www.northlew.devon.sch.uk,Okehampton,EX20 3PB,South West,no
145337,878,Devon,Okehampton College,http://www.okehamptoncollege.devon.sch.uk/,Okehampton,EX20 1PW,South West,no
145334,878,Devon,Okehampton Primary School and Foundation Unit,http://www.okehampton-pri.devon.sch.uk,Okehampton,EX20 1JB,South West,no
148476,878,Devon,Orchard Manor School,,Dawlish,EX7 9SF,South West,no
137644,878,Devon,Orchard Vale Community School,www.ovschool.co.uk/,Barnstaple,EX32 8QY,South West,no
147496,878,Devon,Otterton Church of England Primary School,www.otterton.thelink.academy,Budleigh Salterton,EX9 7HU,South West,no
113105,878,Devon,Ottery St Mary Primary School,http://www.otteryprimary.co.uk,Ottery St Mary,EX11 1HY,South West,no
140695,878,Devon,Our Lady and St Patrick's Roman Catholic Primary School,www.olsp-rc.com/web,Teignmouth,TQ14 9DT,South West,no
140739,878,Devon,"Our Lady's Catholic Primary School, Barnstaple",www.ourladys.devon.sch.uk/,Barnstaple,EX32 8DN,South West,no
113382,878,Devon,Parracombe Church of England Primary School,http://www.westexmoorfederation.org.uk,Barnstaple,EX31 4QJ,South West,no
113638,878,Devon,Pathfield School,http://www.pathfield.devon.sch.uk,Barnstaple,EX31 1JU,South West,no
138315,878,Devon,Pilton Bluecoat Church of England Academy,www.piltonbluecoat.devon.sch.uk/,Barnstaple,EX31 1JU,South West,no
136867,878,Devon,Pilton Community College,http://www.piltoncollege.org.uk,Barnstaple,EX31 1RB,South West,no
150074,878,Devon,Pilton Infants' Academy,www.pilton-inf.devon.sch.uk/,Barnstaple,EX31 1JU,South West,no
113361,878,Devon,Plymtree Church of England Primary School,http://www.plymtree-primary.devon.sch.uk,Cullompton,EX15 2JU,South West,no
147494,878,Devon,Princetown Community Primary School,https://princetowncp.eschools.co.uk/web,Yelverton,PL20 6QE,South West,no
136646,878,Devon,Queen Elizabeth's,https://www.qe.devon.sch.uk,Crediton,EX17 3LU,South West,no
146735,878,Devon,River Dart Academy,https://wavemat.org/river-dart-academy,Dartington,TQ9 6JD,South West,no
145252,878,Devon,Rockbeare Church of England Primary School and Pre-School,www.rockbeare-ce-primary.devon.sch.uk,Exeter,EX5 2EQ,South West,no
147084,878,Devon,Roundswell Community Primary Academy,www.roundswellprimary.devon.sch.uk,Barnstaple,EX31 3WJ,South West,no
137528,878,Devon,Rydon Primary School,http://www.rydonprimary.org.uk,Newton Abbot,TQ12 3LP,South West,no
137662,878,Devon,Salcombe Church of England Primary School,www.salcombe-primary.devon.sch.uk/,Salcombe,TQ8 8AG,South West,no
137651,878,Devon,Sampford Peverell Church of England Primary School,http://www.sampford-peverell-primary.devon.sch.uk,Tiverton,EX16 7BR,South West,no
113107,878,Devon,Sandford School,http://www.exevalleyfederation.co.uk,Crediton,EX17 4NE,South West,no
142803,878,Devon,Shaldon Primary School,http://www.shaldonprimary.org,Teignmouth,TQ14 0DD,South West,no
113262,878,Devon,Shaugh Prior Primary School,http://www.moorswayfederation.org.uk,Plymouth,PL7 5HA,South West,no
113166,878,Devon,Shebbear Community School,www.shebbear-pri.devon.sch.uk,Beaworthy,EX21 5SG,South West,no
145907,878,Devon,Sherford Vale School & Nursery,www.sherfordvaleschool.co.uk,Sherford,PL9 8FA,South West,no
150686,878,Devon,Shirwell Community Primary School,www.shirwell.devon.sch.uk/,Barnstaple,EX31 4JT,South West,no
113109,878,Devon,Shute Community Primary School,www.shute-primary.org.uk,Axminster,EX13 7QR,South West,no
137649,878,Devon,Sidbury Church of England Primary School,http://www.sidbury.devon.sch.uk,Sidbury,EX10 0SB,South West,no
143183,878,Devon,Sidmouth Church of England (VA) Primary School,http://www.sidmouth-primary.devon.sch.uk,Sidmouth,EX10 9XB,South West,no
149602,878,Devon,Sidmouth College,http://www.sidmouthcollege.devon.sch.uk,Sidmouth,EX10 9LG,South West,no
113365,878,Devon,Silverton Church of England Primary School,www.exevalleyfederation.co.uk,Exeter,EX5 4JY,South West,no
137647,878,Devon,South Brent Primary School,http://www.south-brent-primary.com,South Brent,TQ10 9JN,South West,no
136569,878,Devon,South Dartmoor Community College,http://www.southdartmoor.devon.sch.uk/,Ashburton,TQ13 7EW,South West,no
141749,878,Devon,South Devon UTC,https://southdevonutc.org.uk,Newton Abbot,TQ12 2QA,South West,no
113512,878,Devon,South Molton Community College,http://www.smcc.devon.sch.uk/,South Molton,EX36 4LA,South West,no
113168,878,Devon,South Molton Community Primary School,http://www.southmoltonprimary.devon.sch.uk,South Molton,EX36 3BA,South West,no
151056,878,Devon,South Molton United CofE Primary School,http://www.smups.devon.sch.uk,South Molton,EX36 4EN,South West,no
145335,878,Devon,South Tawton Primary School,www.southtawton.co.uk,Okehampton,EX20 2LG,South West,no
113634,878,Devon,Southbrook School,,Exeter,EX2 6JB,South West,no
139795,878,Devon,Sparkwell All Saints Primary School,www.sparkwell.thelink.academy/web,Plymouth,PL7 5DD,South West,no
113124,878,Devon,Spreyton School,https://www.spreyton-primary.devon.sch.uk,Crediton,EX17 5AJ,South West,no
150950,878,Devon,St Andrew's Church of England Academy,http://www.standrewscofe.co.uk,Yelverton,PL20 7NA,South West,no
151304,878,Devon,St Andrew's CofE Primary Academy,standrews.acornacademy.org,Axminster,EX13 7BJ,South West,no
142183,878,Devon,St Andrew's Primary School,www.standrewsprimary.school,Cullompton,EX15 1HU,South West,no
113463,878,Devon,St Catherine's CofE Primary School,www.stcatherines-heathfield.devon.sch.uk/,Newton Abbot,TQ12 6SB,South West,no
142559,878,Devon,St David's CofE Primary School,http://www.stdavidsprimary.devon.sch.uk,Exeter,EX4 4EE,South West,no
142802,878,Devon,St Gabriel's CofE Primary School,www.stgabrielsprimary.org,Exeter,EX4 2BY,South West,no
150076,878,Devon,St George's CofE Infant and Nursery School,https://www.northamfederation.devon.sch.uk/,Bideford,EX39 1HT,South West,no
145769,878,Devon,St Helen's Church of England School,www.ash-sch.org/,Bideford,EX39 5AP,South West,no
145912,878,Devon,St James Church of England Primary and Nursery School,www.stjamesokehampton.co.uk,Okehampton,EX20 1GJ,South West,no
142805,878,Devon,St James School,http://www.stjamesexeter.co.uk/,Exeter,EX4 8NN,South West,no
140761,878,Devon,"St John the Baptist Roman Catholic Primary School, Dartmouth",www.st-johns-dartmouth.devon.sch.uk/,Dartmouth,TQ6 9HW,South West,no
140762,878,Devon,St John's Catholic Primary School,http://www.stjohnstiverton.uk,Tiverton,EX16 5LB,South West,no
140765,878,Devon,St Joseph's Catholic Primary School,www.st-josephs-primary.devon.sch.uk/,Newton Abbot,TQ12 1PT,South West,no
140766,878,Devon,"St Joseph's Catholic Primary School, Exmouth",www.stjosephsprimaryschool.com,Exmouth,EX8 1TA,South West,no
142596,878,Devon,St Leonard's (CofE) Primary School (VC),www.stleonards.devon.sch.uk,Exeter,EX2 4NQ,South West,no
147401,878,Devon,St Luke's Church of England School,https://stlukescofe.school/,Exeter,EX1 3RD,South West,no
150075,878,Devon,St Margaret's Church of England Junior School,https://www.northamfederation.devon.sch.uk/,Bideford,EX39 1EL,South West,no
151054,878,Devon,St Martin's CofE Primary & Nursery School,http://www.stmartinscranbrook.devon.sch.uk/,Exeter,EX5 7DT,South West,no
140772,878,Devon,"St Mary's Catholic Primary School, Axminster",http://www.stmarysaxminster.devon.sch.uk,Axminster,EX13 5BE,South West,no
140774,878,Devon,"St Mary's Catholic Primary School, Buckfast",www.st-marysrc.devon.sch.uk/,Buckfastleigh,TQ11 0EA,South West,no
113478,878,Devon,St Mary's Church of England Primary School,www.stmarys-brixton.devon.sch.uk/,Plymouth,PL8 2AG,South West,no
151055,878,Devon,St Mary's CofE Primary School,http://www.stmarysce.co.uk,Bideford,EX39 2QN,South West,no
139818,878,Devon,St Michael's Church of England Primary Academy,http://www.stmichaels.stcmat.org,Exeter,EX1 2SN,South West,no
113407,878,Devon,St Michael's Church of England Primary School,http://www.st-michaels-pri.devon.sch.uk/,Newton Abbot,TQ12 3BQ,South West,no
139394,878,Devon,St Nicholas Catholic Primary School,http://www.st-nicholas-exeter.devon.sch.uk/website,Exeter,EX1 3EG,South West,no
142045,878,Devon,St Peter's Church of England (VA) Junior School,https://www.stpetersjunior.co.uk/,Tavistock,PL19 9HW,South West,no
113553,878,Devon,St Peter's Church of England Aided School,https://www.spexe.org/,Exeter,EX2 5AP,South West,no
142164,878,Devon,St Rumon's Church of England (VC) Infants School,https://www.strumonsinfants.co.uk/,Tavistock,PL19 9EA,South West,no
149403,878,Devon,St Sidwell's Church of England Primary School & Nursery,http://www.st-sidwells-ce.devon.sch.uk,Exeter,EX4 6PG,South West,no
143191,878,Devon,St Thomas Primary School,http://www.stthomasprimaryschool.co.uk,Exeter,EX2 9BB,South West,no
146734,878,Devon,Stansfield Academy,www.wavemat.org,Exeter,EX2 7LB,South West,no
147644,878,Devon,Starcross Primary School,https://starcross-primary.co.uk/,"Exeter, Devon",EX6 8QD,South West,no
146095,878,Devon,Sticklepath Community Primary Academy,www.sticklepathschool.org.uk/,Barnstaple,EX31 2HH,South West,no
137454,878,Devon,Stockland Church of England Primary Academy,https://stocklandprimary.org/,Honiton,EX14 9EF,South West,no
113367,878,Devon,Stoke Canon Church of England Primary School and Pre-School,www.stokecanon.net,Exeter,EX5 4AS,South West,no
141286,878,Devon,Stoke Fleming Community Primary School,http://www.stokeflemingprimary.org.uk,Dartmouth,TQ6 0QA,South West,no
142639,878,Devon,Stoke Gabriel Primary School,http://www.stokegabriel.thelink.academy/web,Totnes,TQ9 6ST,South West,no
113222,878,Devon,Stokeinteignhead School,http://www.stokeinteignheadschool.org,Newton Abbot,TQ12 4QE,South West,no
113223,878,Devon,Stokenham Area Primary School,www.stokenhamprimaryschool.co.uk/,Kingsbridge,TQ7 2SJ,South West,no
137963,878,Devon,Stowford School,http://www.stowford.devon.sch.uk,Ivybridge,PL21 0BG,South West,no
145336,878,Devon,Tavistock College,http://tavistockcollege.org,Tavistock,PL19 8DD,South West,no
113265,878,Devon,Tavistock Primary & Nursery School,www.tavistock-pri.devon.sch.uk/,Tavistock,PL19 8BX,South West,no
145345,878,Devon,Tedburn St Mary School,http://www.tedburn.devon.sch.uk/website,Exeter,EX6 6AA,South West,no
136494,878,Devon,Teign School,www.teignschool.org.uk,Newton Abbot,TQ12 3JG,South West,no
136495,878,Devon,"Teignmouth Community School, Exeter Road",https://www.teignmouthsecondary.co.uk/,Teignmouth,TQ14 9HZ,South West,no
136493,878,Devon,Teignmouth Primary School,https://www.teignmouthprimary.co.uk/,Teignmouth,TQ14 9BB,South West,no
113430,878,Devon,The Beacon Church of England (VA) Primary School,www.beacon-ce-primary.devon.sch.uk,Exmouth,EX8 2SR,South West,no
145844,878,Devon,The Clinton Church of England Primary School,www.clintonanddolton.org,Okehampton,EX20 3EQ,South West,no
140078,878,Devon,The Duchy School Bradninch,www.duchy.devon.sch.uk/,Exeter,EX5 4RF,South West,no
113254,878,Devon,The Erme Primary School,http://www.moorswayfederation.org.uk,Ivybridge,PL21 0AJ,South West,no
113234,878,Devon,The Grove School,www.the-grove-primary.devon.sch.uk/,Totnes,TQ9 5ED,South West,no
139553,878,Devon,The Ilfracombe Church of England Academy,http://www.ilfracombeacademy.uk/,Ilfracombe,EX34 9JB,South West,no
136673,878,Devon,The King's School,http://www.thekings.devon.sch.uk/,Ottery St Mary,EX11 1RA,South West,no
113637,878,Devon,The Lampard Community School,http://www.lampard.devon.sch.uk,Barnstaple,EX32 9DD,South West,no
146094,878,Devon,The Park Community School,http://www.theparkschool.org.uk,Barnstaple,EX32 9AX,South West,no
149041,878,Devon,The Promise School,https://www.thepromiseschool.org.uk/,Okehampton,EX20 1GH,South West,no
146732,878,Devon,The Shoreline Academy,https://wavemat.org/shoreline-academy,Roundswell,EX31 3UD,South West,no
131108,878,Devon,The Topsham School,www.topsham.devon.sch.uk,Exeter,EX3 0DN,South West,no
147650,878,Devon,Thomas Hall School,https://www.thomashallschool.org,Exeter,EX4 5AD,South West,no
113368,878,Devon,Thorverton Church of England Primary School,http://www.exevalleyfederation.org.uk/,Exeter,EX5 5NR,South West,no
144074,878,Devon,Thurlestone All Saints Church of England Academy,https://thurlestone-lap.co.uk,Kingsbridge,TQ7 3NB,South West,no
143184,878,Devon,Tidcombe Primary School,http://www.tidcombe.devon.sch.uk,Tiverton,EX16 4BP,South West,no
113438,878,Devon,Tipton St John Church of England Primary School,http://www.tipton-stjohn.devon.sch.uk,Sidmouth,EX10 0AG,South West,no
113548,878,Devon,Tiverton High School,http://www.tiverton.devon.sch.uk/,Tiverton,EX16 6SQ,South West,no
147362,878,Devon,Torlands Academy,,Exeter,EX4 1PT,South West,no
146534,878,Devon,Totnes St John's Church of England Primary School,http://www.totnesstjohnsprimary.org,Totnes,TQ9 5TZ,South West,no
150078,878,Devon,Trinity CofE Primary and Nursery School,www.trinityprimaryexeter.org,Exeter,EX2 7TR,South West,no
139887,878,Devon,Uffculme Primary School,uffculmeprimary.bep.ac,Cullompton,EX15 3AY,South West,no
136287,878,Devon,Uffculme School,https://uffculmeschool.bep.ac/,Cullompton,EX15 3AG,South West,no
148873,878,Devon,Ugborough Primary School,http://www.beaconfederation.com,Ivybridge,PL21 0NJ,South West,no
141847,878,Devon,Umberleigh Primary Academy,http://www.teamacademytrust.com/,Umberleigh,EX37 9AD,South West,no
113369,878,Devon,Uplowman Church of England Primary School,www.uplowman.school,Tiverton,EX16 7DR,South West,no
149056,878,Devon,Webber's Church of England Primary School,www.webbers.devon.sch.uk,Wellington,TA21 0PE,South West,no
144896,878,Devon,Wembury Primary School,www.wemburyprimary.co.uk,Plymouth,PL9 0EB,South West,no
144070,878,Devon,West Alvington Church of England Academy,https://westalvington-lap.co.uk/,Kingsbridge,TQ7 3PP,South West,no
113172,878,Devon,West Down School,http://www.westberryfederation.org.uk,Ilfracombe,EX34 8NF,South West,no
134674,878,Devon,West Exe Nursery School,www.westexenurseryschool.org,Exeter,EX4 1HL,South West,no
145404,878,Devon,West Exe School,,Exeter,EX2 9JU,South West,no
142390,878,Devon,Westcliff Primary Academy,www.westcliffpriacademy.co.uk,Dawlish,EX7 9RA,South West,no
142886,878,Devon,Westclyst Community Primary School,www.wcps.education,Exeter,EX1 3YG,South West,no
113113,878,Devon,Whimple Primary School,www.whimple-primary.devon.sch.uk/,Exeter,EX5 2TS,South West,no
146600,878,Devon,Whipton Barton Infants and Nursery School,http://www.whiptonbarton.org/,Exeter,EX1 3JP,South West,no
146578,878,Devon,Whipton Barton Junior School,www.whiptonbarton.org,Exeter,EX1 3JP,South West,no
149191,878,Devon,Whitchurch Community Primary School,http://www.whitchurch-primary.devon.sch.uk/,Tavistock,PL19 9SR,South West,no
136563,878,Devon,Widecombe-in-the-Moor Primary,http://www.widecombe.thelink.academy/website,Newton Abbot,TQ13 7TB,South West,no
137659,878,Devon,Wilcombe Primary School,http://www.wilcombe-pri.devon.sch.uk,Tiverton,EX16 4AL,South West,no
113114,878,Devon,Willand School,www.willand.devon.sch.uk/,Cullompton,EX15 2QL,South West,no
145763,878,Devon,Willowbank Primary School,http://www.willowbank.devon.sch.uk,Cullompton,EX15 1EZ,South West,no
150856,878,Devon,Willowbrook School,www.willowbrook.devon.sch.uk,Exeter,EX4 8NN,South West,no
113174,878,Devon,Winkleigh Primary School,http://www.winkleigh.devon.sch.uk,Winkleigh,EX19 8JQ,South West,no
144560,878,Devon,Witheridge Church of England Primary Academy,http://www.witheridge.devon.sch.uk,Tiverton,EX16 8AH,South West,no
113355,878,Devon,Withycombe Raleigh Church of England Primary School,www.wrpschool.org,Exmouth,EX8 3BA,South West,no
150060,878,Devon,Wolborough Church of England Nursery and Primary School,www.wolborough-primary.co.uk,Newton Abbot,TQ12 2JX,South West,no
151004,878,Devon,Woodbury Salterton Church of England Primary School,http://www.woodbury-salterton.devon.sch.uk/,Exeter,EX5 1PP,South West,no
143412,878,Devon,Woodlands Park Primary School,http://www.woodlandspark.devon.sch.uk/,Ivybridge,PL21 9TF,South West,no
139019,878,Devon,Woodwater Academy,http://www.woodwater.devon.sch.uk/,Exeter,EX2 5AW,South West,no
145765,878,Devon,Woolacombe School,http://www.woolacombe.devon.sch.uk,Woolacombe,EX34 7BT,South West,no
113176,878,Devon,Woolsery Primary School,https://www.villageschools.org.uk,Bideford,EX39 5QS,South West,no
149629,878,Devon,Wynstream Primary School Academy,www.wynstreamprimary.org.uk,Exeter,EX2 6AY,South West,no
136635,878,Devon,Yealmpton Primary School,http://www.yealmpton-primary.co.uk,Plymouth,PL8 2HF,South West,no
146531,878,Devon,Yeo Valley Primary School,,Barnstaple,EX32 7HB,South West,no
145344,878,Devon,Yeoford Community Primary School,http://www.yeoford.thelink.academy,Crediton,EX17 5HZ,South West,no
113125,878,Devon,Appledore School,http://www.appledore-primary.devon.sch.uk,Bideford,EX39 1PF,South West,yes
113422,878,Devon,Awliscombe Church of England Primary School,www.awliscombeprimary.co.uk,Honiton,EX14 3PJ,South West,yes
113120,878,Devon,Bassetts Farm Primary School,http://www.bassetts-farm.devon.sch.uk,Exmouth,EX8 4GB,South West,yes
113133,878,Devon,Bishops Nympton Primary School,www.bishopsnymptonschool.org,South Molton,EX36 4PU,South West,yes
113134,878,Devon,Bishops Tawton Primary School,www.bishopstawton-primary.devon.sch.uk/,Barnstaple,EX32 0AE,South West,yes
113241,878,Devon,Bradley Barton Primary School and Nursery Unit,http://www.bradleybarton.com/,Newton Abbot,TQ12 1PR,South West,yes
113141,878,Devon,Buckland Brewer Primary School,http://www.villageschools.org.uk,Bideford,EX39 5LX,South West,yes
113138,878,Devon,Caen Community Primary School,www.caen.devon.sch.uk/,Braunton,EX33 1AD,South West,yes
113245,878,Devon,Canada Hill Community Primary School,http://www.canadahill.devon.sch.uk,Newton Abbot,TQ12 6YS,South West,yes
113392,878,Devon,Chudleigh Church of England Community Primary School,http://www.chudleigh.devon.sch.uk,Newton Abbot,TQ13 0LS,South West,yes
113071,878,Devon,Culmstock Primary School,http://www.culmstock-primary.devon.sch.uk,Cullompton,EX15 3JP,South West,yes
113146,878,Devon,East Anstey Primary School,www.eastansteyschool.org,Tiverton,EX16 9JP,South West,yes
113130,878,Devon,East-the-Water Community Primary School,www.east-the-water.devon.sch.uk,Bideford,EX39 4BZ,South West,yes
113633,878,Devon,Ellen Tinkham School,www.ellentinkham.devon.sch.uk,Exeter,EX1 3RW,South West,yes
113376,878,Devon,Goodleigh Church of England Primary School,www.goodleigh-primary.devon.sch.uk/,Barnstaple,EX32 7LU,South West,yes
113377,878,Devon,Great Torrington Bluecoat Church of England Primary School,www.bluecoat-learn.org/,Torrington,EX38 7NU,South West,yes
113152,878,Devon,Hartland Primary School,www.hartland.devon.sch.uk/,Bideford,EX39 6BP,South West,yes
113251,878,Devon,Hatherleigh Community Primary School,www.hatherleigh-pri.devon.sch.uk/,Okehampton,EX20 3JB,South West,yes
113069,878,Devon,Hayward's Primary School,www.haywards.org/,Crediton,EX17 3AX,South West,yes
113343,878,Devon,Heathcoat Primary School,www.heathcoat.devon.sch.uk/,Tiverton,EX16 5HE,South West,yes
113379,878,Devon,Holsworthy Church of England Primary School,www.holsworthy-primary.devon.sch.uk,Holsworthy,EX22 6HD,South West,yes
113253,878,Devon,Horrabridge Primary & Nursery School,http://www.horrabridge-primary.devon.sch.uk,Yelverton,PL20 7SZ,South West,yes
113381,878,Devon,Ilfracombe Church of England Junior School,http://www.ilfracombe-jun.devon.sch.uk,Ilfracombe,EX34 9LW,South West,yes
113155,878,Devon,Ilfracombe Infant and Nursery School,http://www.ilfracombe-inf.devon.sch.uk,Ilfracombe,EX34 8JL,South West,yes
113357,878,Devon,Kentisbeare Church of England Primary School,https://www.kentisbeare-primary.devon.sch.uk/,Cullompton,EX15 2AD,South West,yes
113117,878,Devon,Landscore Primary School,www.landscoreprimary.co.uk/,Crediton,EX17 3JH,South West,yes
113160,878,Devon,Langtree Community School and Nursery Unit,http://www.langtree.devon.sch.uk,Torrington,EX38 8NF,South West,yes
113358,878,Devon,Lympstone Church of England Primary School,http://www.lympstone-primary.devon.sch.uk,Exmouth,EX8 5JY,South West,yes
113264,878,Devon,Mary Tavy and Brentor Community Primary School,http://www.marytavyandbrentorpri.co.uk/,Tavistock,PL19 9PR,South West,yes
113103,878,Devon,Newton Poppleford Primary School,http://www.newton-poppleford.devon.sch.uk,Sidmouth,EX10 0EL,South West,yes
113359,878,Devon,Offwell Church of England Primary School,www.offwell-primary.devon.sch.uk/,Honiton,EX14 9SA,South West,yes
113164,878,Devon,Parkham Primary School,http://www.villageschools.org.uk,Bideford,EX39 5PL,South West,yes
113360,878,Devon,Payhembury Church of England Primary School,https://www.payhemburyprimary.co.uk,Exeter,EX14 3HT,South West,yes
113445,878,Devon,Pinhoe Church of England Primary School & Nursery,http://www.pinhoecofeprimaryschool.co.uk,Exeter,EX4 8PE,South West,yes
113495,878,Devon,Rackenford Church of England Primary School,www.rackenford-primary.devon.sch.uk,Tiverton,EX16 8DU,South West,yes
113108,878,Devon,Seaton Primary School,https://seatonprimary.org.uk/,Seaton,EX12 2HF,South West,yes
113139,878,Devon,Southmead School,www.southmead.devon.sch.uk/,Braunton,EX33 2BU,South West,yes
113165,878,Devon,St Giles-on-the-Heath Community School,www.stgilesheathprimary.co.uk/,Launceston,PL15 9SD,South West,yes
113425,878,Devon,St Peter's Church of England Primary School,www.st-peters-school.org.uk/,Budleigh Salterton,EX9 6QF,South West,yes
113086,878,Devon,Stoke Hill Infant and Nursery School,www.stokehill.devon.sch.uk,Exeter,EX4 7DB,South West,yes
113087,878,Devon,Stoke Hill Junior School,www.stokehill.devon.sch.uk,Exeter,EX4 7DP,South West,yes
113455,878,Devon,Swimbridge Church of England Primary School,www.swimbridge-primary.org,Barnstaple,EX32 0PJ,South West,yes
113341,878,Devon,Two Moors Primary School,http://www.twomoors.devon.sch.uk,Tiverton,EX16 6HH,South West,yes
113112,878,Devon,Upottery Primary School,http://www.upottery-primary.devon.sch.uk/,Honiton,EX14 9QT,South West,yes
113132,878,Devon,West Croft School,http://www.westcroft.devon.sch.uk,Bideford,EX39 3DE,South West,yes
113106,878,Devon,West Hill Primary School,http://www.west-hill-primary.devon.sch.uk,Ottery St Mary,EX11 1UQ,South West,yes
113440,878,Devon,Woodbury Church of England Primary School,www.woodbury.devon.sch.uk/,Exeter,EX5 1EA,South West,yes
