urn,district_code,district_name,school_name,website,town,postcode,region,has_email_collected
139605,883,Thurrock,Abbots Hall Primary School,www.abbots-hall.co.uk/,Stanford-le-Hope,SS17 7BW,East of England,no
143378,883,Thurrock,Arthur Bugler Primary School,https://arthur-bugler.osborne.coop/,Stanford-le-Hope,SS17 7BQ,East of England,no
146818,883,Thurrock,Aveley Primary School,aveleyprimary.org,South Ockendon,RM15 4AA,East of England,no
138736,883,Thurrock,Beacon Hill Academy,,South Ockendon,RM15 5AY,East of England,no
139105,883,Thurrock,Belmont Castle Academy,www.s562128340.websitehome.co.uk/,Grays,RM17 5YN,East of England,no
139382,883,Thurrock,Benyon Primary School,www.benyonprimaryschool.org.uk,South Ockendon,RM15 6PG,East of England,no
148209,883,Thurrock,Bonnygate Primary School,https://bonnygate.osborne.coop/,South Ockendon,RM15 5BA,East of England,no
144603,883,Thurrock,Bulphan Church of England Academy,www.bulphanprimary.thurrock.sch.uk,Bulphan,RM14 3RL,East of England,no
143149,883,Thurrock,Chadwell St Mary Primary School,https://chadwellstmary.org.uk/,Grays,RM16 4DH,East of England,no
141897,883,Thurrock,Deneholm Primary School,https://deneholm.org.uk/,Grays,RM16 2SS,East of England,no
139104,883,Thurrock,Dilkes Academy,www.dilkesacademy.org.uk,South Ockendon,RM15 5JQ,East of England,no
138065,883,Thurrock,East Tilbury Primary School,https://east-tilbury.osborne.coop/,East Tilbury,RM18 8SB,East of England,no
140720,883,Thurrock,Giffards Primary School,www.giffardsprimary.thurrock.sch.uk/,Stanford-le-Hope,SS17 7TG,East of England,no
139613,883,Thurrock,Graham James Primary Academy,www.grahamjamesacademy.co.uk/,Stanford-le-Hope,SS17 7ES,East of England,no
137549,883,Thurrock,Harris Academy Chafford Hundred,www.harrischaffordhundred.org.uk,Grays,RM16 6SA,East of England,no
147537,883,Thurrock,Harris Academy Ockendon,www.harrisockendon.org.uk,South Ockendon,RM15 5AY,East of England,no
144750,883,Thurrock,Harris Academy Riverside,www.harrisriverside.org.uk,Purfleet,RM19 1QY,East of England,no
138349,883,Thurrock,Harris Primary Academy Chafford Hundred,www.harrisprimarychaffordhundred.org.uk/,Grays,RM16 6SA,East of England,no
140938,883,Thurrock,Harris Primary Academy Mayflower,www.harrisprimarymayflower.org.uk/,Chafford Hundred,RM16 6SA,East of England,no
138962,883,Thurrock,Herringham Primary Academy,www.theglc-herringham.org.uk/,Grays,RM16 4JX,East of England,no
146296,883,Thurrock,Holy Cross Catholic Primary School,https://www.holycrossprimary.com,South Ockendon,RM15 5RP,East of England,no
146708,883,Thurrock,Horndon-On-the-Hill CofE Primary School,https://horndon-on-the-hill.osborne.coop/,Stanford-le-Hope,SS17 8LR,East of England,no
138735,883,Thurrock,Kenningtons Primary Academy,www.kenningtonsprimaryacademy.co.uk,South Ockendon,RM15 4NB,East of England,no
138048,883,Thurrock,Lansdowne Primary Academy,www.theglc-lansdowne.org.uk,Tilbury,RM18 7QB,East of England,no
147215,883,Thurrock,Little Thurrock Primary School,https://little-thurrock.osborne.coop,Grays,RM17 5SW,East of England,no
151441,883,Thurrock,Mossbourne Fobbing Academy,,Stanford-le-Hope,SS17 8JT,East of England,no
140013,883,Thurrock,Mossbourne Herd Lane Academy,www.ortucorringhamprimary.org,Stanford-le-Hope,SS17 9BH,East of England,no
151442,883,Thurrock,Mossbourne Port Side Academy,,Stanford-le-Hope,SS17 0NS,East of England,no
140861,883,Thurrock,Olive AP Academy - Thurrock,http://apthurrock.oliveacademies.org.uk/,Tilbury,RM18 7AX,East of England,no
135960,883,Thurrock,Ormiston Park Academy,https://ormistonpark.org.uk/,South Ockendon,RM15 4RU,East of England,no
144587,883,Thurrock,Orsett Church of England Primary School,www.orsettprimary.co.uk,Grays,RM16 3JR,East of England,no
147847,883,Thurrock,Orsett Heath Academy,https://www.orsettheathacademy.org.uk/,Grays,RM16 4DG,East of England,no
139380,883,Thurrock,Purfleet Primary Academy,www.purfleetprimary.co.uk,Purfleet-on-Thames,RM19 1TA,East of England,no
139576,883,Thurrock,Quarry Hill Academy,www.quarryhillacademy.org.uk,Grays,RM17 5UT,East of England,no
139166,883,Thurrock,Shaw Primary Academy,www.shawprimaryacademy.co.uk/,South Ockendon,RM15 5QJ,East of England,no
144448,883,Thurrock,Somers Heath Primary School,www.somersheathprimary.org.uk,South Ockendon,RM15 5LX,East of England,no
137456,883,Thurrock,St Clere's School,https://www.st-cleres.osborne.coop/,Stanford-le-Hope,SS17 0NW,East of England,no
146300,883,Thurrock,St Joseph's Catholic Primary School,www.stjosephscatholicprimaryschool.co.uk/,Stanford-le-Hope,SS17 0PA,East of England,no
146867,883,Thurrock,St Mary's Catholic Primary School,www.stmarystilbury.co.uk,Tilbury,RM18 7QH,East of England,no
146299,883,Thurrock,St Thomas of Canterbury Catholic Primary School,http://www.stthomasofcanterbury.thurrock.sch.uk,Grays,RM17 5RW,East of England,no
139566,883,Thurrock,Stanford-Le-Hope Primary School,https://www.stanford-le-hope.osborne.coop/,Stanford-le-Hope,SS17 0DF,East of England,no
141877,883,Thurrock,Stifford Clays Primary School,https://stiffordclays.org.uk/,Grays,RM16 2ST,East of England,no
147853,883,Thurrock,Thames Park Secondary School,https://www.thames-park.osborne.coop/,Grays,RM17 5FP,East of England,no
138581,883,Thurrock,Thameside Primary School,www.thamesideprimaryschool.com,Grays,RM17 6EF,East of England,no
133114,883,Thurrock,The Gateway Academy,http://www.theglc-gatewayacademy.org.uk/,Grays,RM16 4LU,East of England,no
138334,883,Thurrock,The Gateway Primary Free School,http://www.theglc-primaryfreeschool.org.uk,Grays,RM16 4LU,East of England,no
139578,883,Thurrock,The Hathaway Academy,http://hathawayacademy.attrust.org.uk/,Grays,RM17 5LL,East of England,no
140832,883,Thurrock,Tilbury Pioneer Academy,www.theglc-pioneer.org.uk,Tilbury,RM18 8HJ,East of England,no
148539,883,Thurrock,Treetops Free School,https://treetopsschool.org/,Grays,RM16 2WU,East of England,no
144234,883,Thurrock,Treetops School,http://www.treetopsschool.org,Grays,RM16 2WU,East of England,no
141070,883,Thurrock,Tudor Court Primary School,www.tudorcourtprimary.com,Grays,RM16 6PL,East of England,no
148172,883,Thurrock,Warren Primary School,www.warren.osborne.coop,Grays,RM16 6NB,East of England,no
139991,883,Thurrock,West Thurrock Academy,http://www.westthurrockacademy.co.uk,Grays,RM20 3HR,East of England,no
137214,883,Thurrock,William Edwards School,http://williamedwards.org.uk/,Grays,RM16 3NJ,East of England,no
139106,883,Thurrock,Woodside Academy,www.woodsideacademy.org,Grays,RM16 2GJ,East of England,no
115239,883,Thurrock,Grays Convent High School,https://www.graysconvent.school/,Grays,RM17 5UX,East of England,yes
