urn,district_code,district_name,school_name,website,town,postcode,region,has_email_collected
116731,884,"Herefordshire, County of",Ashfield Park Primary School,www.ashfieldpark.org/,Ross-on-Wye,HR9 5AU,West Midlands,no
136532,884,"Herefordshire, County of",Ashperton Primary Academy,http://www.ashperton.hereford.sch.uk,Ledbury,HR8 2SE,West Midlands,no
139607,884,"Herefordshire, County of",Barrs Court School,https://www.barrscourtschool.co.uk/,Hereford,HR1 1EQ,West Midlands,no
151214,884,"Herefordshire, County of",Blackmarston School,,Hereford,HR2 7NX,West Midlands,no
149323,884,"Herefordshire, County of",Bredenbury Primary School,,Bromyard,HR7 4TF,West Midlands,no
137624,884,"Herefordshire, County of",Brockhampton Primary School,www.brockhamptonprimaryschool.co.uk,Bromyard,WR6 5TD,West Midlands,no
139608,884,"Herefordshire, County of",Burghill Community Academy,http://www.burghillacademy.com,Hereford,HR4 7RP,West Midlands,no
143454,884,"Herefordshire, County of",Burley Gate CofE Primary School,http://www.burleygate.hereford.sch.uk,Hereford,HR1 3QR,West Midlands,no
139308,884,"Herefordshire, County of",Canon Pyon CofE Academy,www.canonpyonacademy.com,Hereford,HR4 8PF,West Midlands,no
143974,884,"Herefordshire, County of",Eastnor Parochial Primary School,www.eastnorschool.co.uk,Ledbury,HR8 1RA,West Midlands,no
116674,884,"Herefordshire, County of",Ewyas Harold Primary School,http://www.ewyasharoldprimaryschool.co.uk,Hereford,HR2 0EY,West Midlands,no
140868,884,"Herefordshire, County of",Fairfield High School,www.fairfield.hereford.sch.uk,Hereford,HR2 0SG,West Midlands,no
150530,884,"Herefordshire, County of",Goodrich CofE Primary School,www.goodrichce.org,Ross-on-Wye,HR9 6HY,West Midlands,no
116814,884,"Herefordshire, County of",Gorsley Goffs Primary School,http://www.gorsleygoffsprimary.co.uk,Ross-on-Wye,HR9 7SE,West Midlands,no
116680,884,"Herefordshire, County of",Hampton Dene Primary School,www.hamptondeneschool.co.uk,Hereford,HR1 1RT,West Midlands,no
143929,884,"Herefordshire, County of",Hereford Sixth Form College,https://www.hereford.ac.uk/,Hereford,HR1 1LU,West Midlands,no
130991,884,"Herefordshire, County of",Herefordshire Pupil Referral Service,www.hprs.hereford.sch.uk,Hereford,HR1 2DY,West Midlands,no
137731,884,"Herefordshire, County of",Holmer CofE Academy,www.holmerceacademy.co.uk,Hereford,HR4 9RX,West Midlands,no
116894,884,"Herefordshire, County of",Ivington CofE Primary and Pre-School,http://www.ivington.hereford.sch.uk,Leominster,HR6 0JH,West Midlands,no
136399,884,"Herefordshire, County of",John Kyrle High School and Sixth Form Centre Academy,http://www.jkhs.org.uk/,Ross-on-Wye,HR9 7ET,West Midlands,no
136803,884,"Herefordshire, County of",John Masefield High School,http://www.jmhs.hereford.sch.uk,Ledbury,HR8 2HF,West Midlands,no
116890,884,"Herefordshire, County of",Kimbolton St James CofE Primary School,www.kimbolton-st-james.hereford.sch.uk/,Leominster,HR6 0HQ,West Midlands,no
136759,884,"Herefordshire, County of",King's Caple Primary Academy,www.kingscaple.hmfa.org.uk,Hereford,HR1 4TZ,West Midlands,no
116891,884,"Herefordshire, County of",Kingsland CofE School,http://www.kingslandceprimary.com/,Leominster,HR6 9QN,West Midlands,no
137073,884,"Herefordshire, County of",Kingstone High School,http://www.kingstoneacademytrust.co.uk,Hereford,HR2 9HJ,West Midlands,no
137415,884,"Herefordshire, County of",Kingstone and Thruxton Primary School,www.kingstone-thruxton.hereford.sch.uk/,Hereford,HR2 9HJ,West Midlands,no
137608,884,"Herefordshire, County of",Lady Hawkins' School,http://www.lhs.hereford.sch.uk,Kington,HR5 3AR,West Midlands,no
116892,884,"Herefordshire, County of",Lea CofE Primary School,http://www.lea-primary.hereford.sch.uk,Ross-on-Wye,HR9 7JY,West Midlands,no
116893,884,"Herefordshire, County of",Leintwardine Endowed CE Primary School,www.leintwardineprimary.org,Craven Arms,SY7 0LL,West Midlands,no
140617,884,"Herefordshire, County of",Leominster Primary School,www.leominsterprimaryschool.co.uk,Leominster,HR6 8JU,West Midlands,no
116828,884,"Herefordshire, County of",Little Dewchurch CofE Primary School,http://www.little-dewchurch.hereford.sch.uk,Hereford,HR2 6PN,West Midlands,no
139313,884,"Herefordshire, County of",Llangrove CE Academy,www.llangrove.hmfa.org.uk/,Ross-on-Wye,HR9 6EZ,West Midlands,no
136761,884,"Herefordshire, County of",Lord Scudamore Primary Academy,www.lordscudamore.hmfa.org.uk,Hereford,HR4 0AS,West Midlands,no
138035,884,"Herefordshire, County of",Lugwardine Primary Academy,www.lugwardine.hereford.sch.uk,Hereford,HR1 4DH,West Midlands,no
116708,884,"Herefordshire, County of",Madley Primary School,www.madleyprimaryschool.co.uk,Hereford,HR2 9PH,West Midlands,no
140526,884,"Herefordshire, County of",Marden Primary Academy,marden.hmfa.org.uk,Hereford,HR1 3EW,West Midlands,no
151069,884,"Herefordshire, County of",Marlbrook Primary School,http://www.marlbrookschool.com,Hereford,HR2 7NT,West Midlands,no
116714,884,"Herefordshire, County of",Michaelchurch Escley Primary School,http://michaelchurchprimary.com,Hereford,HR2 0PT,West Midlands,no
140464,884,"Herefordshire, County of",Mordiford CofE Primary School,http://mordifordceprimaryschool.co.uk,Hereford,HR1 4LW,West Midlands,no
116833,884,"Herefordshire, County of",Much Birch CofE Primary School,www.much-birch.hereford.sch.uk/,Hereford,HR2 8HL,West Midlands,no
151252,884,"Herefordshire, County of",Much Marcle CofE Primary School,www.muchmarcle.hereford.sch.uk/,Ledbury,HR8 2LY,West Midlands,no
116883,884,"Herefordshire, County of",Our Lady's RC Primary School,http://www.our-ladys.hereford.sch.uk,Hereford,HR2 7RN,West Midlands,no
137703,884,"Herefordshire, County of",Queen Elizabeth High School,www.qehs.co/,Bromyard,HR7 4QS,West Midlands,no
128077,884,"Herefordshire, County of",Riverside Primary School,www.riverside.hereford.sch.uk/,Hereford,HR2 7JF,West Midlands,no
116884,884,"Herefordshire, County of",St Francis Xavier's Primary School,http://www.st-francisxaviers.hereford.sch.uk,Hereford,HR1 1DT,West Midlands,no
151073,884,"Herefordshire, County of",St James' Church of England Primary School,https://www.stjamesceschool.org/,Hereford,HR1 2QN,West Midlands,no
151070,884,"Herefordshire, County of",St Martin's Primary School,,Hereford,HR2 6AF,West Midlands,no
116799,884,"Herefordshire, County of",St Mary's CofE Primary School,http://www.credenhill.hereford.sch.uk,Hereford,HR4 7DW,West Midlands,no
139241,884,"Herefordshire, County of","St Mary's Primary School, Dilwyn",www.stmarysprimarydilwyn.co.uk,Hereford,HR4 8HR,West Midlands,no
143455,884,"Herefordshire, County of",St Michael's CofE Primary School,www.st-michaels.hereford.sch.uk/,Hereford,HR1 3JU,West Midlands,no
138037,884,"Herefordshire, County of",St Paul's CofE Primary School,https://www.stpaulsprimary.com/,Hereford,HR1 1UX,West Midlands,no
149258,884,"Herefordshire, County of",St Peter's Primary School,http://www.st-peters.hereford.sch.uk,Bromyard,HR7 4UY,West Midlands,no
140183,884,"Herefordshire, County of",St Thomas Cantilupe CofE Academy,www.st-thomascantilupe.org,Hereford,HR1 2DY,West Midlands,no
147406,884,"Herefordshire, County of",St Weonard's Academy,www.stweonards.hmfa.org.uk/,Hereford,HR2 8NU,West Midlands,no
150128,884,"Herefordshire, County of",Stoke Prior Primary School,www.stokeprior.hereford.sch.uk,Leominster,HR6 0ND,West Midlands,no
138055,884,"Herefordshire, County of",Stretton Sugwas CofE Academy,www.strettonsugwas.com,Hereford,HR4 7AE,West Midlands,no
136765,884,"Herefordshire, County of",Sutton Primary Academy,www.sutton.hmfa.org.uk,HEREFORD,HR1 3SZ,West Midlands,no
148636,884,"Herefordshire, County of",The Beacon College,https://www.thebeaconcollege.org/,Hereford,HR1 1NZ,West Midlands,no
149855,884,"Herefordshire, County of",The Brookfield School,http://www.brookfield.hereford.sch.uk,Hereford,HR4 9NG,West Midlands,no
135662,884,"Herefordshire, County of",The Hereford Church of England Academy,http://www.theherefordacademy.org.uk/,Hereford,HR2 7NG,West Midlands,no
135672,884,"Herefordshire, County of",The Steiner Academy Hereford,http://www.steineracademyhereford.org.uk,Hereford,HR2 8DL,West Midlands,no
116686,884,"Herefordshire, County of",Trinity Primary School,www.trinity.hereford.sch.uk/,Hereford,HR4 0NU,West Midlands,no
151071,884,"Herefordshire, County of",Wellington Primary School and Nursery,https://www.wellingtonprimaryschool.com/,Hereford,HR4 8AZ,West Midlands,no
116746,884,"Herefordshire, County of",Weobley Primary School,www.weobleyprimary.com,Weobley,HR4 8ST,West Midlands,no
116918,884,"Herefordshire, County of",Weston-under-Penyard CofE Primary School,,Ross-on-Wye,HR9 7PA,West Midlands,no
116919,884,"Herefordshire, County of",Whitchurch CofE Primary School,,Ross-on-Wye,HR9 6DA,West Midlands,no
139189,884,"Herefordshire, County of",Whitecross Hereford,www.whitecross.hereford.sch.uk,Hereford,HR4 0RN,West Midlands,no
136374,884,"Herefordshire, County of",Wigmore Primary School,www.wigmoreschool.org.uk/,Leominster,HR6 9UN,West Midlands,no
136405,884,"Herefordshire, County of",Wigmore School,http://www.wigmoreschool.org.uk/,Leominster,HR6 9UW,West Midlands,no
116645,884,"Herefordshire, County of",Almeley Primary School,www.almeley.hereford.sch.uk/,Hereford,HR3 6LH,West Midlands,yes
116936,884,"Herefordshire, County of",Aylestone School,www.aylestone.hereford.sch.uk,Hereford,HR1 1HY,West Midlands,yes
116785,884,"Herefordshire, County of",Bosbury CofE Primary School,www.bosburyprimaryschool.co.uk/,Ledbury,HR8 1PX,West Midlands,yes
116867,884,"Herefordshire, County of",Brampton Abbotts CofE Primary School,www.bramptonabbotts.org/,Ross-on-Wye,HR9 7FX,West Midlands,yes
116869,884,"Herefordshire, County of",Bridstow CofE Primary School,www.bridstow-school.co.uk/,Ross-on-Wye,HR9 6PZ,West Midlands,yes
116679,884,"Herefordshire, County of",Broadlands Primary School,http://www.broadlands.hereford.sch.uk,Hereford,HR1 1HY,West Midlands,yes
116795,884,"Herefordshire, County of",Clehonger CofE Primary School,www.clehongerschool.co.uk,Hereford,HR2 9SN,West Midlands,yes
116668,884,"Herefordshire, County of",Clifford Primary School,http://www.clifford.hereford.sch.uk,Clifford,HR3 5HA,West Midlands,yes
116797,884,"Herefordshire, County of",Colwall CofE Primary School and Nursery,http://www.colwallceprimary.co.uk/,Malvern,WR13 6EQ,West Midlands,yes
116874,884,"Herefordshire, County of",Cradley CofE Primary School,www.cradleyschool.org.uk,Malvern,WR13 5NG,West Midlands,yes
116804,884,"Herefordshire, County of",Eardisley CofE Primary School,www.eardisleyschool.co.uk,Hereford,HR3 6NS,West Midlands,yes
116941,884,"Herefordshire, County of",Earl Mortimer College,http://earlmortimer.org.uk/,Leominster,HR6 8JJ,West Midlands,yes
116677,884,"Herefordshire, County of",Garway Primary School,http://www.garwayprimaryschool.co.uk,Hereford,HR2 8RQ,West Midlands,yes
116701,884,"Herefordshire, County of",Kington Primary School,http://www.kingtonprimary.co.uk,Kington,HR5 3AL,West Midlands,yes
116702,884,"Herefordshire, County of",Ledbury Primary School,http://www.ledbury.hereford.sch.uk,Ledbury,HR8 2BE,West Midlands,yes
116705,884,"Herefordshire, County of",Longtown Community Primary School,www.longtown.hereford.sch.uk,Hereford,HR2 0LE,West Midlands,yes
116707,884,"Herefordshire, County of",Luston Primary School,http://www.luston.hereford.sch.uk,Leominster,HR6 0EA,West Midlands,yes
116836,884,"Herefordshire, County of",Orleton CofE Primary School,http://www.orleton.hereford.sch.uk,Ludlow,SY8 4HQ,West Midlands,yes
116906,884,"Herefordshire, County of",Pembridge CofE Primary School,www.pembridgeprimary.org.uk,Leominster,HR6 9EA,West Midlands,yes
116907,884,"Herefordshire, County of",Pencombe CofE Primary School,pencombe.hmfa.org.uk,Bromyard,HR7 4SH,West Midlands,yes
116718,884,"Herefordshire, County of",Peterchurch Primary School,www.peterchurch.hereford.sch.uk,Hereford,HR2 0RP,West Midlands,yes
116734,884,"Herefordshire, County of",Shobdon Primary School,www.lustonshobdonfederation.org.uk,Leominster,HR6 9LX,West Midlands,yes
116911,884,"Herefordshire, County of",St Joseph's RC Primary School,www.st-josephs.hereford.sch.uk/,Ross-on-Wye,HR9 5AW,West Midlands,yes
116880,884,"Herefordshire, County of",St Mary's CofE Primary School,https://www.stmarys.hereford.sch.uk/,Hereford,HR1 4PG,West Midlands,yes
116992,884,"Herefordshire, County of",St Mary's RC High School,http://www.st-maryshigh.hereford.sch.uk,Hereford,HR1 4DR,West Midlands,yes
116913,884,"Herefordshire, County of",Staunton-on-Wye Endowed Primary School,www.stauntonprimary.uk,Hereford,HR4 7LT,West Midlands,yes
116991,884,"Herefordshire, County of",The Bishop of Hereford's Bluecoat School,http://www.bhbs.hereford.sch.uk,Hereford,HR1 1UU,West Midlands,yes
116743,884,"Herefordshire, County of",Walford Nursery & Primary School,http://www.walfordprimaryschool.co.uk,Ross-on-Wye,HR9 5SA,West Midlands,yes
116952,884,"Herefordshire, County of",Weobley High School,http://www.weobleyhigh.co.uk,Hereford,HR4 8ST,West Midlands,yes
117055,884,"Herefordshire, County of",Westfield School,http://www.westfield.hereford.sch.uk,Leominster,HR6 8NZ,West Midlands,yes
116748,884,"Herefordshire, County of",Withington Primary School,www.withington.hereford.sch.uk/,Hereford,HR1 3QE,West Midlands,yes
