urn,district_code,district_name,school_name,website,town,postcode,region,has_email_collected
116780,885,Worcestershire,Abberley Parochial VC Primary School,www.abberley.worcs.sch.uk/,Abberley,WR6 6AA,West Midlands,no
142541,885,Worcestershire,Abbeywood First School,www.abbeywood.worcs.sch.uk,Redditch,B98 9LR,West Midlands,no
143507,885,Worcestershire,Alvechurch CofE Middle School,http://www.alvechurchmiddle.co.uk/,Birmingham,B48 7TA,West Midlands,no
138505,885,Worcestershire,Arrow Vale High School,https://www.arrowvaleschool.org.uk/,Redditch,B98 0GF,West Midlands,no
148140,885,Worcestershire,Arrow Valley First School,www.arrowvalleyfirstschool.co.uk,Redditch,B98 0LH,West Midlands,no
140258,885,Worcestershire,Astwood Bank Primary School,http://www.astwoodbank.worcs.sch.uk,Redditch,B96 6EH,West Midlands,no
145000,885,Worcestershire,Badsey First School,www.badseyfirstschool.org.uk,Evesham,WR11 7ES,West Midlands,no
144367,885,Worcestershire,Baxter College,www.baxtercollege.co.uk,Kidderminster,DY11 5PQ,West Midlands,no
116781,885,Worcestershire,Bayton CofE Primary School,www.baytonprimaryschool.co.uk,Near Kidderminster,DY14 9LG,West Midlands,no
116768,885,Worcestershire,Beaconside Primary and Nursery School,www.beaconside.co.uk/,Birmingham,B45 9DX,West Midlands,no
140932,885,Worcestershire,Bengeworth CE Academy,www.bengeworthacademy.co.uk/,Evesham,WR11 3EU,West Midlands,no
116652,885,Worcestershire,Beoley First School,https://beoley.worcs.sch.uk,Redditch,B98 9AN,West Midlands,no
135076,885,Worcestershire,Bewdley Primary School,www.bewdleyprimary.co.uk/,Bewdley,DY12 1BL,West Midlands,no
144650,885,Worcestershire,Birchen Coppice Academy,https://www.birchencoppiceacademy.org.uk/worcs/primary/birchencoppice,Kidderminster,DY11 7JJ,West Midlands,no
146699,885,Worcestershire,Birchensale Middle School,http://www.birchensale.worcs.sch.uk,Redditch,B97 6HT,West Midlands,no
138107,885,Worcestershire,Bishop Perowne CofE College,https://www.bishopperowne.co.uk/,Worcester,WR3 8LE,West Midlands,no
150677,885,Worcestershire,Blackwell First School,www.blackwellfirstschool.com/,Bromsgrove,B60 1BN,West Midlands,no
116784,885,Worcestershire,Blakedown CofE Primary School,http://www.blakedowncofeprimary.co.uk,Kidderminster,DY10 3JN,West Midlands,no
116999,885,Worcestershire,Blessed Edward Oldcorne Catholic College,http://www.blessededward.co.uk,Worcester,WR5 2XD,West Midlands,no
116868,885,Worcestershire,Bredon Hancock's Endowed CofE First School,http://www.bredonhancocks-worcs.co.uk/,Tewkesbury,GL20 7LA,West Midlands,no
143395,885,Worcestershire,Bredon Hill Academy,http://www.bredon.worcs.sch.uk/,Evesham,WR11 7SW,West Midlands,no
145001,885,Worcestershire,Bretforton Village School,www.bretfortonvillageschool.co.uk,Evesham,WR11 7JS,West Midlands,no
147497,885,Worcestershire,Broadheath CofE Primary School,https://www.broadheath.worcs.sch.uk/,Worcester,WR2 6QT,West Midlands,no
116870,885,Worcestershire,Broadwas CofE Aided Primary School,www.broadwas.worcs.sch.uk,Worcester,WR6 5NE,West Midlands,no
146433,885,Worcestershire,Burlish Park Primary School,www.burlishpark.co.uk,Stourport-on-Severn,DY13 8LA,West Midlands,no
147498,885,Worcestershire,Callow End CofE Primary School,www.callowend.worcs.sch.uk,Worcester,WR2 4TE,West Midlands,no
143416,885,Worcestershire,Carnforth School,www.carnforthschool.org,Worcester,WR4 9HG,West Midlands,no
145837,885,Worcestershire,Castlemorton Church of England Primary School,www.castlemortonprimaryschool.co.uk,Malvern,WR13 6BG,West Midlands,no
150048,885,Worcestershire,Catshill First School,www.catshillfirst.co.uk,Bromsgrove,B61 0JP,West Midlands,no
150518,885,Worcestershire,Catshill Middle School,www.catshill-middle.worcs.sch.uk,Bromsgrove,B61 0JW,West Midlands,no
135046,885,Worcestershire,Chaddesley Corbett Endowed Primary School,www.ccschool.co.uk/,Kidderminster,DY10 4QN,West Midlands,no
150394,885,Worcestershire,Charford First School,www.charford.worcs.sch.uk/,Bromsgrove,B60 3NH,West Midlands,no
116672,885,Worcestershire,Chawson First School,www.chawson.worcs.sch.uk/,Droitwich,WR9 8BW,West Midlands,no
148183,885,Worcestershire,Cherry Orchard Primary School,www.cherryorchard-pri.worcs.sch.uk/,Worcester,WR5 2DD,West Midlands,no
136890,885,Worcestershire,Christopher Whitehead Language College,http://www.christopherwhitehead.co.uk,Worcester,WR2 4AF,West Midlands,no
142543,885,Worcestershire,Church Hill Middle School,http://www.churchhill.worcs.sch.uk,Redditch,B98 9LR,West Midlands,no
116796,885,Worcestershire,Clent Parochial Primary School,www.clentprimaryschool.co.uk/,Clent,DY9 9QP,West Midlands,no
135047,885,Worcestershire,Comberton Primary School,www.combertonprimary.com/,KIDDERMINSTER,DY10 3ED,West Midlands,no
139648,885,Worcestershire,Continu Plus Academy,http://continuplus.org.uk/,Kidderminster,DY11 7FB,West Midlands,no
135048,885,Worcestershire,Cookley Sebright Primary School,www.cookleysebright.co.uk,Kidderminster,DY10 3TA,West Midlands,no
137697,885,Worcestershire,Coppice Primary School,http://www.coppice.worcs.sch.uk/,Birmingham,B47 5JN,West Midlands,no
139825,885,Worcestershire,Crabbs Cross Academy,www.crabbscross.worcs.sch.uk/,Redditch,B97 5JH,West Midlands,no
143394,885,Worcestershire,Cranham Primary School,www.cranham.worcs.sch.uk,Worcester,WR4 9LS,West Midlands,no
116800,885,Worcestershire,Cropthorne-with-Charlton CofE First School,www.cropthorneschool.org/,Pershore,WR10 3NB,West Midlands,no
144335,885,Worcestershire,Crowle CofE First School,www.crowle.worcs.sch.uk,Worcester,WR7 4AT,West Midlands,no
141412,885,Worcestershire,Cutnall Green CofE Primary School,www.cutnallgreenprimary.co.uk,Droitwich,WR9 0PH,West Midlands,no
116802,885,Worcestershire,Defford-Cum-Besford CofE School,www.deffordschool.co.uk,Worcester,WR8 9BH,West Midlands,no
136927,885,Worcestershire,Droitwich Spa High School and Sixth Form Centre,www.droitwichspahigh.worcs.sch.uk,Droitwich Spa,WR9 0AA,West Midlands,no
137186,885,Worcestershire,Dyson Perrins CofE Academy,http://www.dysonperrins.worcs.sch.uk/,Malvern,WR14 1WD,West Midlands,no
116806,885,Worcestershire,Eckington CofE First School,www.eckingtonfirstschool.co.uk,Pershore,WR10 3AU,West Midlands,no
116807,885,Worcestershire,Eldersfield Lawn CofE Primary School,http://www.eldersfieldlawn.worcs.sch.uk,GLOUCESTER,GL19 4LZ,West Midlands,no
116808,885,Worcestershire,Elmley Castle CofE First School,www.elmleycastle.worcs.sch.uk/,Pershore,WR10 3HS,West Midlands,no
132104,885,Worcestershire,Evesham Nursery School,https://eveshamnurseryschool.co.uk,Evesham,WR11 1BN,West Midlands,no
149304,885,Worcestershire,Far Forest Lea Memorial CofE Primary School,http://www.farforestlea.worcs.sch.uk/,Kidderminster,DY14 9TQ,West Midlands,no
148115,885,Worcestershire,Feckenham CofE Primary School,www.feckenhamceprimary.co.uk,Redditch,B96 6QD,West Midlands,no
116660,885,Worcestershire,Finstall First School,www.finstallfirst.co.uk/,Bromsgrove,B60 2HS,West Midlands,no
116879,885,Worcestershire,Fladbury CofE First School,www.fladbury.worcs.sch.uk,Pershore,WR10 2QB,West Midlands,no
145483,885,Worcestershire,Foley Park Primary Academy,www.foleyparkprimaryacademy.org,Kidderminster,DY11 7AW,West Midlands,no
131534,885,Worcestershire,Fort Royal,http://www.fortroyal.co.uk,Worcester,WR5 1DR,West Midlands,no
135050,885,Worcestershire,Franche Primary School,https://www.francheprimary.co.uk/,Kidderminster,DY11 5QB,West Midlands,no
136984,885,Worcestershire,Great Malvern Primary School,http://www.greatmalvernprimary.com/,Malvern,WR14 2BY,West Midlands,no
142706,885,Worcestershire,Great Witley CofE Primary School,www.greatwitley.worcs.sch.uk/,Worcester,WR6 6HR,West Midlands,no
116815,885,Worcestershire,Grimley and Holt CofE Primary School,www.grimleyholt.co.uk,Worcester,WR2 6LU,West Midlands,no
135067,885,Worcestershire,Grove Primary School,www.groveprimaryschoolmalvern.co.uk,Malvern,WR14 2LU,West Midlands,no
141414,885,Worcestershire,Hagley Catholic High School,http://www.hagleyrc.worcs.sch.uk,Hagley,DY8 2XL,West Midlands,no
116816,885,Worcestershire,Hanbury CofE First School,www.hanbury.eschools.co.uk,Bromsgrove,B60 4BS,West Midlands,no
137101,885,Worcestershire,Hanley Castle High School,http://www.hanleycastle.worcs.sch.uk/,Worcester,WR8 0BL,West Midlands,no
144262,885,Worcestershire,Hanley Swan St Gabriel's with St Mary's CofE Primary School,http://www.hanleyswanprimaryschool.co.uk,Hanley Swan,WR8 0EQ,West Midlands,no
144261,885,Worcestershire,Hartlebury CofE Primary School,www.hartlebury.worcs.sch.uk,Kidderminster,DY11 7TD,West Midlands,no
116819,885,Worcestershire,Harvington CofE First School,www.harvingtonfirstschool.co.uk,Evesham,WR11 8NQ,West Midlands,no
136898,885,Worcestershire,Haybridge High School and Sixth Form,http://www.haybridge.worcs.sch.uk,Stourbridge,DY8 2XS,West Midlands,no
141246,885,Worcestershire,Heronswood Primary School,www.heronswoodprimaryschool.co.uk/,Kidderminster,DY10 4EX,West Midlands,no
116821,885,Worcestershire,Himbleton CofE Primary School and Nursery,www.himbleton.worcs.sch.uk,Droitwich,WR9 7LE,West Midlands,no
116822,885,Worcestershire,Hindlip CofE First School,,Worcester,WR3 8RJ,West Midlands,no
140933,885,Worcestershire,Hollymount School,www.hollymountschool.org,Worcester,WR4 9SG,West Midlands,no
116908,885,Worcestershire,Holy Redeemer Catholic Primary School,http://holyredeemerschoolpershore.org/,Pershore,WR10 1EB,West Midlands,no
141105,885,Worcestershire,Holy Trinity School,http://www.holytrinity.co.uk/,Kidderminster,DY10 2BY,West Midlands,no
146719,885,Worcestershire,Holyoakes Field First School,www.holyoakes.worcs.sch.uk/,Redditch,B97 6HF,West Midlands,no
150630,885,Worcestershire,Holywell Primary and Nursery School,,Birmingham,B45 9EY,West Midlands,no
139749,885,Worcestershire,Honeybourne Primary Academy,www.honeybourneprimary.org,Evesham,WR11 7PJ,West Midlands,no
146667,885,Worcestershire,Honeywell Primary School,www.honeywellprimary.org.uk,Worcester,WR2 5QH,West Midlands,no
144859,885,Worcestershire,Inkberrow Primary School,www.inkberrowprimary.worcs.sch.uk,Worcester,WR7 4HH,West Midlands,no
139020,885,Worcestershire,Ipsley CofE Middle School,http://www.ipsleyschool.org.uk,Redditch,B98 0UB,West Midlands,no
144256,885,Worcestershire,Kempsey Primary School,http://www.kempseyprimary.net,Worcester,WR5 3NT,West Midlands,no
138032,885,Worcestershire,King Charles I School,http://www.kingcharlesschool.co.uk/,Kidderminster,DY10 1XA,West Midlands,no
140404,885,Worcestershire,Kingfisher School,www.kingfisherschool.co.uk,Redditch,B98 0HF,West Midlands,no
149515,885,Worcestershire,Leigh and Bransford Primary School,http://www.leighbransford.worcs.sch.uk,Malvern,WR13 5DX,West Midlands,no
116773,885,Worcestershire,Lickey Hills Primary School and Nursery,www.lickeyhills.worcs.sch.uk,Birmingham,B45 8EU,West Midlands,no
137825,885,Worcestershire,Lickhill Primary School,www.lickhillprimaryschool.co.uk,Stourport-on-Severn,DY13 8UA,West Midlands,no
144259,885,Worcestershire,Madresfield CofE Primary School,www.madresfieldschool.net,Malvern,WR13 5AA,West Midlands,no
144258,885,Worcestershire,Malvern Parish CofE Primary School,www.malvernparish.co.uk,Malvern,WR14 3BB,West Midlands,no
147499,885,Worcestershire,Martley CofE Primary School,www.martleyceprimaryschool.co.uk,Worcester,WR6 6QA,West Midlands,no
140309,885,Worcestershire,Matchborough First School Academy,www.matchborough.worcs.sch.uk,Redditch,B98 0GD,West Midlands,no
116663,885,Worcestershire,Millfields First School,www.millfieldsfirstschool.co.uk,Bromsgrove,B61 7BS,West Midlands,no
148348,885,Worcestershire,Newbridge School,https://newbridgeschool.org/,Worcester,WR5 1DS,West Midlands,no
149682,885,Worcestershire,North Bromsgrove High School,http://www.northbromsgrove.worcs.sch.uk,Bromsgrove,B60 1BA,West Midlands,no
147190,885,Worcestershire,North Worcester Primary School,www.northworcesterprimary.co.uk,Worcester,WR3 7NS,West Midlands,no
147284,885,Worcestershire,Northleigh CofE Primary School,https://www.northleighprimary.co.uk/,Malvern,WR14 1QS,West Midlands,no
143396,885,Worcestershire,Northwick Manor Primary School,www.northwickmanorprimary.co.uk,Worcester,WR3 7EA,West Midlands,no
144586,885,Worcestershire,Norton Juxta Kempsey CofE Primary School,http://www.nortonprimary.worcs.sch.uk,Worcester,WR5 2QJ,West Midlands,no
137051,885,Worcestershire,Nunnery Wood High School,http://www.nunnerywood.worcs.sch.uk,Worcester,WR5 2LT,West Midlands,no
145836,885,Worcestershire,Nunnery Wood Primary School,www.nunnerywoodprimary.co.uk/,Worcester,WR5 1QE,West Midlands,no
150403,885,Worcestershire,Oak Hill First School,https://www.oakhillfirstschool.org.uk/,Redditch,B98 7JU,West Midlands,no
140041,885,Worcestershire,Oasis Academy Warndon,www.oasisacademywarndon.org,Worcester,WR4 9PE,West Midlands,no
143814,885,Worcestershire,Offenham Church of England First School,http://www.offenham.worcs.sch.uk,Evesham,WR11 8SD,West Midlands,no
135052,885,Worcestershire,Offmore Primary School,www.offmoreprimary.co.uk,KIDDERMINSTER,DY10 3HA,West Midlands,no
147550,885,Worcestershire,Oldbury Park Primary School,www.oldburypark.worcs.sch.uk,Worcester,WR2 6AA,West Midlands,no
144457,885,Worcestershire,Orchard Primary School,http://www.orchardprimary.org.uk,Pershore,WR10 1ET,West Midlands,no
151074,885,Worcestershire,Our Lady Queen of Peace Catholic Primary,www.ourlady.worcs.sch.uk,Worcester,WR2 4EN,West Midlands,no
141058,885,Worcestershire,Our Lady of Mount Carmel Catholic First School,www.mountcarmelfirstschool.co.uk,Redditch,B97 5RR,West Midlands,no
116837,885,Worcestershire,Overbury CofE First School,www.overbury.worcs.sch.uk/,Tewkesbury,GL20 7NT,West Midlands,no
116715,885,Worcestershire,Pebworth First School,www.pebworthfirst.worcs.sch.uk,Stratford-upon-Avon,CV37 8XA,West Midlands,no
139001,885,Worcestershire,Perry Wood Primary and Nursery School,www.perrywoodprimary.gst.org,Worcester,WR5 1PP,West Midlands,no
130984,885,Worcestershire,Perryfields Primary Pupil Referral Unit,www.perryfieldsprimarypru.com,Worcester,WR2 5AX,West Midlands,no
136925,885,Worcestershire,Pershore High School,http://www.pershore.worcs.sch.uk,Pershore,WR10 2BX,West Midlands,no
144260,885,Worcestershire,Pinvin CofE Academy,www.pinvinschool.co.uk,Pershore,WR10 2ER,West Midlands,no
149091,885,Worcestershire,Pitcheroak School,https://pitcheroakschool.co.uk/,Redditch,B97 6PQ,West Midlands,no
145838,885,Worcestershire,Powick CofE Primary School,http://www.powick.worcs.sch.uk/,Worcester,WR2 4RT,West Midlands,no
136469,885,Worcestershire,Prince Henry's High School,http://www.princehenrys.worcs.sch.uk,Evesham,WR11 4QH,West Midlands,no
116859,885,Worcestershire,Red Hill CofE Primary School,http://www.redhillprimaryschool.co.uk/,Worcester,WR5 2HX,West Midlands,no
140261,885,Worcestershire,Regency High School,www.regency.worcs.sch.uk,Worcester,WR4 9JL,West Midlands,no
149437,885,Worcestershire,Ridgeway Secondary School,,Redditch,B96 6BD,West Midlands,no
140397,885,Worcestershire,Riversides School,www.riversideschool.co.uk,Worcester,WR1 3HZ,West Midlands,no
149476,885,Worcestershire,Rushwick CofE Primary School,www.rushwick.worcs.sch.uk,Worcester,WR2 5SU,West Midlands,no
116848,885,Worcestershire,Sedgeberrow CofE First School,,Evesham,WR11 7UF,West Midlands,no
137292,885,Worcestershire,Somers Park Primary School,http://www.somersparkschool.org.uk,Malvern,WR14 1SE,West Midlands,no
140292,885,Worcestershire,South Bromsgrove High,http://www.southbromsgrove.worcs.sch.uk/,Bromsgrove,B60 3NL,West Midlands,no
141413,885,Worcestershire,St Ambrose Catholic Primary,st-ambrose.sch.life,Kidderminster,DY10 1RP,West Midlands,no
116811,885,Worcestershire,St Andrew's CofE School and Nursery,www.st-andrews.worcs.sch.uk/,Evesham,WR11 2QN,West Midlands,no
135036,885,Worcestershire,St Anne's CofE VC Primary School,www.stannesprimary.worcs.sch.uk,Bewdley,DY12 2UQ,West Midlands,no
141063,885,Worcestershire,St Augustine's Catholic High School,http://www.sta.magnificat.org.uk,Redditch,B97 5LX,West Midlands,no
144334,885,Worcestershire,St Barnabas CofE First and Middle School,www.st-barnabas.dowmat.education,Pershore,WR10 2AW,West Midlands,no
143833,885,Worcestershire,St Bartholomew's CofE VC Primary School,www.st-bartholomews.worcs.sch.uk,Stourport-on-Severn,DY13 0EL,West Midlands,no
141064,885,Worcestershire,St Bede's Catholic Middle School,http://www.st-bedes.worcs.sch.uk,Redditch,B98 7HA,West Midlands,no
135051,885,Worcestershire,St Catherine's CofE (VC) Primary School,www.stcatherineskidderminster.co.uk/,Kidderminster,DY11 5HP,West Midlands,no
141443,885,Worcestershire,St Clement's CofE Primary,http://www.stclements-worcs.co.uk,Worcester,WR2 5NS,West Midlands,no
151075,885,Worcestershire,St George's Catholic Primary School,http://www.st-georgescatholic.co.uk/,Worcester,WR1 3JY,West Midlands,no
146754,885,Worcestershire,St George's CofE First School and Nursery,http://www.stgeorges.worcs.sch.uk/,Redditch,B98 8LU,West Midlands,no
144998,885,Worcestershire,St George's CofE School,www.stgprimary.org,Kidderminster,DY10 2BX,West Midlands,no
139286,885,Worcestershire,St John's Church of England Middle School Academy,www.st-johns-bromsgrove.worcs.sch.uk,Bromsgrove,B61 7DH,West Midlands,no
144999,885,Worcestershire,St John's CofE Primary School,www.stjohns.worcs.sch.uk,Kidderminster,DY11 6AP,West Midlands,no
116901,885,Worcestershire,St Joseph's Catholic Primary School,www.stjoesmalvern.co.uk,Malvern,WR14 1PF,West Midlands,no
151072,885,Worcestershire,St Joseph's Catholic Primary School,http://www.stjosephsdroitwich.co.uk,Droitwich,WR9 0RY,West Midlands,no
151076,885,Worcestershire,St Joseph's Catholic Primary School,www.stjosephsworcester.co.uk,Worcester,WR4 9PG,West Midlands,no
150742,885,Worcestershire,St Luke's CofE First School,,Redditch,B97 4NU,West Midlands,no
143636,885,Worcestershire,St Mary's Catholic Primary School,www.stmarysrc.worcs.sch.uk/,Evesham,WR11 4EJ,West Midlands,no
143638,885,Worcestershire,St Mary's Catholic Primary School,www.smb.magnificat.org.uk,Broadway,WR12 7DZ,West Midlands,no
135057,885,Worcestershire,St Mary's CofE (VA) Primary School,www.stmaryscevaprimary.co.uk,Kidderminster,DY10 2LX,West Midlands,no
147903,885,Worcestershire,St Matthias Church of England Primary School,www.stmatthiasceprimary.co.uk,Malvern Link,WR14 1NA,West Midlands,no
144456,885,Worcestershire,St Oswald's CofE Primary School,www.stoswalds.worcs.sch.uk/,Kidderminster,DY10 2YL,West Midlands,no
141066,885,Worcestershire,St Peter's Catholic First School,www.stp.magnificat.org.uk,Bromsgrove,B61 7LH,West Midlands,no
143397,885,Worcestershire,St Peter's Droitwich CofE Academy,www.stpetersdroitwichcofe.co.uk,Droitwich Spa,WR9 7AN,West Midlands,no
116810,885,Worcestershire,St Richard's CofE First School,www.st-richards.worcs.sch.uk/,Evesham,WR11 1DU,West Midlands,no
147165,885,Worcestershire,St Stephen's CofE First School,,Redditch,B98 8HW,West Midlands,no
147714,885,Worcestershire,St Thomas More Catholic First School,www.stm.magnificat.org.uk,Redditch,B98 7RY,West Midlands,no
141444,885,Worcestershire,St Wulstan's Catholic Primary School,https://stwulstans.sch.life,Stourport-on-Severn,DY13 8UB,West Midlands,no
146452,885,Worcestershire,Stanley Road Primary School,www.stanleyroad.worcs.sch.uk/,Worcester,WR5 1BD,West Midlands,no
116735,885,Worcestershire,Stoke Prior First School,www.stokeprior.worcs.sch.uk/,Bromsgrove,B60 4ND,West Midlands,no
143508,885,Worcestershire,Stourport Primary Academy,https://www.stourportprimary.worcs.sch.uk/,Stourport-on-Severn,DY13 8SH,West Midlands,no
136983,885,Worcestershire,Suckley Primary School,http://www.suckleyschool.co.uk/,Worcester,WR6 5DE,West Midlands,no
146749,885,Worcestershire,Sutton Park Primary School,www.suttonparkschool.org.uk,Kidderminster,DY11 6PH,West Midlands,no
116673,885,Worcestershire,Swan Lane First School,http://www.swanlanefirstschool.worcs.sch.uk,Evesham,WR11 4QA,West Midlands,no
116729,885,Worcestershire,Tenacres First School,www.tenacres.worcs.sch.uk,Redditch,B98 0PB,West Midlands,no
142448,885,Worcestershire,Tenbury CofE Primary School,www.tenburyceprimary.co.uk,Tenbury Wells,WR15 8BS,West Midlands,no
141169,885,Worcestershire,Tenbury High Ormiston Academy,http://www.tenburyhighormistonacademy.co.uk/,Tenbury Wells,WR15 8XA,West Midlands,no
141034,885,Worcestershire,The Aspire Academy,www.theaspireacademy.org.uk,Worcester,WR4 9FQ,West Midlands,no
130987,885,Worcestershire,The Beacon Primary Pupil Referral Unit,,Redditch,B98 7UZ,West Midlands,no
135035,885,Worcestershire,The Bewdley School,www.bewdley.worcs.sch.uk,Bewdley,DY12 1BL,West Midlands,no
136897,885,Worcestershire,The Chantry School,http://www.chantryschool.com,Worcester,WR6 6QA,West Midlands,no
137625,885,Worcestershire,The Chase,http://www.chase.worcs.sch.uk,Malvern,WR14 3NZ,West Midlands,no
148338,885,Worcestershire,The De Montfort School,https://www.tdms.worcs.sch.uk/,Evesham,WR11 1DQ,West Midlands,no
136161,885,Worcestershire,The Forge Secondary Short Stay School,www.theforge.worcs.sch.uk,Redditch,B98 8HF,West Midlands,no
143816,885,Worcestershire,The Littletons Church of England Academy,http://www.thelittletons.worcs.sch.uk,Evesham,WR11 8TL,West Midlands,no
144580,885,Worcestershire,The Lyppard Grange Primary School,https://www.lyppardgrange.worcs.sch.uk/,Worcester,WR4 0DZ,West Midlands,no
148386,885,Worcestershire,The Orchards School,https://www.theorchardsschool.org,Bromsgrove,B61 8QN,West Midlands,no
137162,885,Worcestershire,The Stourport High School and Sixth Form College,http://www.shs.worcs.sch.uk/,Stourport-on-Severn,DY13 8AX,West Midlands,no
137960,885,Worcestershire,The Vaynor First School,www.thevaynor.worcs.sch.uk,Redditch,B97 5BL,West Midlands,no
116851,885,Worcestershire,Tibberton CofE First School,http://www.tibberton.worcs.sch.uk/,,WR9 7NL,West Midlands,no
137167,885,Worcestershire,Trinity High School and Sixth Form Centre,http://www.trinity.worcs.sch.uk,Redditch,B98 8HB,West Midlands,no
140731,885,Worcestershire,Tudor Grange Academy Redditch,www.redditch.tgacademy.org.uk,Redditch,B98 7UH,West Midlands,no
148114,885,Worcestershire,Tudor Grange Primary Academy Perdiswell,https://www.perdiswell.tgacademy.org.uk/,Worcester,WR3 8QA,West Midlands,no
149698,885,Worcestershire,Unity Academy,https://www.unityacademyap.co.uk/,Kidderminster,DY10 2QJ,West Midlands,no
147761,885,Worcestershire,Upper Arley CofE Primary School,www.upperarleycofeschool.org,Bewdley,DY12 1XA,West Midlands,no
116853,885,Worcestershire,Upton-Upon-Severn CofE Primary and Pre School,uptonprimaryschool.education,Worcester,WR8 0LD,West Midlands,no
148347,885,Worcestershire,Vale of Evesham School,https://www.valeofeveshamschool.org/,Evesham,WR11 1BN,West Midlands,no
139185,885,Worcestershire,Walkwood Church of England Middle School,http://www.walkwoodms.worcs.sch.uk,Redditch,B97 5AQ,West Midlands,no
138664,885,Worcestershire,Waseley Hills High School,www.waseleyhills.worcs.sch.uk,Birmingham,B45 9EL,West Midlands,no
138026,885,Worcestershire,Webheath Academy Primary School,www.webheath.worcs.sch.uk,Redditch,B97 5RJ,West Midlands,no
146678,885,Worcestershire,Welland Primary School,https://www.wellandprimaryschool.co.uk/,Malvern,WR13 6NE,West Midlands,no
116778,885,Worcestershire,Westacre Middle School,www.westacre-middle-school.co.uk/,Droitwich,WR9 0AA,West Midlands,no
116671,885,Worcestershire,Westlands First School,www.westlands.worcs.sch.uk,Droitwich,WR9 9EQ,West Midlands,no
144800,885,Worcestershire,Wilden All Saints CofE Primary School,www.wilden.worcs.sch.uk,Stourport-on-Severn,DY13 9LP,West Midlands,no
148329,885,Worcestershire,Witton Middle School,www.witton.worcs.sch.uk,Droitwich Spa,WR9 8BD,West Midlands,no
135061,885,Worcestershire,Wolverley CofE Secondary School,www.wolverley.worcs.sch.uk,Kidderminster,DY11 5XQ,West Midlands,no
146074,885,Worcestershire,Wolverley Sebright Primary Academy,www.wolverleysebright.co.uk,Kidderminster,DY11 5TP,West Midlands,no
138208,885,Worcestershire,Woodfield Academy,http://www.woodfield.worcs.sch.uk,Redditch,B98 7HH,West Midlands,no
116730,885,Worcestershire,Woodrow First School,http://woodrowfirstschool.co.uk,Redditch,B98 7UZ,West Midlands,no
136924,885,Worcestershire,Woodrush High School,http://www.woodrushhigh.worcs.sch.uk/,Wythall,B47 5JW,West Midlands,no
144888,885,Worcestershire,Worcester Sixth Form College,www.wsfc.ac.uk,Worcester,WR5 2LU,West Midlands,no
146027,885,Worcestershire,Wychbold First and Nursery School,www.wychboldschool.co.uk,Droitwich,WR9 7PU,West Midlands,no
135791,885,Worcestershire,Wyre Forest School,https://www.wfs.worcs.sch.uk,Kidderminster,DY11 6FA,West Midlands,no
116716,885,Worcestershire,Abbey Park First and Nursery School,www.abbeypark.worcs.sch.uk,Pershore,WR10 1DF,West Midlands,yes
116774,885,Worcestershire,Abbey Park Middle School,www.abbeyparkmiddle.worcs.sch.uk/,Pershore,WR10 1DF,West Midlands,yes
116650,885,Worcestershire,Ashton-under-Hill First School,www.ashton.worcs.sch.uk,Evesham,WR11 7SW,West Midlands,yes
116864,885,Worcestershire,Astley CofE Primary School,www.astley.worcs.sch.uk/,Stourport-on-Severn,DY13 0RH,West Midlands,yes
116957,885,Worcestershire,Aston Fields Middle School,http://www.astonfields.worcs.sch.uk,Bromsgrove,B60 2ET,West Midlands,yes
116721,885,Worcestershire,Batchley First and Nursery School,www.batchleyfirstschool.co.uk,Redditch,B97 6PD,West Midlands,yes
116782,885,Worcestershire,Belbroughton CofE Primary School,www.belbroughtonprimary.co.uk/,Stourbridge,DY9 9TF,West Midlands,yes
116960,885,Worcestershire,Blackminster Middle School,http://www.blackminster.worcs.sch.uk,Evesham,WR11 8TG,West Midlands,yes
116656,885,Worcestershire,Broadway First School,www.broadway.worcs.sch.uk/,Broadway,WR12 7BD,West Midlands,yes
117062,885,Worcestershire,Chadsgrove School,www.chadsgroveschool.org.uk,Bromsgrove,B61 0JL,West Midlands,yes
116792,885,Worcestershire,Church Lench CofE First School,http://www.churchlench.worcs.sch.uk,Evesham,WR11 4UE,West Midlands,yes
116793,885,Worcestershire,Claines CofE Primary School,www.clainesceprimary.co.uk,Worcester,WR3 7RW,West Midlands,yes
116794,885,Worcestershire,Cleeve Prior CofE (Controlled) Primary School,https://cleevepriorprimaryschool.com/,Evesham,WR11 8LG,West Midlands,yes
116669,885,Worcestershire,Clifton upon Teme Primary School,www.cliftonupontemeprimary.org.uk,Worcester,WR6 6DE,West Midlands,yes
116646,885,Worcestershire,Crown Meadow First School & Nursery,www.crownmeadow.worcs.sch.uk,Birmingham,B48 7TA,West Midlands,yes
116670,885,Worcestershire,Dodford First School,www.dodford.worcs.sch.uk,Bromsgrove,B61 9AW,West Midlands,yes
116675,885,Worcestershire,Fairfield First School,www.fairfield.worcs.sch.uk,Bromsgrove,B61 9LZ,West Midlands,yes
116676,885,Worcestershire,Flyford Flavell Primary School,www.flyfordflavellprimaryschool.com,Worcester,WR7 4BS,West Midlands,yes
116678,885,Worcestershire,Hagley Primary School,www.hagleyprimary.org.uk/,Stourbridge,DY9 0NS,West Midlands,yes
116882,885,Worcestershire,Hallow CofE Primary School,http://www.hallow.worcs.sch.uk,Worcester,WR2 6LD,West Midlands,yes
116661,885,Worcestershire,Lickey End First School,www.lickeyendfirstschool.co.uk/,Bromsgrove,B60 1JG,West Midlands,yes
116895,885,Worcestershire,Lindridge St Lawrence CE Primary School,www.lindridgeschool.com,Tenbury Wells,WR15 8JQ,West Midlands,yes
116902,885,Worcestershire,Malvern Wells CofE Primary School,http://www.malvern-wells.worcs.sch.uk,Malvern Wells,WR14 4HF,West Midlands,yes
116830,885,Worcestershire,Malvern Wyche CofE Primary School,http://www.wyche.worcs.sch.uk,Malvern,WR14 4ET,West Midlands,yes
116763,885,Worcestershire,Meadow Green Primary School,www.meadowgreen.worcs.sch.uk/,Birmingham,B47 6EQ,West Midlands,yes
116662,885,Worcestershire,Meadows First School,https://www.meadowsfirst.co.uk,Bromsgrove,B61 0AH,West Midlands,yes
116765,885,Worcestershire,Moons Moat First School,www.moonsmoat.worcs.sch.uk/,Redditch,B98 9HR,West Midlands,yes
116905,885,Worcestershire,Ombersley Endowed First School,https://ombersley.eschools.co.uk/web,Ombersley,WR9 0DR,West Midlands,yes
116959,885,Worcestershire,Parkside Middle School,http://www.parkside.worcs.sch.uk,Bromsgrove,B61 0AH,West Midlands,yes
116838,885,Worcestershire,Pendock CofE Primary School,www.pendockprimary.co.uk,Gloucester,GL19 3PW,West Midlands,yes
116769,885,Worcestershire,Pitmaston Primary School,http://www.pitmaston.co.uk,Worcester,WR2 4ZF,West Midlands,yes
117049,885,Worcestershire,Rigby Hall Day Special School,www.rigbyhallschool.com,Bromsgrove,B60 2EP,West Midlands,yes
116846,885,Worcestershire,Romsley St Kenelm's CofE Primary School,www.stkenelms.co.uk/,Halesowen,B62 0LF,West Midlands,yes
116865,885,Worcestershire,St Andrew's CofE First School,www.st-andrewscofe.worcs.sch.uk/,Birmingham,B45 8NG,West Midlands,yes
116858,885,Worcestershire,St Barnabas CofE Primary School,https://st-barnabas-primary.worcs.sch.uk/,Worcester,WR3 8NZ,West Midlands,yes
116984,885,Worcestershire,St Egwin's CofE Middle School,http://www.st-egwins.worcs.sch.uk/,Evesham,WR11 4JU,West Midlands,yes
116923,885,Worcestershire,St George's CofE Primary School,www.stgeorgesceprimary.org.uk,Worcester,WR1 1RD,West Midlands,yes
116903,885,Worcestershire,St James' CofE Primary School,https://www.stjames.worcs.sch.uk,Malvern,WR14 4BB,West Midlands,yes
116916,885,Worcestershire,Sytchampton Endowed Primary School,http://www.sytchampton.worcs.sch.uk,Stourport-on-Severn,DY13 9SX,West Midlands,yes
116917,885,Worcestershire,Tardebigge CofE First School,www.tardebigge.worcs.sch.uk,Bromsgrove,B60 3AH,West Midlands,yes
135913,885,Worcestershire,Tudor Grange Academy Worcester,http://www.worcs.tgacademy.org.uk/,Worcester,WR3 8HN,West Midlands,yes
116854,885,Worcestershire,Upton Snodsbury CofE First School,www.uptonsnodsburyfirstschool.org.uk/,Worcester,WR7 4NH,West Midlands,yes
116856,885,Worcestershire,Whittington CofE Primary School,http://www.whittington.worcs.sch.uk,Worcester,WR5 2QZ,West Midlands,yes
