urn,district_code,district_name,school_name,website,town,postcode,region,has_email_collected
138182,887,Medway,All Faiths Children's Academy,www.allfaithschildrensacademy.org.uk,Rochester,ME2 4UF,South East,no
142137,887,Medway,All Saints Church of England Primary School,http://www.allsaints.medway.sch.uk,Chatham,ME4 5JY,South East,no
118329,887,Medway,Balfour Infant School,http://www.balfourinf.medway.sch.uk,Rochester,ME1 2QT,South East,no
143880,887,Medway,Balfour Junior School,www.balfourjuniorschool.org.uk,Chatham,ME4 6QX,South East,no
144423,887,Medway,Barnsole Primary School,www.barnsoleprimary.medway.sch.uk,Gillingham,ME7 2JG,South East,no
144915,887,Medway,Bligh Primary School (Infants),www.blighprimaryschool.co.uk,Rochester,ME2 2XJ,South East,no
144566,887,Medway,Bligh Primary School (Juniors),www.blighprimaryschool.co.uk,Rochester,ME2 2XJ,South East,no
140701,887,Medway,Bradfields Academy,www.bradfieldsacademy.co.uk,Chatham,ME5 0LB,South East,no
136107,887,Medway,Brompton Academy,http://www.bromptonacademy.org.uk,Gillingham,ME7 5HT,South East,no
141467,887,Medway,Brompton-Westbrook Primary School,http://www.bromptonwestbrook.medway.sch.uk,Gillingham,ME7 5DQ,South East,no
131527,887,Medway,Burnt Oak Primary School,www.burntoak.medway.sch.uk/,Gillingham,ME7 1LS,South East,no
142399,887,Medway,Byron Primary School,,Gillingham,ME7 5XX,South East,no
142817,887,Medway,Cedar Children's Academy,www.cedarchildrensacademy.org.uk,Rochester,ME2 2JP,South East,no
137389,887,Medway,Chatham Grammar,http://www.chathamgirlsgrammar.medway.sch.uk/,Chatham,ME5 7EH,South East,no
138328,887,Medway,Chattenden Primary School,http://www.chattenden.medway.sch.uk/,Rochester,ME3 8LF,South East,no
136859,887,Medway,Cliffe Woods Primary School,www.cliffewoods.medway.sch.uk,Rochester,ME3 8UJ,South East,no
118330,887,Medway,Crest Infant School,www.crestinfants.co.uk,Rochester,ME1 2QA,South East,no
141276,887,Medway,Cuxton Community Infant School,www.cuxtonschools.co.uk,Rochester,ME2 1EY,South East,no
141224,887,Medway,Cuxton Community Junior School,www.cuxtonschools.co.uk,Rochester,ME2 1EY,South East,no
142266,887,Medway,Danecourt School,www.danecourtschool.com,Gillingham,ME8 6AA,South East,no
143458,887,Medway,Deanwood Primary School,https://www.deanwood-that.org.uk/,Gillingham,ME8 9TX,South East,no
147769,887,Medway,Delce Academy,www.delceacademy.co.uk,Rochester,ME1 2NJ,South East,no
145926,887,Medway,Elaine Primary School,http://www.elaine.medway.sch.uk/,Rochester,ME2 2YN,South East,no
150465,887,Medway,English Martyrs' Catholic Primary School,http://www.englishmartyrs.medway.sch.uk,Rochester,ME2 4JA,South East,no
134904,887,Medway,Fairview Community Primary School,www.fairviewprimary.co.uk,Gillingham,ME8 0NU,South East,no
145042,887,Medway,Featherby Infant and Nursery School,http://www.featherby-inf.medway.sch.uk,Gillingham,ME8 6PD,South East,no
144969,887,Medway,Featherby Junior School,www.featherby-jun.medway.sch.uk,Gillingham,ME8 6BT,South East,no
136337,887,Medway,Fort Pitt Grammar School,http://www.fortpitt.medway.sch.uk,Chatham,ME4 6TJ,South East,no
140607,887,Medway,"Gordons Children's Academy, Infant",www.gordonchildrensacademy.org.uk,Rochester,ME2 3HQ,South East,no
140606,887,Medway,"Gordons Children's Academy, Junior",https://www.gordonchildrensacademy.org.uk/,Rochester,ME2 3HQ,South East,no
150870,887,Medway,Greenacre School,https://wgsp.org.uk/,Chatham,ME5 0LP,South East,no
118317,887,Medway,Greenvale Primary School,www.greenvale.medway.sch.uk,Chatham,ME4 5UP,South East,no
146872,887,Medway,Halling Primary School,http://www.halling.medway.sch.uk/,Rochester,ME2 1ER,South East,no
118555,887,Medway,Hempstead Infant School,www.hempsteadschoolsfederation.org.uk,Gillingham,ME7 3QG,South East,no
118423,887,Medway,Hempstead Junior School,www.hempsteadjnr.medway.sch.uk/,Gillingham,ME7 3HJ,South East,no
145440,887,Medway,Hilltop Primary School,www.hilltopprimary.co.uk,Rochester,ME2 4QN,South East,no
136594,887,Medway,Holcombe Grammar School,http://www.holcombegrammar.org.uk,Chatham,ME4 6JB,South East,no
143262,887,Medway,Hoo St Werburgh Primary School and the Marlborough,www.hoo-st-werburgh.medway.sch.uk,Rochester,ME3 9BS,South East,no
118477,887,Medway,Horsted Junior School,www.horstedschool.co.uk,Chatham,ME5 9TF,South East,no
141005,887,Medway,INSPIRE Free Special School,http://www.inspireacademy.org.uk/,Chatham,ME5 0LB,South East,no
139927,887,Medway,Kingfisher Community Primary School,www.kingfisher-gst.org,Chatham,ME5 7NX,South East,no
137990,887,Medway,Leigh Academy High Halstow,https://leighacademyhighhalstow.org.uk/,Rochester,ME3 8TF,South East,no
148577,887,Medway,Leigh Academy Rainham,https://leighacademyrainham.org.uk/,Gillingham,ME8 8GS,South East,no
140186,887,Medway,Lordswood School,www.lordswood-gst.org,Chatham,ME5 8NN,South East,no
150218,887,Medway,Luton Primary School,www.lutonprimaryschool.co.uk,Chatham,ME4 5AW,South East,no
149075,887,Medway,Maritime Academy,https://www.maritimeacademy.org.uk/,Rochester,,South East,no
145112,887,Medway,Maundene School,https://www.maundene.medway.sch.uk/,Chatham,ME5 7QB,South East,no
144639,887,Medway,Miers Court Primary School,https://www.mierscourt-that.org.uk/,Rainham,ME8 8JR,South East,no
141199,887,Medway,Napier Community Primary and Nursery Academy,www.napierprimary.org.uk,Gillingham,ME7 4HG,South East,no
140215,887,Medway,New Horizons Children's Academy,http://www.newhorizonschildrensacademy.org.uk,Chatham,ME4 6NR,South East,no
118320,887,Medway,New Road Primary School,http://www.newroad.medway.sch.uk,Chatham,ME4 5QN,South East,no
148117,887,Medway,Oaklands School,http://www.oaklands.medway.sch.uk,Chatham,ME5 0QS,South East,no
140040,887,Medway,Oasis Academy Skinner Street,www.oasisacademyskinnerstreet.org/,Gillingham,ME7 1LG,South East,no
151419,887,Medway,Parkwood Primary School,www.parkwoodprimary.org.uk,Gillingham,ME8 9LP,South East,no
141553,887,Medway,Peninsula East Primary Academy,www.pepa.org.uk,Rochester,ME3 9HR,South East,no
138510,887,Medway,Phoenix Primary School,www.phoenixprimary.com,Chatham,ME4 5QD,South East,no
136864,887,Medway,Rainham Mark Grammar School,http://rainhammark.com/,Gillingham,ME8 7AJ,South East,no
136456,887,Medway,Rainham School for Girls,http://www.rainhamgirls-tkat.org/,Gillingham,ME8 0BX,South East,no
142555,887,Medway,Rivermead School,www.rivermead.org.uk,Gillingham,ME7 1UG,South East,no
144135,887,Medway,Riverside Primary School,www.riverside.medway.sch.uk/,Gillingham,ME8 8ET,South East,no
149069,887,Medway,Rochester Riverside Church of England Primary School,rrcoe.medway.sch.uk,Rochester,ME1 1US,South East,no
139928,887,Medway,Saxon Way Primary School,http://www.saxonway-gst.org/,Gillingham,ME7 1SJ,South East,no
136662,887,Medway,Sir Joseph Williamson's Mathematical School,http://www.sjwms.org.uk,Rochester,ME1 3EL,South East,no
149979,887,Medway,St Benedict's Catholic Primary School,www.st-benedicts.medway.sch.uk/,Chatham,ME5 8PU,South East,no
138974,887,Medway,St James Church of England Primary Academy,http://www.stjamesisleofgrain.org.uk,Rochester,ME3 0BS,South East,no
118908,887,Medway,St John Fisher Catholic Comprehensive School,http://www.stjohnfisher.school,Rochester,ME1 2FA,South East,no
142157,887,Medway,St John's Church of England Infant School,https://www.stjohns.medway.sch.uk/,Chatham,ME4 6RH,South East,no
142160,887,Medway,St Margaret's Church of England Junior School,http://www.stmargaretsonline.net,Gillingham,ME8 9AE,South East,no
144133,887,Medway,St Margaret's Infant School,http://www.stmargaretsinf.medway.sch.uk,Gillingham,ME8 9AE,South East,no
144914,887,Medway,St Margaret's at Troy Town CofE Voluntary Controlled Primary School,http://www.stmargaretsattroytown.co.uk,Rochester,ME1 1YF,South East,no
151494,887,Medway,St Michael Catholic Primary and Nursery School,www.stmichaelsrcp.org,Chatham,ME4 6PX,South East,no
118643,887,Medway,St Nicholas CEVC Primary School,http://www.st-nicholas.medway.sch.uk,Rochester,ME2 3HU,South East,no
118576,887,Medway,St Peter's Infant School,http://www.stpetersinfants.co.uk/,Rochester,ME1 2HU,South East,no
150466,887,Medway,St Thomas of Canterbury RC Primary School,www.stthomascanterbury.org.uk/,Gillingham,ME8 6JH,South East,no
118509,887,Medway,Swingate Primary School,www.swingate.medway.sch.uk/,Chatham,ME5 8TJ,South East,no
142394,887,Medway,Temple Mill Primary School,https://www.templemill-that.org.uk/,Rochester,ME2 3NL,South East,no
144132,887,Medway,Thames View Primary School,https://www.thamesview-that.org.uk/,Gillingham,ME8 7DX,South East,no
139493,887,Medway,The Academy of Woodlands,www.theacademyofwoodlands.co.uk,Gillingham,ME7 2DU,South East,no
141466,887,Medway,The Howard School,https://www.thehoward-that.org.uk/,Gillingham,ME8 0BX,South East,no
137119,887,Medway,The Hundred of Hoo Academy,https://www.hundredofhooacademy.org.uk/,Rochester,ME3 9HH,South East,no
143832,887,Medway,The Pilgrim School (A Church of England Primary With Nursery),www.thepilgrimschool.co.uk,Rochester,ME1 3LF,South East,no
138511,887,Medway,The Robert Napier School,http://www.robertnapier.org.uk/,Gillingham,ME7 2LX,South East,no
136313,887,Medway,The Rochester Grammar School,http://www.rochestergrammar.org.uk,Rochester,ME1 3BY,South East,no
144134,887,Medway,The Rowans,www.therowans.org,Chatham,ME5 0LB,South East,no
137376,887,Medway,The Thomas Aveling School,http://www.thomasaveling.co.uk,Rochester,ME1 2UW,South East,no
136108,887,Medway,The Victory Academy,http://www.thevictoryacademy.org.uk/,Chatham,ME4 5JB,South East,no
142393,887,Medway,Twydall Primary School and Nursery,www.twydallprimary.org.uk,Gillingham,ME8 6JS,South East,no
147446,887,Medway,Wainscott Primary School,www.wainscott.medway.sch.uk,Rochester,ME2 4JX,South East,no
143261,887,Medway,Walderslade Primary School,www.walderslade-pri.medway.sch.uk/,Chatham,ME5 8BJ,South East,no
150869,887,Medway,Walderslade School,https://wgsp.org.uk/,Chatham,ME5 0LE,South East,no
140989,887,Medway,Warren Wood Primary School,www.warrenwoodprimary.co.uk,Rochester,ME1 2UR,South East,no
146648,887,Medway,Waterfront UTC,www.waterfront-that.org.uk,Chatham,ME4 4FQ,South East,no
143909,887,Medway,Wayfield Primary School,www.wayfield.medway.sch.uk,Chatham,ME5 0HH,South East,no
149009,887,Medway,Will Adams Academy,www.willadamsacademy.org.uk,Gillingham,ME7 2BX,South East,no
119052,887,Medway,Abbey Court Foundation Special School,http://www.abbeycourt.medway.sch.uk,Rochester,ME2 3SP,South East,yes
118442,887,Medway,Horsted Infant School,www.horstedschool.co.uk/,Chatham,ME5 9TF,South East,yes
118779,887,Medway,St Augustine of Canterbury Catholic Primary School,www.staccp.org.uk/,Gillingham,ME8 9NP,South East,yes
118641,887,Medway,"St Helen's Church of England Primary School, Cliffe",www.sthelens.medway.sch.uk/,Rochester,ME3 7PU,South East,yes
118782,887,Medway,St Mary's Catholic Primary School,www.stmarysrcp.medway.sch.uk/,Gillingham,ME7 1YH,South East,yes
132056,887,Medway,St Mary's Island Church of England (Aided) Primary School,http://www.st-marys-island-cofe-primary-school.co.uk,Chatham,ME4 3ST,South East,yes
118769,887,Medway,St Thomas More Roman Catholic Primary School,www.st-thomasmore.medway.sch.uk/,Chatham,ME5 0NF,South East,yes
118775,887,Medway,St William of Perth Roman Catholic Primary School,www.stwilliamofperth.org.uk/,Rochester,ME1 3EN,South East,yes
135964,887,Medway,Strood Academy,http://www.stroodacademy.org.uk,Rochester,ME2 2SX,South East,yes
