urn,district_code,district_name,school_name,website,town,postcode,region,has_email_collected
145506,892,Nottingham,Ambleside Primary School,www.ambleside.raleightrust.org,Nottingham,NG8 5PN,East Midlands,no
139429,892,Nottingham,Berridge Primary and Nursery School,http://www.berridgeprimary.com/,Nottingham,NG7 5LE,East Midlands,no
147285,892,Nottingham,Bilborough College,,Nottingham,NG8 4DQ,East Midlands,no
137425,892,Nottingham,Blessed Robert Widmerpool Catholic Primary and Nursery School,brwacademy.com,Nottingham,NG11 9BH,East Midlands,no
140231,892,Nottingham,Blue Bell Hill Primary and Nursery School,www.bluebellhill.org.uk,Nottingham,NG3 2LE,East Midlands,no
137798,892,Nottingham,Bluecoat Aspley Academy,www.bluecoataspley.co.uk,Nottingham,NG8 5GY,East Midlands,no
140369,892,Nottingham,Bluecoat Beechdale Academy,www.bluecoatbeechdale.co.uk,Nottingham,NG8 3GP,East Midlands,no
150033,892,Nottingham,Bluecoat Bentinck Primary Academy,,Nottingham,NG7 4AA,East Midlands,no
145145,892,Nottingham,Bluecoat Primary Academy,http://bluecoatprimaryacademy.co.uk/,Nottingham,NG8 3BB,East Midlands,no
148548,892,Nottingham,Bluecoat Trent Academy,https://www.bluecoattrent.co.uk/,Nottingham,NG5 1AJ,East Midlands,no
145146,892,Nottingham,Bluecoat Wollaton Academy,http://www.bluecoatwollaton.co.uk/,Nottingham,NG8 1EA,East Midlands,no
141397,892,Nottingham,Brocklewood Primary and Nursery School,www.brocklewoodprimaryschool.co.uk,Nottingham,NG8 3AL,East Midlands,no
143015,892,Nottingham,Bulwell St Mary's Primary and Nursery School,www.bulwellstmarys.co.uk,Nottingham,NG6 8GQ,East Midlands,no
143060,892,Nottingham,Burford Primary and Nursery School,www.burfordprimaryandnursery.co.uk,Nottingham,NG5 6FX,East Midlands,no
145581,892,Nottingham,CP Riverside School,www.cpriverside.co.uk,Nottingham,NG2 1DP,East Midlands,no
151545,892,Nottingham,Cantrell Primary and Nursery School,,Nottingham,NG6 9HJ,East Midlands,no
122702,892,Nottingham,Claremont Primary and Nursery School,www.claremontnottingham.co.uk,Nottingham,NG5 1BH,East Midlands,no
122476,892,Nottingham,Crabtree Farm Primary School,www.crabtreefarmprimary.com/,Nottingham,NG6 8AX,East Midlands,no
144022,892,Nottingham,Denewood Academy,https://denewood.raleightrust.org/,Nottingham,NG7 4ES,East Midlands,no
134253,892,Nottingham,Djanogly City Academy,http://www.djanogly.notts.sch.uk,Nottingham,NG7 6ND,East Midlands,no
137182,892,Nottingham,Djanogly Northgate Academy,www.northgateacademy.co.uk/,Nottingham,NG7 7GB,East Midlands,no
146331,892,Nottingham,Djanogly Sherwood Academy,www.sherwoodacademy.co.uk,Nottingham,NG7 7AR,East Midlands,no
140555,892,Nottingham,Djanogly Strelley Academy,www.djanoglystrelleyacademy.co.uk/,Nottingham,NG8 6JZ,East Midlands,no
140715,892,Nottingham,Edale Rise Primary & Nursery School,http://www.edale-rise-primary.co.uk/EdaleRise/,Nottingham,NG2 4HT,East Midlands,no
137525,892,Nottingham,Edna G. Olds Academy,www.ednagoldsacademy.co.uk,Nottingham,NG7 1SJ,East Midlands,no
146539,892,Nottingham,Ellis Guilford School,www.ellisguilfordschool.org.uk,Nottingham,NG6 0HT,East Midlands,no
146564,892,Nottingham,Farnborough Spencer Academy,http://www.farnboroughspencer.org.uk,Nottingham,NG11 8JW,East Midlands,no
142223,892,Nottingham,Fernwood Primary School,www.fernwoodprimary.co.uk,Nottingham,NG8 2FZ,East Midlands,no
136724,892,Nottingham,Fernwood School,http://www.fernwoodschool.org.uk/,Nottingham,NG8 2FT,East Midlands,no
139326,892,Nottingham,Firbeck Academy,www.firbeck.org.uk/,Nottingham,NG8 2FB,East Midlands,no
122561,892,Nottingham,Glade Hill Primary & Nursery School,www.gladehill.nottingham.sch.uk,Nottingham,NG5 5TA,East Midlands,no
140548,892,Nottingham,Glenbrook Spencer Academy,www.glenbrooknottingham.org.uk/,Nottingham,NG8 4PD,East Midlands,no
134842,892,Nottingham,Greenfields Community School,www.greenfields.nottingham.sch.uk,Nottingham,NG2 2JE,East Midlands,no
122486,892,Nottingham,Haydn Primary School,www.haydn.nottingham.sch.uk,Nottingham,NG5 2JU,East Midlands,no
122442,892,Nottingham,Heathfield Primary and Nursery School,www.heathfieldprimary.org.uk,Nottingham,NG5 1JU,East Midlands,no
122493,892,Nottingham,Hempshill Hall Primary School,www.hempshillhallprimary.com/,Nottingham,NG6 7AT,East Midlands,no
131017,892,Nottingham,Henry Whipple Primary School,www.henrywhipple.co.uk/,Nottingham,NG5 5GH,East Midlands,no
140017,892,Nottingham,Highbank Primary and Nursery School,www.highbankpriandnursery.co.uk,Nottingham,NG11 9FP,East Midlands,no
140303,892,Nottingham,Hogarth Academy,www.hogarthacademy.co.uk/,Nottingham,NG3 6JG,East Midlands,no
133164,892,Nottingham,Hospital and Home Education PRU,,Nottingham,NG5 3AE,East Midlands,no
137550,892,Nottingham,Huntingdon Academy,www.leadacademytrust.co.uk/,Nottingham,NG3 4AY,East Midlands,no
141334,892,Nottingham,Jubilee L.E.A.D. Academy,http://www.jubilee.nottingham.sch.uk/,Nottingham,NG8 3AF,East Midlands,no
122426,892,Nottingham,Melbury Primary School,http://www.melburyprimary.co.uk/,Nottingham,NG8 4AU,East Midlands,no
122481,892,Nottingham,Mellers Primary School,mellersprimary.co.uk,Nottingham,NG7 3HJ,East Midlands,no
137915,892,Nottingham,Nethergate Academy,,Nottingham,NG11 8HX,East Midlands,no
141010,892,Nottingham,Nottingham Free School,http://www.nottinghamfreeschool.co.uk/,Nottingham,NG5 1EB,East Midlands,no
137184,892,Nottingham,Nottingham Girls' Academy,http://www.nottinghamgirlsacademy.org/,Nottingham,NG8 3LD,East Midlands,no
140984,892,Nottingham,Nottingham University Academy of Science and Technology,www.nuast.org,Nottingham,NG7 2PL,East Midlands,no
135761,892,Nottingham,Nottingham University Samworth Academy,http://www.nusa.org.uk/,Nottingham,NG8 4HY,East Midlands,no
135573,892,Nottingham,Oak Field School,www.oakfieldschool.org.uk,Nottingham,NG8 3HW,East Midlands,no
138740,892,Nottingham,Old Basford School,www.oldbasfordschool.co.uk,Nottingham,NG6 0GF,East Midlands,no
137439,892,Nottingham,Our Lady & St Edward Primary & Nursery Catholic Voluntary Academy,www.olseacademy.org.uk,Nottingham,NG3 2LG,East Midlands,no
138338,892,Nottingham,Our Lady of Perpetual Succour Catholic Primary School,https://www.ourladyopsbulwell.com,Nottingham,NG6 9FN,East Midlands,no
144487,892,Nottingham,Park Vale Academy,www.parkvaleacademy.org.uk,Nottingham,NG5 9AZ,East Midlands,no
140550,892,Nottingham,Portland Spencer Academy,www.portlandspenceracademy.co.uk,Nottingham,NG8 4HB,East Midlands,no
141586,892,Nottingham,Radford Primary School Academy,www.radfordacademy.co.uk,Nottingham,NG7 3FL,East Midlands,no
122474,892,Nottingham,Rise Park Primary and Nursery School,www.riseparkprimaryschool.co.uk,Nottingham,NG5 5EL,East Midlands,no
144461,892,Nottingham,Robert Shaw Primary and Nursery School,www.robertshaw.nottingham.sch.uk/,Nottingham,NG8 3PL,East Midlands,no
122964,892,Nottingham,Rosehill School,http://www.therosehillschool.com,Nottingham,NG3 2FE,East Midlands,no
141396,892,Nottingham,Rosslyn Park Primary and Nursery School,www.rosslyn.nottingham.sch.uk/,Nottingham,NG8 6DD,East Midlands,no
136232,892,Nottingham,Rufford Primary and Nursery School,www.rufford.nottingham.sch.uk,Bulwell,NG6 8LE,East Midlands,no
143796,892,Nottingham,Scotholme Primary and Nursery School,www.scotholme.com,Nottingham,NG7 6FJ,East Midlands,no
139430,892,Nottingham,Seely Primary School,www.seely.nottingham.sch.uk,Nottingham,NG5 3AE,East Midlands,no
122703,892,Nottingham,Snape Wood Primary and Nursery School,www.snapewood.nottingham.sch.uk/,Nottingham,NG6 7DS,East Midlands,no
139217,892,Nottingham,Sneinton St Stephen's CofE Primary School,www.sneintoncofeprimaryschool.co.uk/,Nottingham,NG2 4QB,East Midlands,no
144548,892,Nottingham,South Wilford Endowed CofE Primary School,www.southwilford.nottingham.sch.uk/,Nottingham,NG11 7AL,East Midlands,no
131005,892,Nottingham,Southglade Primary and Nursery School,www.southgladeprimary.co.uk/,Nottingham,NG5 5NE,East Midlands,no
137480,892,Nottingham,Southwark Primary School,www.southwarkprimary.net/,Nottingham,NG6 0DT,East Midlands,no
122465,892,Nottingham,Southwold Primary School and Early Years' Centre,www.southwoldprimary.com,Nottingham,NG8 1QD,East Midlands,no
144396,892,Nottingham,Springfield Academy,www.springfieldacademy.co.uk,Nottingham,NG6 8BL,East Midlands,no
137526,892,Nottingham,St Ann's Well Academy,www.st-anns-well.co.uk/,Nottingham,NG3 3PQ,East Midlands,no
138508,892,Nottingham,"St Augustine's Catholic Primary and Nursery School, A Voluntary Academy",www.st-augustines.nottingham.sch.uk,Nottingham,NG3 4JS,East Midlands,no
138814,892,Nottingham,St Margaret Clitherow Catholic Primary School,www.st-margaretclitherow.nottingham.sch.uk,Nottingham,NG5 5RS,East Midlands,no
138339,892,Nottingham,St Mary's Catholic Primary School,www.stmaryshysongreen.com/,Nottingham,NG7 6FL,East Midlands,no
139490,892,Nottingham,St Patrick's Catholic Primary and Nursery School,www.st-patricks.nottingham.sch.uk/,Nottingham,NG11 7AB,East Midlands,no
138340,892,Nottingham,St Teresa's Catholic Primary School,www.stteresasprimaryschool.co.uk/,Nottingham,NG8 3EP,East Midlands,no
144686,892,Nottingham,Stanstead Flying High Academy,www.stansteadprimary.co.uk,Nottingham,NG5 5BL,East Midlands,no
138264,892,Nottingham,Stone Soup Academy,www.stonesoupacademy.org.uk,Nottingham,NG1 1HN,East Midlands,no
137786,892,Nottingham,Sycamore Academy,www.sycamoreacademy.co.uk/,Nottingham,NG3 4QP,East Midlands,no
145952,892,Nottingham,The Bulwell Academy,www.bulwellacademy.org.uk,Nottingham,NG6 8AQ,East Midlands,no
140239,892,Nottingham,The Glapton Academy,www.glaptonacademy.co.uk,Nottingham,NG11 8EA,East Midlands,no
138741,892,Nottingham,The Milford Academy,www.milfordacademy.org.uk,Nottingham,NG11 9BT,East Midlands,no
139765,892,Nottingham,The Nottingham Emmanuel School,http://www.emmanuel.nottingham.sch.uk,West Bridgford,NG2 7YF,East Midlands,no
135108,892,Nottingham,The Nottingham Nursery School and Training Centre,www.nottinghamnurseryschool.com,Nottingham,NG7 3AB,East Midlands,no
141363,892,Nottingham,The Oakwood Academy,http://www.oakwoodacademy.org.uk,Nottingham,NG5 9PJ,East Midlands,no
138341,892,Nottingham,The Trinity Catholic School A Voluntary Academy,www.trinity.nottingham.sch.uk,Nottingham,NG8 3EZ,East Midlands,no
147456,892,Nottingham,The Wells Academy,www.thewellsacademy.org,Nottingham,NG3 5LR,East Midlands,no
144023,892,Nottingham,Unity Academy,www.unity.raleightrust.org,Nottingham,NG7 4ES,East Midlands,no
145018,892,Nottingham,Victoria Primary School,www.victoriaprimaryschool.org.uk,Nottingham,NG2 1FX,East Midlands,no
122456,892,Nottingham,Walter Halls Primary and Early Years School,http://www.walterhallsprimary.co.uk/,Nottingham,NG3 5HS,East Midlands,no
137443,892,Nottingham,Warren Primary Academy,www.warrenprimary.co.uk/,Nottingham,NG5 9PJ,East Midlands,no
122480,892,Nottingham,Welbeck Primary School,www.welbeck.nottingham.sch.uk/,Nottingham,NG2 1NT,East Midlands,no
144320,892,Nottingham,Westbury Academy,www.westburyschool.co.uk,Nottingham,NG8 3BT,East Midlands,no
131006,892,Nottingham,Westglade Primary School,www.westgladeprimary.co.uk,Nottingham,NG5 9BG,East Midlands,no
144842,892,Nottingham,Whitegate Primary and Nursery School,http://www.whitegateprimary.co.uk/,Nottingham,NG11 9JQ,East Midlands,no
138663,892,Nottingham,Whitemoor Academy (Primary and Nursery),www.whitemooracademy.co.uk/,Nottingham,NG8 5FF,East Midlands,no
144462,892,Nottingham,William Booth Primary and Nursery School,https://www.williambooth.nottingham.sch.uk/,Nottingham,NG2 4QF,East Midlands,no
139232,892,Nottingham,Windmill L.E.A.D. Academy,www.windmillacademy.co.uk/,Nottingham,NG2 4FZ,East Midlands,no
144321,892,Nottingham,Woodlands Academy,www.woodlands.raleightrust.org,Nottingham,NG8 3EZ,East Midlands,no
122414,892,Nottingham,Carrington Primary and Nursery School,www.carrington.nottingham.sch.uk/,Nottingham,NG5 2BF,East Midlands,yes
134841,892,Nottingham,Dovecote Primary and Nursery School,www.dovecote.nottingham.sch.uk/,Nottingham,NG11 8EY,East Midlands,yes
122416,892,Nottingham,Dunkirk Primary and Nursery School,www.dunkirkprimary.com,Nottingham,NG7 2LE,East Midlands,yes
122733,892,Nottingham,Forest Fields Primary and Nursery School,www.forestfieldsprimary.co.uk,Nottingham,NG7 6GQ,East Midlands,yes
122427,892,Nottingham,Middleton Primary and Nursery School,www.middletonprimary.com,Nottingham,NG8 1FG,East Midlands,yes
135881,892,Nottingham,Nottingham Academy,http://www.nottinghamacademy.org/,Nottingham,NG3 7EB,East Midlands,yes
131007,892,Nottingham,Robin Hood Primary School,www.robinhoodprimary.co.uk,Nottingham,NG5 5NA,East Midlands,yes
