urn,district_code,district_name,school_name,website,town,postcode,region,has_email_collected
149446,894,Telford and Wrekin,Allscott Meads Primary Academy,https://allscottmeads.lct.education/,Telford,TF6 5FA,West Midlands,no
150527,894,Telford and Wrekin,Apley Wood Primary Academy,www.apleywoodprimaryschool.org.uk,Telford,TF1 6FQ,West Midlands,no
150710,894,Telford and Wrekin,Aqueduct Primary Academy,https://www.aqueductprimary.co.uk,Telford,TF4 3RP,West Midlands,no
123443,894,Telford and Wrekin,Captain Webb Primary School,www.captainwebbprimary.org.uk/,TELFORD,TF4 3DU,West Midlands,no
142821,894,Telford and Wrekin,Charlton School,www.charlton.uk.com,Telford,TF1 3FA,West Midlands,no
123358,894,Telford and Wrekin,Church Aston Infant School,www.churchastoninfantschool.co.uk/,Newport,TF10 9JN,West Midlands,no
123542,894,Telford and Wrekin,Coalbrookdale and Ironbridge CofE Primary School,http://www.coalbrookdaleschool.org.uk,Telford,TF8 7DS,West Midlands,no
148314,894,Telford and Wrekin,Crudgington Primary School,www.crudgingtonschool.org.uk,Telford,TF6 6JF,West Midlands,no
142785,894,Telford and Wrekin,Dawley Church of England Primary Academy,dawley.academy,Telford,TF4 3AL,West Midlands,no
123473,894,Telford and Wrekin,Donnington Wood CofE Voluntary Controlled Junior School,www.donningtonwood.com/,Telford,TF2 8BH,West Midlands,no
123364,894,Telford and Wrekin,Donnington Wood Infant School and Nursery Centre,www.donningtonwoodinfants.co.uk,Telford,TF2 8EP,West Midlands,no
135496,894,Telford and Wrekin,Dothill Primary School,www.dothillprimaryschool.co.uk,Telford,TF1 3JB,West Midlands,no
145707,894,Telford and Wrekin,Ercall Wood Academy,http://www.ercallwood.co.uk,Telford,TF1 2DT,West Midlands,no
142705,894,Telford and Wrekin,Grange Park Primary School,www.grangeparkprimaryschool.co.uk,Telford,TF3 1ET,West Midlands,no
135582,894,Telford and Wrekin,Haberdashers' Abraham Darby,http://www.haberdashersabrahamdarby.co.uk/,Telford,TF7 5HX,West Midlands,no
137446,894,Telford and Wrekin,Haberdashers' Adams,http://www.adamsgs.uk,Newport,TF10 7BD,West Midlands,no
144942,894,Telford and Wrekin,Hadley Learning Community - Primary Phase,www.hadleylearningcommunity.org.uk/,Telford,TF1 5NU,West Midlands,no
144853,894,Telford and Wrekin,Hadley Learning Community - Secondary Phase,http://hadleylearningcommunity.org.uk/,Telford,TF1 5NU,West Midlands,no
123629,894,Telford and Wrekin,Haughton School,www.haughtonschool.co.uk,Telford,TF7 4BW,West Midlands,no
123370,894,Telford and Wrekin,High Ercall Primary School,www.highercallprimary.co.uk,Telford,TF6 6AF,West Midlands,no
123456,894,Telford and Wrekin,Hollinswood Primary School,http://hollinswoodprimary.co.uk/,Telford,TF3 2EP,West Midlands,no
123429,894,Telford and Wrekin,Holmer Lake Primary School,www.holmerlakeprimary.org/,Telford,TF3 1LD,West Midlands,no
142067,894,Telford and Wrekin,Holy Trinity Academy,https://Holytrinity.academy,Telford,TF2 9SQ,West Midlands,no
123526,894,Telford and Wrekin,John Fletcher of Madeley Primary School,http://www.johnfletcherofmadeley.co.uk,Telford,TF7 5DL,West Midlands,no
123445,894,Telford and Wrekin,John Randall Primary School,http://johnrandallprimary.co.uk,Telford,TF7 4DS,West Midlands,no
150262,894,Telford and Wrekin,Kickstart Academy,Kickstart.lct.education,Telford,TF2 9PQ,West Midlands,no
123438,894,Telford and Wrekin,Ladygrove Primary School,http://ladygroveprimary.taw.org.uk,Telford,TF4 2LF,West Midlands,no
149309,894,Telford and Wrekin,Lantern Academy,https://lantern.lct.education/,Telford,TF2 0AZ,West Midlands,no
123377,894,Telford and Wrekin,Lawley Primary School,www.lawleyprimary.taw.org.uk/,Telford,TF4 2PR,West Midlands,no
141699,894,Telford and Wrekin,Lawley Village Academy,www.lawleyvillageacademy.co.uk,Telford,TF4 2SG,West Midlands,no
135244,894,Telford and Wrekin,Lightmoor Village Primary School,www.lightmoorvillageprimary.co.uk,Telford,TF4 3EG,West Midlands,no
123378,894,Telford and Wrekin,Lilleshall Primary School,http://lilleshallschool.taw.org.uk,Newport,TF10 9EY,West Midlands,no
135149,894,Telford and Wrekin,Madeley Academy,www.madeleyacademy.com,Telford,TF7 5FB,West Midlands,no
123347,894,Telford and Wrekin,Madeley Nursery School,www.madeleynurseryschool.co.uk,Telford,TF7 5ET,West Midlands,no
134999,894,Telford and Wrekin,Meadows Primary School and Nursery,www.meadowsprimaryschool.co.uk,Telford,TF1 5HF,West Midlands,no
134852,894,Telford and Wrekin,Millbrook Primary School,www.millbrookprimary.org.uk,Telford,TF1 6UJ,West Midlands,no
123435,894,Telford and Wrekin,Moorfield Primary School,http://www.moorfieldprimaryschool.co.uk,Newport,TF10 7QU,West Midlands,no
123453,894,Telford and Wrekin,Muxton Primary School,http://www.muxtonprimary.co.uk/,Telford,TF2 8SA,West Midlands,no
150811,894,Telford and Wrekin,New Road Academy,https://newroad.lct.education,Telford,TF2 7AB,West Midlands,no
133300,894,Telford and Wrekin,Newdale Primary School & Nursery,www.newdaleschool.taw.org.uk/,Telford,TF3 5HA,West Midlands,no
123489,894,Telford and Wrekin,Newport Church of England Voluntary Controlled Junior School,,Newport,TF10 7EA,West Midlands,no
136516,894,Telford and Wrekin,Newport Girls' High School Academy,www.nghs.org.uk,Newport,TF10 7HL,West Midlands,no
123384,894,Telford and Wrekin,Newport Infant School and Nursery,www.newportinfants.taw.org.uk/,Newport,TF10 7DX,West Midlands,no
123348,894,Telford and Wrekin,Oakengates Nursery School,www.oakengatesnurseryschool.co.uk,Telford,TF2 6BT,West Midlands,no
133270,894,Telford and Wrekin,Old Park Primary School,https://www.oldparkprimary.co.uk,Telford,TF3 2BF,West Midlands,no
136439,894,Telford and Wrekin,Priorslee Academy,www.priorsleeprimaryacademy.com/,Telford,TF2 9RS,West Midlands,no
145494,894,Telford and Wrekin,Queensway,https://queensway.school/,Telford,TF4 3PP,West Midlands,no
123441,894,Telford and Wrekin,Randlay Primary School,www.randlayprimary.taw.org.uk/,Telford,TF3 2LR,West Midlands,no
146026,894,Telford and Wrekin,Redhill Primary Academy,redhill.ttsonline.net,Telford,TF2 9GZ,West Midlands,no
104939,894,Telford and Wrekin,Short Wood Primary School,https://www.shortwoodprimaryschool.com,Telford,TF1 2JA,West Midlands,no
123631,894,Telford and Wrekin,Southall School,,Telford,TF4 3PX,West Midlands,no
123527,894,Telford and Wrekin,St George's Church of England Primary School,http://www.stgeorgesschool.org.uk,Telford,TF2 9LJ,West Midlands,no
123496,894,Telford and Wrekin,St Lawrence Church of England Voluntary Controlled Primary School,https://stlawrencecofe.org.uk,Telford,TF6 6DH,West Midlands,no
151101,894,Telford and Wrekin,"St Luke's Catholic Primary School, a Voluntary Academy.",www.stlukescatholicprimary.org.uk,Telford,TF2 7HG,West Midlands,no
123556,894,Telford and Wrekin,St Mary's Catholic Primary School,www.stmarysmadeley.taw.org.uk/,Telford,TF7 5EJ,West Midlands,no
123557,894,Telford and Wrekin,St Matthew's Church of England Aided Primary School and Nursery Centre,www.stmatthewscofe.com,Telford,TF2 7PZ,West Midlands,no
150401,894,Telford and Wrekin,St Patrick's Catholic Primary School,www.blessededwardcampion.co.uk,Telford,TF1 3ER,West Midlands,no
151100,894,Telford and Wrekin,"St Peter and St Paul Catholic Primary School, A Voluntary Academy",https://stpeterandpaulcatholicprimary.taw.org.uk,Newport,TF10 7HU,West Midlands,no
148716,894,Telford and Wrekin,St Peter's Bratton Church of England Academy,www.brattonstpeters.org.uk/,Telford,TF5 0NT,West Midlands,no
123451,894,Telford and Wrekin,Teagues Bridge Primary School,www.teaguesbridgeprimary.org,Telford,TF2 6RE,West Midlands,no
150363,894,Telford and Wrekin,The Burton Borough School,,Newport,TF10 7DS,West Midlands,no
123349,894,Telford and Wrekin,The Linden Centre,www.lindencentre.co.uk,Telford,TF4 3DU,West Midlands,no
139766,894,Telford and Wrekin,The Telford Langley School,http://www.telfordlangleyschool.co.uk,Telford,TF4 3JS,West Midlands,no
150716,894,Telford and Wrekin,The Telford Park School,,Telford,TF3 1FA,West Midlands,no
123505,894,Telford and Wrekin,Tibberton Church of England Primary School,www.tibbertonschool.org.uk/,Newport,TF10 8NN,West Midlands,no
123433,894,Telford and Wrekin,William Reynolds Primary School,www.williamreynoldsprimary.org/,Telford,TF7 5QW,West Midlands,no
145745,894,Telford and Wrekin,Windmill Primary School,,Telford,TF3 1LG,West Midlands,no
123404,894,Telford and Wrekin,Wombridge Primary School,www.wombridgeprimary.co.uk/,Telford,TF2 6AN,West Midlands,no
135031,894,Telford and Wrekin,Woodlands Primary School,www.woodlands-sch.co.uk/,Telford,TF7 5HX,West Midlands,no
147579,894,Telford and Wrekin,Wrekin View Primary School,https://wrekinview.lct.education/,Telford,TF1 3ES,West Midlands,no
123520,894,Telford and Wrekin,Wrockwardine Wood Church of England Junior School,www.wrockwardinewoodcejuniorschool.taw.org.uk/,Telford,TF2 7HG,West Midlands,no
123406,894,Telford and Wrekin,Wrockwardine Wood Infant School and Nursery,https://www.wrockwardinewoodinfant.org.uk,Telford,TF2 7AH,West Midlands,no
132086,894,Telford and Wrekin,Sir Alexander Fleming Primary School,https://siralexanderflemingprimaryschool.org.uk,Telford,TF7 4HG,West Midlands,yes
123474,894,Telford and Wrekin,St Peter's Church of England Controlled Primary School and Nursery,www.stpetersedgmond.co.uk,Telford,TF10 8JQ,West Midlands,yes
123635,894,Telford and Wrekin,The Bridge at HLC,www.thebridgeschool.co.uk,Telford,TF1 5NQ,West Midlands,yes
