urn,district_code,district_name,school_name,website,town,postcode,region,has_email_collected
139774,925,Lincolnshire,Acorn Free School,www.theacornschool.co.uk,Lincoln,LN5 9TL,East Midlands,no
142136,925,Lincolnshire,Aegir - A Specialist Academy,www.aegirspecialistacademy.co.uk,Gainsborough,DN21 1PB,East Midlands,no
120440,925,Lincolnshire,Alford Primary School,http://www.alford.lincs.sch.uk/,Alford,LN13 9BJ,East Midlands,no
131277,925,Lincolnshire,Athena School,www.athenaschool.org.uk,Lincoln,LN5 8EL,East Midlands,no
120589,925,Lincolnshire,Bardney Church of England and Methodist Primary School,http://www.bardneyschool.co.uk,Lincoln,LN3 5XJ,East Midlands,no
120689,925,Lincolnshire,Barkston and Syston CofE Primary School,http://www.barkstonsyston.lincs.sch.uk,Grantham,NG32 2NB,East Midlands,no
120513,925,Lincolnshire,Barrowby Church of England Primary School,http://www.barrowby.lincs.sch.uk/,Grantham,NG32 1BX,East Midlands,no
145437,925,Lincolnshire,Bassingham Primary School,http://www.bassinghamschool.org,Lincoln,LN5 9HQ,East Midlands,no
139702,925,Lincolnshire,Beacon Primary Academy,www.beaconprimaryacademy.org/,Skegness,PE25 2RN,East Midlands,no
138063,925,Lincolnshire,Benjamin Adlard Primary School,https://www.benjaminadlard.anthemtrust.uk/,Gainsborough,DN21 1DB,East Midlands,no
151274,925,Lincolnshire,Billingborough Primary School,https://billingborough-cit.co.uk/,Sleaford,NG34 0NX,East Midlands,no
120565,925,Lincolnshire,Binbrook CofE Primary School,http://www.binbrook.lincs.sch.uk/,Market Rasen,LN8 6DU,East Midlands,no
120619,925,Lincolnshire,Blyton Cum Laughton Church of England School,www.blyton.lincs.sch.uk,Gainsborough,DN21 3JX,East Midlands,no
142666,925,Lincolnshire,Boston Endeavour Academy,http://www.bea-cit.co.uk,Boston,PE21 0PX,East Midlands,no
139140,925,Lincolnshire,Boston High School,http://www.bostonhighschool.co.uk/,Boston,PE21 9PF,East Midlands,no
126564,925,Lincolnshire,Boston Nursery School,www.boston-nur.lincs.sch.uk,Boston,PE21 0LJ,East Midlands,no
139597,925,Lincolnshire,Boston Pioneers Free School Academy,www.bostonpioneersacademy.net,Boston,PE21 8SS,East Midlands,no
138291,925,Lincolnshire,Boston West Academy,www.bwacademy.co.uk,Boston,PE21 7QG,East Midlands,no
136354,925,Lincolnshire,Bourne Abbey Church of England Primary Academy,www.bourneabbeyprimary.co.uk,Bourne,PE10 9EP,East Midlands,no
137572,925,Lincolnshire,Bourne Academy,http://www.bourneacademy.org,Bourne,PE10 9DT,East Midlands,no
140214,925,Lincolnshire,Bourne Elsea Park Church of England Primary Academy,www.bourneelseaparkprimary.co.uk,Bourne,PE10 0WP,East Midlands,no
137793,925,Lincolnshire,Bourne Grammar School,http://www.bourne-grammar.lincs.sch.uk/,Bourne,PE10 9JE,East Midlands,no
137599,925,Lincolnshire,Bourne Westfield Primary Academy,http://www.bournewestfield.lincs.sch.uk,Bourne,PE10 9QS,East Midlands,no
137794,925,Lincolnshire,Bracebridge Heath St John's Primary Academy,http://www.stjohnsprimaryacademy.co.uk,Lincoln,LN4 2LD,East Midlands,no
139142,925,Lincolnshire,Bracebridge Infant and Nursery School,www.bracebridge.lincs.sch.uk/,Lincoln,LN5 8QG,East Midlands,no
144122,925,Lincolnshire,Branston Church of England Infant Academy,http://www.branston-infant.lincs.sch.uk,Lincoln,LN4 1PR,East Midlands,no
136358,925,Lincolnshire,Branston Community Academy,http://www.branstonca.lincs.sch.uk/,Lincoln,LN4 1LH,East Midlands,no
138486,925,Lincolnshire,Branston Junior Academy,www.branstonjunioracademy.co.uk,Lincoln,LN4 1LH,East Midlands,no
120594,925,Lincolnshire,Brant Broughton Church of England and Methodist Primary School,http://www.brant-broughton.lincs.sch.uk,Lincoln,LN5 0RP,East Midlands,no
143258,925,Lincolnshire,Brown's Church of England Primary School,www.brownscofeprimaryschool.uk,Sleaford,NG34 0PL,East Midlands,no
120443,925,Lincolnshire,Bucknall Primary School,www.bucknallprimary.org.uk,Bardney,LN10 5DT,East Midlands,no
120506,925,Lincolnshire,Bythams Primary School,http://www.bythams-school.co.uk/,Grantham,NG33 4PX,East Midlands,no
120590,925,Lincolnshire,Caistor CofE and Methodist Primary School,http://www.caistorprimary.co.uk,Market Rasen,LN7 6LY,East Midlands,no
136350,925,Lincolnshire,Caistor Grammar School,http://www.caistorgrammar.com/,Market Rasen,LN7 6QJ,East Midlands,no
136958,925,Lincolnshire,Caistor Yarborough Academy,http://caistoryarboroughacademy.co.uk/,Market Rasen,LN7 6QZ,East Midlands,no
138751,925,Lincolnshire,Carlton Road Academy,www.carltonroadacademy.net,Boston,PE21 8QX,East Midlands,no
137213,925,Lincolnshire,Carre's Grammar School,http://www.carres.uk,Sleaford,NG34 7DD,East Midlands,no
140329,925,Lincolnshire,Castle Wood Academy,https://castlewoodacademy.eschools.co.uk/web,Gainsborough,DN21 1EH,East Midlands,no
144594,925,Lincolnshire,Caythorpe Primary School,https://caythorpe.eschools.co.uk,Grantham,NG32 3DR,East Midlands,no
145489,925,Lincolnshire,Chapel St Leonards Primary School,www.chapel-cit.co.uk,Skegness,PE24 5LS,East Midlands,no
136479,925,Lincolnshire,Charles Read Academy,www.charlesreadacademy.co.uk,Grantham,NG33 4NT,East Midlands,no
146205,925,Lincolnshire,Cherry Willingham Primary Academy,www.cherryprimary.co.uk,Lincoln,LN3 4BD,East Midlands,no
120387,925,Lincolnshire,Church Lane Primary School & Nursery,www.churchlaneprimary.org.uk/,Sleaford,NG34 7DF,East Midlands,no
120393,925,Lincolnshire,Cliffedale Primary School,www.cliffedale.org,Grantham,NG31 8DP,East Midlands,no
146279,925,Lincolnshire,Colsterworth Church of England Primary School,www.colsterworth.lincs.sch.uk,Grantham,NG33 5NJ,East Midlands,no
145527,925,Lincolnshire,Coningsby St Michael's Church of England Primary School,www.coningsbyprimary.co.uk/,Lincoln,LN4 4SJ,East Midlands,no
120374,925,Lincolnshire,Corby Glen Community Primary School,http://www.corbyglen.lincs.sch.uk,Grantham,NG33 4NW,East Midlands,no
120568,925,Lincolnshire,Corringham CofE VC Primary School,www.corringham.lincs.sch.uk,Gainsborough,DN21 5QS,East Midlands,no
149436,925,Lincolnshire,Cowley Academy,,Spalding,PE11 4TF,East Midlands,no
120674,925,Lincolnshire,Cranwell Primary School (Foundation),http://www.cranwell.lincs.sch.uk,Sleaford,NG34 8HH,East Midlands,no
136491,925,Lincolnshire,De Aston School,http://www.de-aston.lincs.sch.uk/,Market Rasen,LN8 3RF,East Midlands,no
120396,925,Lincolnshire,Deeping St James Community Primary School,http://www.deeping-st-james.lincs.sch.uk/,Peterborough,PE6 8PZ,East Midlands,no
120518,925,Lincolnshire,Denton CofE School,www.dentonceschool.co.uk,Grantham,NG32 1LG,East Midlands,no
120519,925,Lincolnshire,Digby Church of England School,www.spiresfederation.co.uk,Lincoln,LN4 3LZ,East Midlands,no
120375,925,Lincolnshire,Digby the Tedder Primary School,www.tedder.lincs.sch.uk/,Lincoln,LN4 3JY,East Midlands,no
120569,925,Lincolnshire,Dunholme St Chad's Church of England Primary School,www.dunholme.lincs.sch.uk/,Lincoln,LN2 3NE,East Midlands,no
120520,925,Lincolnshire,Dunston St Peter's Church of England Primary School,www.spiresfederation.co.uk,Lincoln,LN4 2EH,East Midlands,no
120376,925,Lincolnshire,Eagle Community Primary School,www.eagleprimary.org.uk/,Lincoln,LN6 9EJ,East Midlands,no
120597,925,Lincolnshire,East Wold Church of England Primary School,www.east-wold.lincs.sch.uk/,Louth,LN11 8LD,East Midlands,no
146505,925,Lincolnshire,Eastfield Infants and Nursery Academy,https://laceyfieldlouth.co.uk/about-us/,LOUTH,LN11 8DQ,East Midlands,no
138753,925,Lincolnshire,Ellison Boulters Church of England Primary School,http://www.ellisonboultersacademy.co.uk,Lincoln,LN2 2UZ,East Midlands,no
147530,925,Lincolnshire,Ermine Primary Academy,https://www.ermineprimaryacademy.co.uk/,Lincoln,LN2 2HG,East Midlands,no
120445,925,Lincolnshire,Faldingworth Community Primary School,http://www.faldingworth.lincs.sch.uk,Market Rasen,LN8 3SF,East Midlands,no
139266,925,Lincolnshire,Fishtoft Academy,www.fishtoftacademy.net,Boston,PE21 0SF,East Midlands,no
120570,925,Lincolnshire,Fiskerton Church of England Primary School,http://www.fiskerton.lincs.sch.uk,Lincoln,LN3 4HU,East Midlands,no
134229,925,Lincolnshire,Fortuna School,www.fortuna.lincs.sch.uk,Lincoln,LN6 0FB,East Midlands,no
136790,925,Lincolnshire,Fosse Way Academy,www.fosse-way-academy.org,Lincoln,LN6 8DU,East Midlands,no
120625,925,Lincolnshire,Frances Olive Anderson Church of England (Aided) Primary School,http://www.olive-anderson.lincs.sch.uk,Gainsborough,DN21 5EP,East Midlands,no
148405,925,Lincolnshire,Friskney All Saints Church of England Primary School,www.friskneyprimary.co.uk,Boston,PE22 8RD,East Midlands,no
146586,925,Lincolnshire,Frithville Primary School,www.frithville.lincs.sch.uk,Boston,PE22 7EX,East Midlands,no
149859,925,Lincolnshire,Fulstow Church of England Primary School,http://www.fulstowprimary.co.uk/,Louth,LN11 0XL,East Midlands,no
151306,925,Lincolnshire,Gedney Church End Primary Academy,www.gedneychurchendprimary.org,Spalding,PE12 0BU,East Midlands,no
120410,925,Lincolnshire,Gedney Drove End Primary School,www.griffinfederation.co.uk,Spalding,PE12 9PD,East Midlands,no
139296,925,Lincolnshire,Gipsey Bridge Academy,www.gipseybridgeschool.co.uk,Boston,PE22 7BP,East Midlands,no
144491,925,Lincolnshire,Gosberton Academy,www.gosbertonacademy.net,Spalding,PE11 4NW,East Midlands,no
143257,925,Lincolnshire,Gosberton House Academy,www.gosberton-house.lincs.sch.uk,Spalding,PE11 4EW,East Midlands,no
120450,925,Lincolnshire,Grainthorpe Junior School,www.grainthorpe.lincs.sch.uk,Louth,LN11 7JY,East Midlands,no
141254,925,Lincolnshire,Grantham Additional Needs Fellowship,www.ganf-cit.co.uk,Grantham,NG31 9AX,East Midlands,no
120571,925,Lincolnshire,Grasby All Saints Church of England Primary School,www.grasbyprimary.co.uk,Barnetby,DN38 6AU,East Midlands,no
120602,925,Lincolnshire,Great Ponton Church of England School,www.greatpontonprimaryschool.co.uk/,Grantham,NG33 5DT,East Midlands,no
120451,925,Lincolnshire,Great Steeping Primary School,http://www.greatsteeping.org.uk,Spilsby,PE23 5PT,East Midlands,no
139316,925,Lincolnshire,Greenfields Academy,www.greenfields-cit.co.uk,Grantham,NG31 7US,East Midlands,no
120684,925,Lincolnshire,Grimoldby Primary School,www.grimoldbyprimaryschool.co.uk,Louth,LN11 8SW,East Midlands,no
120573,925,Lincolnshire,Halton Holegate CofE Primary School,www.haltonholegateprimaryschool.co.uk,SPILSBY,PE23 5PB,East Midlands,no
146559,925,Lincolnshire,Hartsholme Academy,www.hha.harbourlearningtrust.com,Lincoln,LN6 0DE,East Midlands,no
138754,925,Lincolnshire,Haven High Academy,http://www.havenhighacademy.net/,Boston,PE21 9HB,East Midlands,no
120424,925,Lincolnshire,Hawthorn Tree School,http://www.hawthorntree.co.uk,Boston,PE21 0PT,East Midlands,no
137201,925,Lincolnshire,Heighington Millfield Primary Academy,https://www.heighingtonmillfield.co.uk/,Lincoln,LN4 1RQ,East Midlands,no
151091,925,Lincolnshire,Helpringham Primary Academy,http://www.helpringhamschool.co.uk,Sleaford,NG34 0RD,East Midlands,no
120491,925,Lincolnshire,Hemswell Cliff Primary School,www.hemswellcliff.lincs.sch.uk/,Gainsborough,DN21 5XS,East Midlands,no
138749,925,Lincolnshire,Hogsthorpe Primary Academy,www.hogsthorpeprimary.co.uk,Skegness,PE24 5PT,East Midlands,no
145734,925,Lincolnshire,Holbeach Bank Primary Academy,www.holbeachbankacademy.co.uk,Spalding,PE12 8BX,East Midlands,no
141260,925,Lincolnshire,Holbeach Primary Academy,www.holbeachprimaryacademy.co.uk/,Spalding,PE12 7LZ,East Midlands,no
120453,925,Lincolnshire,Holton Le Clay Infant School,http://www.holtonleclayschools.co.uk,Nr Grimsby,DN36 5AQ,East Midlands,no
120497,925,Lincolnshire,Holton-le-Clay Junior School,http://www.holtonleclayschools.co.uk,Grimsby,DN36 5DR,East Midlands,no
148713,925,Lincolnshire,Horncastle Primary School,www.horncastleprimary.co.uk/,Horncastle,LN9 5EH,East Midlands,no
139618,925,Lincolnshire,Huntingtower Community Primary Academy,http://www.huntingtowerprimary.co.uk,Grantham,NG31 7AU,East Midlands,no
138808,925,Lincolnshire,Huttoft Primary & Nursery School,www.huttoft.lincs.sch.uk/,Alford,LN13 9RE,East Midlands,no
120454,925,Lincolnshire,Ingham Primary School,www.ingham.lincs.sch.uk,Lincoln,LN1 2XT,East Midlands,no
138444,925,Lincolnshire,Ingoldmells Academy,www.ingoldmellsacademy.org/,Skegness,PE25 1QE,East Midlands,no
141390,925,Lincolnshire,Ingoldsby Academy,www.ingoldsbyacademy.co.uk,Grantham,NG33 4HA,East Midlands,no
136968,925,Lincolnshire,John Spendluffe Foundation Technology College,https://www.jstc.org.uk,Alford,LN13 9BL,East Midlands,no
141793,925,Lincolnshire,Keelby Primary Academy,http://www.keelby.lincs.sch.uk,Grimsby,DN41 8EF,East Midlands,no
120469,925,Lincolnshire,Kelsey Primary School,http://www.kelseyprimary.co.uk,Market Rasen,LN7 6EJ,East Midlands,no
138638,925,Lincolnshire,Kesteven and Grantham Girls' School,http://www.kestevengrantham.lincs.sch.uk/,Grantham,NG31 9AU,East Midlands,no
137667,925,Lincolnshire,Kesteven and Sleaford High School Selective Academy,www.kshs.uk,Sleaford,NG34 7RS,East Midlands,no
138783,925,Lincolnshire,King Edward VI Academy,www.kingedwardacademy.co.uk,Spilsby,PE23 5EW,East Midlands,no
142262,925,Lincolnshire,King Edward VI Grammar School,http://www.kevigs.org/,Louth,LN11 9LL,East Midlands,no
146499,925,Lincolnshire,Lacey Gardens Junior Academy,www.laceyfieldlouth.co.uk,LOUTH,LN11 8DH,East Midlands,no
120381,925,Lincolnshire,Langtoft Primary School,http://www.langtoft.lincs.sch.uk,Peterborough,PE6 9NB,East Midlands,no
149272,925,Lincolnshire,Leadenham Church of England Academy,www.leadenhamprimaryacademy.co.uk/,Lincoln,LN5 0QB,East Midlands,no
120457,925,Lincolnshire,Legsby Primary School,www.legsbyschool.co.uk,Market Rasen,LN8 3QW,East Midlands,no
147677,925,Lincolnshire,Linchfield Academy,www.linchfield-cit.co.uk,Peterborough,PE6 8EY,East Midlands,no
120508,925,Lincolnshire,Lincoln Birchwood Junior School,www.birchwood.lincs.sch.uk,Lincoln,LN6 0NL,East Midlands,no
138970,925,Lincolnshire,Lincoln Carlton Academy,www.lincolncarlton.anthemtrust.uk,Lincoln,LN2 4AG,East Midlands,no
150482,925,Lincolnshire,Lincoln Castle Academy,,Lincoln,LN1 3SP,East Midlands,no
137447,925,Lincolnshire,Lincoln Christ's Hospital School,http://www.christs-hospital.lincs.sch.uk,Lincoln,LN2 4PN,East Midlands,no
120429,925,Lincolnshire,Lincoln Monks Abbey Primary School,www.monksabbey.org,Lincoln,LN2 5PF,East Midlands,no
140950,925,Lincolnshire,Lincoln UTC,http://lincolnutc.co.uk/,Lincoln,LN2 1PF,East Midlands,no
138748,925,Lincolnshire,Ling Moor Primary Academy,http://www.ling-moor.lincs.sch.uk/,Lincoln,LN6 8QZ,East Midlands,no
138057,925,Lincolnshire,Long Bennington Church of England Academy,http://www.longbenningtonacademy.co.uk,Newark,NG23 5EH,East Midlands,no
147566,925,Lincolnshire,Long Sutton County Primary School,www.longsutton.lincs.sch.uk/,Spalding,PE12 9EP,East Midlands,no
144968,925,Lincolnshire,Louth Academy,www.louthacademy.co.uk,Louth,LN11 9AW,East Midlands,no
138637,925,Lincolnshire,Louth Kidgate Primary Academy,www.kidgateprimaryacademy.co.uk,Louth,LN11 9BX,East Midlands,no
148747,925,Lincolnshire,Lutton St Nicholas Primary Academy,http://luttonstnicholasprimary.org/,Spalding,PE12 9HN,East Midlands,no
138445,925,Lincolnshire,Mablethorpe Primary Academy,www.mablethorpeprimaryacademy.org,Mablethorpe,LN12 1EW,East Midlands,no
137680,925,Lincolnshire,Malcolm Sargent Primary School,http://www.malcolmsargentschool.co.uk,Stamford,PE9 2SR,East Midlands,no
141556,925,Lincolnshire,Manor Farm Academy,http://www.manor-farm-academy.co.uk/,Lincoln,LN6 9ST,East Midlands,no
120461,925,Lincolnshire,Marshchapel Infant School,www.marshchapel.lincs.sch.uk,Grimsby,DN36 5SX,East Midlands,no
139332,925,Lincolnshire,Mercer's Wood Academy,https://mercerswoodacademy.eschools.co.uk/web,Gainsborough,DN21 2PD,East Midlands,no
150443,925,Lincolnshire,Monkshouse Primary Academy,www.monkshouse.lincs.sch.uk,Spalding,PE11 1LG,East Midlands,no
120464,925,Lincolnshire,Morton Trentside Primary School,http://www.mortontrentside.lincs.sch.uk,GAINSBOROUGH,DN21 3AH,East Midlands,no
120417,925,Lincolnshire,Moulton Chapel Primary School,www.moultonchapel.lincs.sch.uk,Spalding,PE12 0XJ,East Midlands,no
137551,925,Lincolnshire,Mount Street Academy,https://www.mountstreet.anthemtrust.uk/,Lincoln,LN1 3JG,East Midlands,no
120530,925,Lincolnshire,Mrs Mary King's CofE (Controlled) Primary School,http://www.carrdykefederation.co.uk/,Lincoln,LN4 3RB,East Midlands,no
120532,925,Lincolnshire,Navenby Church of England Primary School,www.navenbyschool.com,Lincoln,LN5 0EP,East Midlands,no
120465,925,Lincolnshire,Nettleton Community Primary School,www.nettleton.lincs.sch.uk,Market Rasen,LN7 6AA,East Midlands,no
146597,925,Lincolnshire,New York Primary School,www.newyork.lincs.sch.uk/,Lincoln,LN4 4XH,East Midlands,no
120578,925,Lincolnshire,Newton-on-Trent CofE Primary School,www.newtonontrentcofeprimary.co.uk/,Lincoln,LN1 2JS,East Midlands,no
120383,925,Lincolnshire,Nocton Community Primary School,www.spiresfederation.co.uk,Lincoln,LN4 2BJ,East Midlands,no
120468,925,Lincolnshire,Normanby Primary School,www.normanby.lincs.sch.uk,Market Rasen,LN8 2HE,East Midlands,no
120580,925,Lincolnshire,North Cockerington Church of England Primary School,http://www.north-cockerington.lincs.sch.uk,Louth,LN11 7EP,East Midlands,no
136871,925,Lincolnshire,North Kesteven Academy,http://www.nkacademy.co.uk,Lincoln,LN6 9AG,East Midlands,no
120385,925,Lincolnshire,North Scarle Primary School,www.northscarleprimary.co.uk/,Lincoln,LN6 9EY,East Midlands,no
120692,925,Lincolnshire,North Somercotes CofE Primary School,http://www.nspri.co.uk,Louth,LN11 7QB,East Midlands,no
139868,925,Lincolnshire,North Thoresby Primary Academy,https://sites.google.com/a/aetinet.org/north-thoresby-primary-academy/,Grimsby,DN36 5PL,East Midlands,no
149501,925,Lincolnshire,Old Leake Primary Academy,www.oldleakeprimaryacademy.net,Boston,PE22 9HR,East Midlands,no
120471,925,Lincolnshire,Osgodby Primary School,http://www.osgodbyschool.co.uk,Market Rasen,LN8 3TA,East Midlands,no
139621,925,Lincolnshire,"Our Lady of Good Counsel Catholic Primary School, A Voluntary Academy",https://www.our-lady.lincs.sch.uk/index.html,Sleaford,NG34 7AT,East Midlands,no
139622,925,Lincolnshire,Our Lady of Lincoln Catholic Primary School A Voluntary Academy,http://www.ourladylincoln.lincs.sch.uk,Lincoln,LN2 2HE,East Midlands,no
139191,925,Lincolnshire,Park Academy,www.parkacademyboston.net,Boston,PE21 9LQ,East Midlands,no
120627,925,Lincolnshire,Partney Church of England Aided Primary School,www.partneyschool.co.uk,Spilsby,PE23 4PX,East Midlands,no
120472,925,Lincolnshire,Pollyplatt Primary School,https://pollyplattprimary.co.uk/,Lincoln,LN1 2TP,East Midlands,no
145902,925,Lincolnshire,Poplar Farm School,https://www.poplarfarmsch-cit.co.uk/website,Grantham,NG31 8XF,East Midlands,no
136315,925,Lincolnshire,Queen Elizabeth's Grammar Alford - A Selective Academy,http://www.qegs.co.uk,Alford,LN13 9HY,East Midlands,no
138665,925,Lincolnshire,"Queen Elizabeth's Grammar School, Horncastle",http://www.qegs.lincs.sch.uk,Horncastle,LN9 5AD,East Midlands,no
138284,925,Lincolnshire,Rauceby Church of England Primary School,www.raucebyschool.co.uk,Sleaford,NG34 8QW,East Midlands,no
120581,925,Lincolnshire,Reepham Church of England Primary School,www.reepham.lincs.sch.uk,Lincoln,LN3 4DP,East Midlands,no
138324,925,Lincolnshire,Ruskington Chestnut Street Church of England Academy,http://www.chestnutstreet.co.uk,Sleaford,NG34 9DL,East Midlands,no
146226,925,Lincolnshire,Saint Mary's Catholic Voluntary Academy,http://www.stmarysrcprimary.co.uk,Grantham,NG31 9AX,East Midlands,no
146241,925,Lincolnshire,Saint Mary's RC Primary Academy Boston,www.bostonstmarys.co.uk,Boston,PE21 9PX,East Midlands,no
120583,925,Lincolnshire,Saxilby Church of England Primary School,www.saxilby.lincs.sch.uk,Lincoln,LN1 2QJ,East Midlands,no
120584,925,Lincolnshire,Scamblesby Church of England Primary School,http://www.scamblesby.lincs.sch.uk,Louth,LN11 9XG,East Midlands,no
120585,925,Lincolnshire,Scampton Church of England Primary School,http://www.scampton.lincs.sch.uk,Lincoln,LN1 2SD,East Midlands,no
120473,925,Lincolnshire,Scotter Primary School,www.scotter.lincs.sch.uk,Gainsborough,DN21 3RY,East Midlands,no
147412,925,Lincolnshire,Seathorne Primary Academy,www.seathorneprimaryacademy.org,Skegness,PE25 1HB,East Midlands,no
120427,925,Lincolnshire,Sir Francis Hill Community Primary School,http://www.sfh.lincs.sch.uk/,Lincoln,LN6 7UE,East Midlands,no
137135,925,Lincolnshire,Sir Robert Pattinson Academy,http://www.srpa.co.uk,Lincoln,LN6 9AF,East Midlands,no
138839,925,Lincolnshire,"Sir William Robertson Academy, Welbourn",www.swracademy.org,Lincoln,LN5 0PA,East Midlands,no
136217,925,Lincolnshire,Skegness Academy,http://www.skegnessacademy.org/,Skegness,PE25 2QH,East Midlands,no
138757,925,Lincolnshire,Skegness Grammar School,www.skegnessgrammar.co.uk,Skegness,PE25 2QS,East Midlands,no
138750,925,Lincolnshire,Skegness Infant Academy,www.skegnessinfantacademy.org/,Skegness,PE25 2QU,East Midlands,no
138442,925,Lincolnshire,Skegness Junior Academy,www.skegnessjunioracademy.org/,Skegness,PE25 2QX,East Midlands,no
120400,925,Lincolnshire,Skellingthorpe the Holt Primary School,http://www.holt.lincs.sch.uk/,Lincoln,LN6 5XJ,East Midlands,no
142392,925,Lincolnshire,Somercotes Academy,https://somercotesacademy.co.uk/,Louth,LN11 7PN,East Midlands,no
143518,925,Lincolnshire,South Witham Academy,,Grantham,NG33 5PH,East Midlands,no
144488,925,Lincolnshire,Spalding Academy,www.spaldingacademy.org.uk,Spalding,PE11 2EJ,East Midlands,no
139304,925,Lincolnshire,Spalding Grammar School,http://www.spaldinggrammar.lincs.sch.uk,Spalding,PE11 2XH,East Midlands,no
120642,925,Lincolnshire,Spalding High School,http://www.spaldinghigh.lincs.sch.uk,Spalding,PE11 2PJ,East Midlands,no
147520,925,Lincolnshire,Spalding Parish Church of England Day School,www.spaldingparish.lincs.sch.uk,Spalding,PE11 2QG,East Midlands,no
148373,925,Lincolnshire,Spalding Primary Academy,http://www.spalding-pri.lincs.sch.uk,Spalding,PE11 1PB,East Midlands,no
142764,925,Lincolnshire,Spilsby Primary School,www.spilsbyprimary.org.uk/,Spilsby,PE23 5EP,East Midlands,no
147197,925,Lincolnshire,Springwell Alternative Academy Grantham,https://springwellalternativeacademygrantham.co.uk/,Grantham,NG31 9LD,East Midlands,no
147195,925,Lincolnshire,Springwell Alternative Academy Lincoln,https://springwellalternativeacademylincoln.co.uk/,Lincoln,LN2 4EL,East Midlands,no
147196,925,Lincolnshire,Springwell Alternative Academy Mablethorpe,https://springwellalternativeacademymablethorpe.co.uk/,Mablethorpe,LN12 2DF,East Midlands,no
144763,925,Lincolnshire,Springwell Alternative Academy Spalding,https://springwellalternativeacademyspalding.co.uk/,Spalding,PE11 2PN,East Midlands,no
138487,925,Lincolnshire,St Andrew's CofE Primary School,www.standrews-woodhallspa.org.uk,Woodhall Spa,LN10 6RQ,East Midlands,no
139626,925,Lincolnshire,St Augustine's Catholic Voluntary Academy,http://www.st-augustine.lincs.sch.uk,Stamford,PE9 1SR,East Midlands,no
120551,925,Lincolnshire,St Bartholomews CofE Primary School,www.stbartholomews.lincs.sch.uk/,Spalding,PE11 3QJ,East Midlands,no
142309,925,Lincolnshire,St Bernard's School,www.inspirecct.co.uk,Louth,LN11 8RS,East Midlands,no
132251,925,Lincolnshire,St Botolph's C of E Primary School,www.stbotolphsquarrington.co.uk,Sleaford,NG34 7FE,East Midlands,no
136044,925,Lincolnshire,St George's Academy,http://www.st-georges-academy.org/,Sleaford,NG34 7PP,East Midlands,no
120607,925,Lincolnshire,St George's Church of England Aided Primary School,http://www.aspire.school,Stamford,PE9 1SX,East Midlands,no
131490,925,Lincolnshire,"St George's Church of England Community Primary School, Gainsborough",www.gainsborough-st-georges.lincs.sch.uk,Gainsborough,DN21 1YN,East Midlands,no
146561,925,Lincolnshire,St Giles Academy,sga.harbourlearningtrust.com,Lincoln,LN2 4LQ,East Midlands,no
120587,925,Lincolnshire,"St Helena's Church of England Primary School, Willoughby",http://www.st-helenascofe.lincs.sch.uk,Alford,LN13 9NH,East Midlands,no
139627,925,Lincolnshire,"St Hugh's Catholic Primary, A Voluntary Academy",http://www.st-hughs-catholic-primary.co.uk,Lincoln,LN6 0SH,East Midlands,no
142308,925,Lincolnshire,St Lawrence School,,Horncastle,LN9 5EJ,East Midlands,no
120574,925,Lincolnshire,"St Michael's Church of England School, Louth",www.st-michaels.lincs.sch.uk/,Louth,LN11 9AR,East Midlands,no
147447,925,Lincolnshire,St Nicholas CE Primary Academy,https://www.bostonstnicholas.co.uk/,Boston,PE21 0EF,East Midlands,no
146257,925,Lincolnshire,St Norbert's Catholic Voluntary Academy,www.st-norberts.lincs.sch.uk/,Spalding,PE11 1NJ,East Midlands,no
147727,925,Lincolnshire,"St Paul's Community Primary and Nursery School, Spalding",,Spalding,PE11 2JQ,East Midlands,no
139623,925,Lincolnshire,"St Peter and St Paul, Catholic Voluntary Academy",http://www.sspp.lincs.sch.uk,Lincoln,LN6 7SX,East Midlands,no
146869,925,Lincolnshire,St Thomas CofE Primary Academy,https://www.stthomasacademy.co.uk/,Boston,PE21 7RZ,East Midlands,no
138282,925,Lincolnshire,St Wulfram's National Church of England Primary School,www.stwulframsprimary.co.uk,Grantham,NG31 6SR,East Midlands,no
139178,925,Lincolnshire,Stamford St Gilberts Church of England Primary School,www.stgilberts.co.uk/,Stamford,PE9 2PP,East Midlands,no
137600,925,Lincolnshire,Stamford Welland Academy,http://www.stamfordwellandacademy.org/,Stamford,PE9 1HE,East Midlands,no
138752,925,Lincolnshire,Staniland Academy,https://www.stanilandacademy.net/,Boston,PE21 8DF,East Midlands,no
120629,925,Lincolnshire,Stickney Church of England Primary School,www.stickneyprimary.co.uk/,Boston,PE22 8AX,East Midlands,no
120478,925,Lincolnshire,Sturton by Stow Primary School,www.sturtonbystow.org.uk/,Lincoln,LN1 2BY,East Midlands,no
148392,925,Lincolnshire,Surfleet Primary School,www.surfleet.lincs.sch.uk,Spalding,PE11 4DB,East Midlands,no
120502,925,Lincolnshire,Sutton Bridge Westmere Community Primary School,www.griffinfederation.co.uk,Spalding,PE12 9TB,East Midlands,no
120420,925,Lincolnshire,Sutton St James Community Primary School,www.sutton-st-james.lincs.sch.uk/,Spalding,PE12 0JG,East Midlands,no
120479,925,Lincolnshire,Sutton-on-Sea Community Primary School,http://www.suttononseaprimary.co.uk,Mablethorpe,LN12 2HU,East Midlands,no
151178,925,Lincolnshire,Swineshead St Mary's Church of England Primary School,http://www.swineshead.lincs.sch.uk/,Boston,PE20 3EN,East Midlands,no
145436,925,Lincolnshire,Tattershall Holy Trinity Church of England Primary School,https://www.holytrinitytattershall.co.uk/,Lincoln,LN4 4LD,East Midlands,no
120493,925,Lincolnshire,Tattershall Primary School,www.tattershallprimary.lincs.sch.uk/,Lincoln,LN4 4QZ,East Midlands,no
120480,925,Lincolnshire,Tealby School,http://www.tealby.lincs.sch.uk,Market Rasen,LN8 3XU,East Midlands,no
120482,925,Lincolnshire,Tetney Primary School,http://www.tetney.lincs.sch.uk,Grimsby,DN36 5NG,East Midlands,no
141581,925,Lincolnshire,The Banovallum School,www.banovallumschool.co.uk,Horncastle,LN9 6DA,East Midlands,no
141166,925,Lincolnshire,The Barnes Wallis Academy,http://www.barneswallisacademy.co.uk/,Lincoln,LN4 4PN,East Midlands,no
148371,925,Lincolnshire,The Bluecoat School,www.bluecoatprimary.org/,Stamford,PE9 1HE,East Midlands,no
139180,925,Lincolnshire,The Boston Grammar School,www.bostongrammarschool.co.uk,Boston,PE21 6JY,East Midlands,no
120683,925,Lincolnshire,The Butterwick Pinchbeck's Endowed CofE Primary School,http://www.butterwick.lincs.sch.uk/,Boston,PE22 0HU,East Midlands,no
120544,925,Lincolnshire,The Claypole Church of England Primary School,www.claypoleprimary.org,Newark,NG23 5BQ,East Midlands,no
120611,925,Lincolnshire,The Cowbit St Mary's (Endowed) CofE Primary,www.cowbit.lincs.sch.uk,Spalding,PE12 6AE,East Midlands,no
137873,925,Lincolnshire,The Deepings School,http://www.deepings.anthemtrust.uk,Peterborough,PE6 8NF,East Midlands,no
120444,925,Lincolnshire,The Donington-on-Bain School,www.dobprimary.co.uk,Louth,LN11 9TJ,East Midlands,no
143259,925,Lincolnshire,The Edenham Church of England School,www.edenham.lincs.sch.uk/,Bourne,PE10 0LP,East Midlands,no
120481,925,Lincolnshire,"The Edward Richardson Primary School, Tetford",http://www.edward-richardson.lincs.sch.uk,Horncastle,LN9 6QQ,East Midlands,no
139625,925,Lincolnshire,"The Eresby School, Spilsby",http://www.eresbyspecialschool.co.uk,Spilsby,PE23 5HU,East Midlands,no
150841,925,Lincolnshire,"The Fourfields Church of England School, Sutterton",http://fourfields.lincs.sch.uk/,Boston,PE20 2JN,East Midlands,no
145954,925,Lincolnshire,The Gainsborough Academy,www.thegainsboroughacademy.org.uk,Gainsborough,DN21 1PB,East Midlands,no
120492,925,Lincolnshire,The Gainsborough Charles Baines Community Primary School,http://www.charles-baines.lincs.sch.uk,Gainsborough,DN21 1TE,East Midlands,no
138330,925,Lincolnshire,The Gainsborough Hillcrest Early Years Academy,https://www.hillcrestearlyyearsacademy.co.uk,Gainsborough,DN21 1SW,East Midlands,no
126563,925,Lincolnshire,The Gainsborough Nursery School,www.gainsboroughnursery.co.uk,Gainsborough,DN21 2RR,East Midlands,no
138640,925,Lincolnshire,The Gainsborough Parish Church Primary School,www.parishchurch.lincs.sch.uk/,Gainsborough,DN21 2LN,East Midlands,no
148185,925,Lincolnshire,The Giles Academy,https://www.gilesacademy.co.uk/,Boston,PE22 9LD,East Midlands,no
120524,925,Lincolnshire,The Gonerby Hill Foot Church of England Primary School,www.gonerbyhillfoot.co.uk/,Grantham,NG31 8HQ,East Midlands,no
120572,925,Lincolnshire,The Hackthorn Church of England Primary School,http://www.hackthorn.lincs.sch.uk,Lincoln,LN2 3PF,East Midlands,no
120525,925,Lincolnshire,The Harlaxton Church of England Primary School,http://www.harlaxton-lincs.co.uk,Grantham,NG32 1HT,East Midlands,no
138283,925,Lincolnshire,The Harrowby Church of England Primary School,https://harrowbyprimary.co.uk,Grantham,NG31 9LJ,East Midlands,no
120549,925,Lincolnshire,The Holbeach St Mark's Church of England Primary School,www.griffinfederation.co.uk,Spalding,PE12 8DZ,East Midlands,no
120596,925,Lincolnshire,The Holbeach William Stukeley Church of England Voluntary Aided Primary School,www.williamstukeley.lincs.sch.uk/,Spalding,PE12 7HG,East Midlands,no
141100,925,Lincolnshire,The Isaac Newton Primary School,https://isaacnewton-cit.co.uk,Grantham,NG31 7DG,East Midlands,no
137166,925,Lincolnshire,"The King's School, Grantham",http://www.kings.lincs.sch.uk,Grantham,NG31 6RP,East Midlands,no
126562,925,Lincolnshire,"The Kingsdown Nursery School, Lincoln",https://www.kingsdownnurseryschool.co.uk/,Lincoln,LN6 0FB,East Midlands,no
140445,925,Lincolnshire,The Kirkby-la-Thorpe Church of England Primary School,www.kltprimary.co.uk,Sleaford,NG34 9NU,East Midlands,no
120686,925,Lincolnshire,The Lancaster School,www.lancaster.lincs.sch.uk/,LINCOLN,LN6 0QQ,East Midlands,no
120528,925,Lincolnshire,The Leasingham St Andrew's Church of England Primary School,http://www.st-andrews.lincs.sch.uk,Sleaford,NG34 8JS,East Midlands,no
120630,925,Lincolnshire,The Lincoln Bishop King Church of England Primary School,www.bishopking.org.uk,Lincoln,LN5 8EU,East Midlands,no
138149,925,Lincolnshire,The Lincoln Manor Leas Infants School,www.manorleasinfant.co.uk,Lincoln,LN6 8BE,East Midlands,no
139470,925,Lincolnshire,The Lincoln Manor Leas Junior School,www.manor-leas-junior.lincs.sch.uk/,Lincoln,LN6 8BE,East Midlands,no
120754,925,Lincolnshire,The Lincoln St Christopher's School,lincolnstchristophers.com,Lincoln,LN6 8AR,East Midlands,no
120563,925,Lincolnshire,The Lincoln St Peter at Gowts Church of England Primary School,http://www.st-peter-gowts.lincs.sch.uk/,LINCOLN,LN5 7TA,East Midlands,no
120560,925,Lincolnshire,The Lincoln St Peter-in-Eastgate Church of England (Controlled) Infants School,,Lincoln,LN2 4AW,East Midlands,no
138816,925,Lincolnshire,"The Little Gonerby Church of England Primary Academy, Grantham",www.little-gonerby.co.uk,Grantham,NG31 9AZ,East Midlands,no
120576,925,Lincolnshire,The Mareham-le-Fen Church of England Primary School,www.mareham.lincs.sch.uk/,Boston,PE22 7QB,East Midlands,no
120577,925,Lincolnshire,The Market Rasen Church of England Primary School,http://www.marketrasen.lincs.sch.uk,Market Rasen,LN8 3BL,East Midlands,no
120605,925,Lincolnshire,The Marston Thorold's Charity Church of England School,www.marstonthorolds.lincs.sch.uk/,Grantham,NG32 2HQ,East Midlands,no
144912,925,Lincolnshire,The Marton Academy,www.themartonacademy.co.uk,Gainsborough,DN21 5AG,East Midlands,no
132179,925,Lincolnshire,The Meadows Primary School,https://www.themeadowsprimaryschool.co.uk/,Lincoln,LN5 9BB,East Midlands,no
120382,925,Lincolnshire,The Metheringham Primary School,http://www.metheringhamprimary.co.uk/,Lincoln,LN4 3BX,East Midlands,no
120463,925,Lincolnshire,The Middle Rasen Primary School,http://www.middle-rasen.lincs.sch.uk,Market Rasen,LN8 3TS,East Midlands,no
143256,925,Lincolnshire,The Morton Church of England (Controlled) Primary School,www.morton.lincs.sch.uk,Bourne,PE10 0NN,East Midlands,no
120626,925,Lincolnshire,The Nettleham Church of England Voluntary Aided Junior School,http://www.nettleham-junior.lincs.sch.uk/,"NETTLEHAM, LINCOLN",LN2 2PE,East Midlands,no
138639,925,Lincolnshire,The Nettleham Infant and Nursery School,www.nettleham-inf.lincs.sch.uk/,Lincoln,LN2 2NT,East Midlands,no
120466,925,Lincolnshire,The New Leake Primary School,www.new-leake.lincs.sch.uk,Boston,PE22 8JB,East Midlands,no
120579,925,Lincolnshire,The North Cotes Church of England Primary School,www.northcotes.lincs.sch.uk,North Cotes,DN36 5UZ,East Midlands,no
120753,925,Lincolnshire,The Pilgrim School,http://www.pilgrim.lincs.sch.uk,Lincoln,LN6 0DE,East Midlands,no
148372,925,Lincolnshire,The Pinchbeck East Church of England Primary Academy,www.pinchbeckeast.lincs.sch.uk,Spalding,PE11 3RP,East Midlands,no
135565,925,Lincolnshire,The Priory Academy LSST,www.prioryacademies.co.uk,Lincoln,LN5 8PW,East Midlands,no
135564,925,Lincolnshire,The Priory City of Lincoln Academy,www.priorycity.co.uk,Lincoln,LN6 0EP,East Midlands,no
145052,925,Lincolnshire,The Priory Pembroke Academy,http://www.priorypembroke.co.uk,Lincoln,LN3 4JP,East Midlands,no
136194,925,Lincolnshire,The Priory Ruskin Academy,http://www.prioryruskin.co.uk/,Grantham,NG31 8ED,East Midlands,no
135563,925,Lincolnshire,The Priory Witham Academy,http://www.priorywitham.co.uk/,Lincoln,LN6 7DT,East Midlands,no
120655,925,Lincolnshire,"The Queen Elizabeth's High School, Gainsborough",http://www.qehs.lincs.sch.uk,Gainsborough,DN21 2ST,East Midlands,no
150623,925,Lincolnshire,The Richmond Primary Academy,,Skegness,PE25 3SH,East Midlands,no
120536,925,Lincolnshire,The Ropsley Church of England Primary School,http://www.ropsley.lincs.sch.uk,Grantham,NG33 4BT,East Midlands,no
120628,925,Lincolnshire,The Sibsey Free Primary School,www.sibseyprimaryschool.squarespace.com,Boston,PE22 0RR,East Midlands,no
120388,925,Lincolnshire,The South Hykeham Community Primary School,http://www.south-hykeham.lincs.sch.uk,Lincoln,LN6 9PG,East Midlands,no
120613,925,Lincolnshire,The Spalding St John the Baptist Church of England Primary School,www.st-john.lincs.sch.uk,Spalding,PE11 1JQ,East Midlands,no
120561,925,Lincolnshire,"The St Faith and St Martin Church of England Junior School, Lincoln",www.sfsm.co.uk/,Lincoln,LN1 1LW,East Midlands,no
120562,925,Lincolnshire,"The St Faith's Church of England Infant and Nursery School, Lincoln",http://www.st-faiths.lincs.sch.uk,Lincoln,LN1 1QS,East Midlands,no
120755,925,Lincolnshire,"The St Francis Special School, Lincoln",http://www.st-francis.lincs.sch.uk/,Lincoln,LN1 3TJ,East Midlands,no
120606,925,Lincolnshire,"The St Gilbert of Sempringham Church of England Primary School, Pointon",www.stgilbertspointon.co.uk,Sleaford,NG34 0NA,East Midlands,no
120588,925,Lincolnshire,"The St Margaret's Church of England School, Withern",www.st-margarets-pri.lincs.sch.uk/,Alford,LN13 0NB,East Midlands,no
120566,925,Lincolnshire,The St Peter and St Paul C of E Primary School,http://www.burghschool.org.uk,Skegness,PE24 5ED,East Midlands,no
120601,925,Lincolnshire,"The St Sebastian's Church of England Primary School, Great Gonerby",http://www.st-sebastians.lincs.sch.uk,Grantham,NG31 8LB,East Midlands,no
120614,925,Lincolnshire,The Tydd St Mary Church of England Primary School,www.tydd-st-mary.lincs.sch.uk,Wisbech,PE13 5QY,East Midlands,no
139885,925,Lincolnshire,The Utterby Primary Academy,www.utterbyprimaryacademy.org,Louth,LN11 0TN,East Midlands,no
140185,925,Lincolnshire,The Wainfleet Magdalen Church of England/Methodist School,www.magdalenwainfleet.co.uk/,Skegness,PE24 4DD,East Midlands,no
143132,925,Lincolnshire,Theddlethorpe Academy,www.theddlethorpeacademy.co.uk/,Mablethorpe,LN12 1PB,East Midlands,no
141391,925,Lincolnshire,Thomas Middlecott Academy,http://www.thomasmiddlecott.co.uk,Boston,PE20 1JS,East Midlands,no
147153,925,Lincolnshire,Thurlby Community Primary Academy,https://www.thurlby.lincs.sch.uk/,Bourne,PE10 0EZ,East Midlands,no
136793,925,Lincolnshire,Tower Road Academy,http://www.towerroadacademy.co.uk,Boston,PE21 9PX,East Midlands,no
120483,925,Lincolnshire,Toynton All Saints Primary School,www.toynton-all-saints.lincs.sch.uk,Spilsby,PE23 5AQ,East Midlands,no
142667,925,Lincolnshire,Tulip Academy,,Spalding,PE11 2EH,East Midlands,no
137282,925,Lincolnshire,University Academy Holbeach,http://www.universityacademyholbeach.org/,Spalding,PE12 7PU,East Midlands,no
147268,925,Lincolnshire,University Academy Long Sutton,www.uals.org.uk,Spalding,PE12 9LF,East Midlands,no
120485,925,Lincolnshire,Waddingham Primary School,www.waddingham.lincs.sch.uk/,Gainsborough,DN21 4SX,East Midlands,no
145358,925,Lincolnshire,Waddington All Saints Academy,www.all-saints.lincs.sch.uk/,Lincoln,LN5 9NX,East Midlands,no
146203,925,Lincolnshire,Waddington Redwood Primary Academy,http://www.redwood.lincs.sch.uk,Lincoln,LN5 9BN,East Midlands,no
120391,925,Lincolnshire,Walcott Primary School,www.carrdykefederation.co.uk/,Lincoln,LN4 3SX,East Midlands,no
136624,925,Lincolnshire,Walton Academy,https://www.walton-ac.org.uk,Grantham,NG31 7JR,East Midlands,no
142168,925,Lincolnshire,Warren Wood - A Specialist Academy,www.warrenwoodspecialistacademy.co.uk,Gainsborough,DN21 1PU,East Midlands,no
137977,925,Lincolnshire,Washingborough Academy,https://www.washac.org,Lincoln,LN4 1BW,East Midlands,no
139187,925,Lincolnshire,Welton St Mary's Church of England Primary Academy,http://www.welton-st-marys.lincs.sch.uk,Lincoln,LN2 3LA,East Midlands,no
148432,925,Lincolnshire,West Grantham Church of England Primary Academy,www.wgpacademy.org.uk,Grantham,NG31 7XQ,East Midlands,no
148433,925,Lincolnshire,West Grantham Church of England Secondary Academy,www.wgacademy.org.uk,Grantham,NG31 7PX,East Midlands,no
137451,925,Lincolnshire,Westgate Academy,www.westgateacademy.co.uk,Lincoln,LN1 3BQ,East Midlands,no
120554,925,Lincolnshire,Weston Hills CofE Primary School,http://www.westonhills.lincs.sch.uk,Spalding,PE12 6DL,East Midlands,no
140988,925,Lincolnshire,Weston St Mary Church of England Primary School,www.weston-st-mary.co.uk,Spalding,PE12 6HU,East Midlands,no
144119,925,Lincolnshire,Whaplode Church of England Primary School,www.whaplodeprimary.com,Spalding,PE12 6TS,East Midlands,no
139361,925,Lincolnshire,White's Wood Academy,www.talloaksacademy.co.uk,Gainsborough,DN21 1TJ,East Midlands,no
137565,925,Lincolnshire,William Alvey School,http://www.williamalvey.net,Sleaford,NG34 7EA,East Midlands,no
136415,925,Lincolnshire,William Farr CofE Comprehensive School,http://www.williamfarr.lincs.sch.uk/,Lincoln,LN2 3JB,East Midlands,no
120695,925,Lincolnshire,William Hildyard Church of England Primary and Nursery School,www.williamhildyard.lincs.sch.uk/,Market Deeping,PE6 8HZ,East Midlands,no
138756,925,Lincolnshire,William Lovell Church of England Academy,https://williamlovell.co.uk,Boston,PE22 8AA,East Midlands,no
147414,925,Lincolnshire,Willoughby Academy,https://www.willoughbyacademy.co.uk/,Bourne,PE10 9JD,East Midlands,no
120487,925,Lincolnshire,Willoughton Primary School,www.willoughton.lincs.sch.uk/,Gainsborough,DN21 5RT,East Midlands,no
120496,925,Lincolnshire,Winchelsea Primary School Ruskington,http://www.winchelsea.lincs.sch.uk/,Sleaford,NG34 9BY,East Midlands,no
137978,925,Lincolnshire,Witham St Hughs Academy,http://www.withamsthughsacademy.co.uk,Lincoln,LN6 9WF,East Midlands,no
142510,925,Lincolnshire,Woodlands Academy,www.woodlands-cit.co.uk,Spilsby,PE23 5EJ,East Midlands,no
120436,925,Lincolnshire,Woodlands Infant and Nursery School,www.woodlands.lincs.sch.uk,Lincoln,LN6 0PF,East Midlands,no
120488,925,Lincolnshire,Wragby Primary School,http://www.wragby.lincs.sch.uk,Market Rasen,LN8 5PJ,East Midlands,no
150429,925,Lincolnshire,Wrangle Primary Academy,www.wrangleprimaryacademy.com,Boston,PE22 9AS,East Midlands,no
146916,925,Lincolnshire,Wyberton Primary Academy,www.wybertonacademy.co.uk,Boston,PE21 7BZ,East Midlands,no
140498,925,Lincolnshire,Wygate Park Academy,wygateparkacademy.net,Spalding,PE11 3WT,East Midlands,no
120511,925,Lincolnshire,Allington with Sedgebrook Church of England Primary School,http://www.allingtonsedgebrook.lincs.sch.uk/,Grantham,NG32 2DY,East Midlands,yes
120512,925,Lincolnshire,Ancaster CofE Primary School,http://www.ancasterprimary.org.uk,Grantham,NG32 3QQ,East Midlands,yes
120514,925,Lincolnshire,Baston CE Primary School,http://www.baston-school.co.uk,Peterborough,PE6 9PB,East Midlands,yes
120401,925,Lincolnshire,Belmont Community Primary School,http://www.belmontprimary.com,Grantham,NG31 9LR,East Midlands,yes
120392,925,Lincolnshire,Belton Lane Community Primary School,www.belton-lane.lincs.sch.uk/,Grantham,NG31 9PP,East Midlands,yes
120412,925,Lincolnshire,Clough and Risegate Community Primary School,http://www.clough-risegate.co.uk,Spalding,PE11 4JP,East Midlands,yes
120517,925,Lincolnshire,Coleby Church of England (Controlled) Primary School,www.coleby.lincs.sch.uk/,Lincoln,LN5 0AJ,East Midlands,yes
120407,925,Lincolnshire,Deeping St Nicholas Primary School,www.dsnschool.org.uk/,Spalding,PE11 3DG,East Midlands,yes
120408,925,Lincolnshire,Fleet Wood Lane School,http://www.fleetwoodlane.com,Spalding,PE12 8NN,East Midlands,yes
120526,925,Lincolnshire,Heckington St Andrew's Church of England School,www.heckington.lincs.sch.uk/,Sleaford,NG34 9RX,East Midlands,yes
120415,925,Lincolnshire,Kirton Primary School,www.kirton-boston.lincs.sch.uk/,Boston,PE20 1HY,East Midlands,yes
120509,925,Lincolnshire,Leslie Manser Primary School,www.lesliemanser.lincs.sch.uk,Lincoln,LN6 0FB,East Midlands,yes
120398,925,Lincolnshire,Market Deeping Community Primary School,www.mdcp.org.uk,Market Deeping,PE6 8JE,East Midlands,yes
120386,925,Lincolnshire,Osbournby Primary School,http://www.osbournby.lincs.sch.uk/,Sleaford,NG34 0DG,East Midlands,yes
120552,925,Lincolnshire,Quadring Cowley & Brown's Primary School,http://www.quadringprimary.co.uk/,Spalding,PE11 4SQ,East Midlands,yes
120422,925,Lincolnshire,Shepeau Stow Primary School,www.shepeaustowschool.co.uk/,Spalding,PE12 0TX,East Midlands,yes
120406,925,Lincolnshire,South View Community Primary School,www.southviewprimary.co.uk/,Peterborough,PE6 0JA,East Midlands,yes
120522,925,Lincolnshire,"St Anne's Church of England Primary School, Grantham",www.st-annes.lincs.sch.uk,Grantham,NG31 9ED,East Midlands,yes
120537,925,Lincolnshire,St Lawrence Church of England Primary School,https://skellingthorpesaintlawrenceprimary.co.uk,LINCOLN,LN6 5UZ,East Midlands,yes
120539,925,Lincolnshire,Swinderby All Saints Church of England Primary School,www.swinderbyallsaints.co.uk/,Lincoln,LN6 9LU,East Midlands,yes
120515,925,Lincolnshire,The Billinghay Church of England Primary School,www.billinghayprimaryschool.co.uk,Lincoln,LN4 4HU,East Midlands,yes
120556,925,Lincolnshire,The Donington Cowley Endowed Primary School,www.cowley.lincs.sch.uk/,Spalding,PE11 4TR,East Midlands,yes
120548,925,Lincolnshire,The Gedney Hill Church of England VC Primary School,https://www.gedneyhillschool.co.uk/,Spalding,PE12 0NL,East Midlands,yes
120418,925,Lincolnshire,"The John Harrox Primary School, Moulton",http://www.johnharroxprimary.co.uk,Spalding,PE12 6PN,East Midlands,yes
120623,925,Lincolnshire,The Kirkby-on-Bain Church of England Primary School,http://www.kobps.lincs.sch.uk,Woodhall Spa,LN10 6YW,East Midlands,yes
120365,925,Lincolnshire,The Lincoln St Giles Nursery School,www.lincolnstgilesnursery.co.uk,Lincoln,LN2 4LQ,East Midlands,yes
120533,925,Lincolnshire,The North Hykeham All Saints Church of England Primary School,http://www.allsaints-northhykeham.lincs.sch.uk,Lincoln,LN6 9AB,East Midlands,yes
120534,925,Lincolnshire,The Potterhanworth Church of England Primary School,http://www.potterhanworth.lincs.sch.uk,Lincoln,LN4 2DT,East Midlands,yes
120540,925,Lincolnshire,"The St Michael's Church of England Primary School, Thorpe on the Hill",www.stmichaels.lincs.sch.uk/,Lincoln,LN6 9BN,East Midlands,yes
120541,925,Lincolnshire,The Uffington Church of England Primary School,http://www.uffingtonprimary.co.uk,Stamford,PE9 4SU,East Midlands,yes
120542,925,Lincolnshire,The Welbourn Church of England Primary School,www.welbournprimary.co.uk,Lincoln,LN5 0NH,East Midlands,yes
120364,925,Lincolnshire,Wyndham Park Nursery School,www.wyndhampark.lincs.sch.uk,Grantham,NG31 9BB,East Midlands,yes
