urn,district_code,district_name,school_name,website,town,postcode,region,has_email_collected
140190,941,West Northamptonshire,Abbey CofE Academy,www.abbeyceacademy.co.uk/,Daventry,NN11 4GD,East Midlands,no
138858,941,West Northamptonshire,Abbeyfield School,www.abbeyfieldschool.org.uk,Northampton,NN4 8BU,East Midlands,no
138952,941,West Northamptonshire,Abington Vale Primary School,www.abingtonvaleprimary.org.uk,Northampton,NN3 3NQ,East Midlands,no
122096,941,West Northamptonshire,All Saints CofE VA Primary School,www.allsaintscevakingsthorpe.org.uk,Northampton,NN2 7AJ,East Midlands,no
145446,941,West Northamptonshire,Ashby Fields Primary School,http://www.ashbyfields.co.uk,Daventry,NN11 0YP,East Midlands,no
121957,941,West Northamptonshire,Ashton CofE Primary School,www.ashtonceprimary.org.uk,Northampton,NN7 2JH,East Midlands,no
141077,941,West Northamptonshire,Badby School,www.badbyschool.com/,Badby,NN11 3AJ,East Midlands,no
141044,941,West Northamptonshire,Barby Church of England Primary School,www.barbyceprimary.org.uk,Rugby,CV23 8TR,East Midlands,no
121939,941,West Northamptonshire,Barry Primary School,www.barryprimary.com/,Northampton,NN1 5JS,East Midlands,no
140436,941,West Northamptonshire,Billing Brook Special School,www.billingbrook.co.uk,Northampton,NN3 8EZ,East Midlands,no
146035,941,West Northamptonshire,Blackthorn Primary School,www.blackthornprimary.net,Northampton,NN3 8EP,East Midlands,no
145091,941,West Northamptonshire,Blakesley Church of England Primary School,http://www.blakesleyprimary.org.uk,Towcester,NN12 8RD,East Midlands,no
121794,941,West Northamptonshire,Blisworth Community Primary School,http://www.blisworth.northants.sch.uk,Northampton,NN7 3DD,East Midlands,no
140056,941,West Northamptonshire,Boddington Church of England Primary Academy,www.boddingtonschool.org/,Daventry,NN11 6DL,East Midlands,no
121931,941,West Northamptonshire,Boothville Primary School,https://www.boothvilleprimary.net/,Northampton,NN3 6JG,East Midlands,no
138760,941,West Northamptonshire,Boughton Primary School,www.boughtonprimaryschool.org.uk/,Northampton,NN2 8RG,East Midlands,no
144394,941,West Northamptonshire,Bracken Leas Primary School,www.brackenleasacademy.com,Brackley,NN13 6LF,East Midlands,no
121961,941,West Northamptonshire,Brackley Church of England Junior School,www.brackleycofejuniorschool.co.uk,BRACKLEY,NN13 6EE,East Midlands,no
141048,941,West Northamptonshire,Braunston Church of England Primary School,www.braunstonprimary.org.uk,Daventry,NN11 7HF,East Midlands,no
138917,941,West Northamptonshire,Briar Hill Primary School & Nursery,www.briarhillprimary.co.uk,Northampton,NN4 8SW,East Midlands,no
122076,941,West Northamptonshire,Bridgewater Primary School,www.bridgewaterprimary.net/,Northampton,NN3 3AF,East Midlands,no
121798,941,West Northamptonshire,Brington Primary School,www.bringtonprimaryschool.org.uk/,Northampton,NN7 4HX,East Midlands,no
121964,941,West Northamptonshire,Brixworth CofE VC Primary School,www.brixworthprimary.org.uk,Northampton,NN6 9BG,East Midlands,no
148569,941,West Northamptonshire,Buckton Fields Primary School,https://bucktonschool.org.uk/,Northampton,NN2 8ES,East Midlands,no
121800,941,West Northamptonshire,Bugbrooke Community Primary School,www.bugbrookeprimaryschool.co.uk/,Northampton,NN7 3PA,East Midlands,no
143468,941,West Northamptonshire,Byfield School,www.byfieldschool.com/,Daventry,NN11 6US,East Midlands,no
137087,941,West Northamptonshire,Campion School,http://www.campionschool.org.uk,Northampton,NN7 3QG,East Midlands,no
137089,941,West Northamptonshire,Caroline Chisholm School,www.ccs.northants.sch.uk,Northampton,NN4 6TP,East Midlands,no
140362,941,West Northamptonshire,Castle Academy,http://castle.emat.uk,Northampton,NN1 2TR,East Midlands,no
138160,941,West Northamptonshire,Cedar Road Primary School,www.cedarroadacademy.co.uk/,Northampton,NN3 2JF,East Midlands,no
140058,941,West Northamptonshire,Chacombe CEVA Primary Academy,www.chacombe.northants.sch.uk/,Banbury,OX17 2JA,East Midlands,no
137878,941,West Northamptonshire,Chenderit School,https://www.chenderit.northants.sch.uk/,Banbury,OX17 2QR,East Midlands,no
121924,941,West Northamptonshire,Chiltern Primary School,www.chiltern.northants.sch.uk,Northampton,NN5 6BW,East Midlands,no
139847,941,West Northamptonshire,Chipping Warden Primary Academy,www.chippingwarden.northants.sch.uk,Banbury,OX17 1LD,East Midlands,no
149280,941,West Northamptonshire,Cogenhoe Primary School,www.cogenhoe.northants.sch.uk/,Northampton,NN7 1NB,East Midlands,no
144395,941,West Northamptonshire,Collingtree Church of England Primary School,www.collingtreeprimary.org.uk,Northampton,NN4 0NQ,East Midlands,no
121811,941,West Northamptonshire,Cosgrove Village Primary School,www.cosgroveschool.co.uk/,Cosgrove,MK19 7JH,East Midlands,no
121812,941,West Northamptonshire,Crick Primary School,http://www.crick.northants.sch.uk,Northampton,NN6 7TU,East Midlands,no
121967,941,West Northamptonshire,Croughton All Saints CofE Primary School,www.croughtonallsaints.northants.sch.uk,Brackley,NN13 5LT,East Midlands,no
140065,941,West Northamptonshire,Culworth Church of England Primary Academy,www.culworthschool.org/,Banbury,OX17 2BB,East Midlands,no
138073,941,West Northamptonshire,DSLV E-ACT Academy,https://dslvacademy.e-act.org.uk/,Daventry,NN11 4LJ,East Midlands,no
142783,941,West Northamptonshire,Daventry Hill School,www.daventryhillschool.co.uk,Daventry,NN11 0QE,East Midlands,no
149061,941,West Northamptonshire,Deanshanger Primary School,www.deanshangerprimary.co.uk,Milton Keynes,MK19 6HJ,East Midlands,no
122069,941,West Northamptonshire,Delapre Primary School,www.delapreprimaryschool.co.uk,Northampton,NN4 8JA,East Midlands,no
121814,941,West Northamptonshire,Denton Primary School,www.dentonprimary.net/,Northampton,NN7 1DT,East Midlands,no
121945,941,West Northamptonshire,Duston Eldean Primary School,www.dustoneldeanprimary.co.uk/,Northampton,NN5 6PP,East Midlands,no
150435,941,West Northamptonshire,E-ACT The Grange School,,Daventry,NN11 4HW,East Midlands,no
121912,941,West Northamptonshire,Earl Spencer Primary School,https://www.earlspencerprimary.org/,Northampton,NN5 7DE,East Midlands,no
121969,941,West Northamptonshire,East Haddon Church of England Primary School,www.easthaddonprimary.org.uk/,Northampton,NN6 8DB,East Midlands,no
145206,941,West Northamptonshire,East Hunsbury Primary School,www.easthunsburyprimary.org.uk,Northampton,NN4 0QW,East Midlands,no
138423,941,West Northamptonshire,Eastfield Academy,www.eastfieldacademy.co.uk,Northampton,NN3 2RJ,East Midlands,no
138953,941,West Northamptonshire,Ecton Brook Primary School,www.ectonbrook.org.uk,Northampton,NN3 5DY,East Midlands,no
143421,941,West Northamptonshire,Elizabeth Woodville School,www.ewsacademy.org.uk,Milton Keynes,MK19 6HN,East Midlands,no
122160,941,West Northamptonshire,Fairfields School,www.fairfields.northants.sch.uk,Northampton,NN2 6JN,East Midlands,no
140829,941,West Northamptonshire,Falconer's Hill Academy,www.falconershillacademy.com,Daventry,NN11 0QF,East Midlands,no
144172,941,West Northamptonshire,Falconer's Hill Infant School,www.falconershillinfants.com/,Daventry,NN11 0QF,East Midlands,no
146008,941,West Northamptonshire,Farthinghoe Primary School,www.farthinghoeprimaryschool.co.uk,Brackley,NN13 5PA,East Midlands,no
121970,941,West Northamptonshire,Flore Church of England Primary School,www.flore.northants.sch.uk/,Northampton,NN7 4LZ,East Midlands,no
121971,941,West Northamptonshire,Gayton Church of England Primary School,www.forestfederation.co.uk,Northampton,NN7 3EU,East Midlands,no
121785,941,West Northamptonshire,Gloucester Nursery School,www.gloucesternurseryschool.co.uk,Northampton,NN4 8PH,East Midlands,no
121822,941,West Northamptonshire,Greatworth Primary School,www.greatworthschool.co.uk,Banbury,OX17 2DR,East Midlands,no
140327,941,West Northamptonshire,Green Oaks Primary Academy,https://www.greenoaksprimaryacademy.org/,Northampton,NN2 7RR,East Midlands,no
141726,941,West Northamptonshire,Greenfields Specialist School for Communication,www.gsscacademy.org,Northampton,NN3 8XS,East Midlands,no
143979,941,West Northamptonshire,Greens Norton Church of England Primary School,http://www.greensnortonschool.co.uk,Towcester,NN12 8DD,East Midlands,no
136489,941,West Northamptonshire,Guilsborough Academy,http://www.guilsborough.northants.sch.uk,Northampton,NN6 8QE,East Midlands,no
144430,941,West Northamptonshire,Guilsborough Church of England Primary School,www.guilsboroughprimary.co.uk,Northampton,NN6 8PT,East Midlands,no
135063,941,West Northamptonshire,Hackleton CofE Primary School,www.hackletoncevaprimary.org.uk,Northampton,NN7 2AB,East Midlands,no
140370,941,West Northamptonshire,Hardingstone Academy,http://www.hardingstone.emat.uk,Northampton,NN4 6DJ,East Midlands,no
121826,941,West Northamptonshire,Harlestone Primary School,https://www.harlestone.northants.sch.uk,Northampton,NN7 4EN,East Midlands,no
121976,941,West Northamptonshire,Harpole Primary School,www.harpoleprimary.co.uk,Northampton,NN7 4DP,East Midlands,no
136542,941,West Northamptonshire,Hartwell Primary School,www.hartwellschool.com,Northampton,NN7 2HL,East Midlands,no
138954,941,West Northamptonshire,Headlands Primary School,www.headlands.org.uk,Northampton,NN3 2NS,East Midlands,no
121827,941,West Northamptonshire,Helmdon Primary School,http://www.helmdonprimaryschool.com,Brackley,NN13 5QT,East Midlands,no
121927,941,West Northamptonshire,Hopping Hill Primary School,www.hoppinghillprimary.co.uk,Northampton,NN5 6DT,East Midlands,no
144685,941,West Northamptonshire,Hospital and Outreach Education,www.nhoe.org.uk,Northampton,NN4 8EN,East Midlands,no
121952,941,West Northamptonshire,Hunsbury Park Primary School,www.hunsburypark.northants.sch.uk/,Northampton,NN4 9RR,East Midlands,no
121851,941,West Northamptonshire,John Hellins Primary School,www.johnhellins.co.uk/,Towcester,NN12 7PG,East Midlands,no
141079,941,West Northamptonshire,Kilsby Church of England Primary School,www.kilsbyprimary.net/,Rugby,CV23 8XS,East Midlands,no
140414,941,West Northamptonshire,Kings Heath Primary Academy,www.kingsheathacademy.co.uk,Northampton,NN5 7LN,East Midlands,no
149367,941,West Northamptonshire,Kings Meadow School,http://kingsmeadowschool.co.uk,Northampton,NN3 7AR,East Midlands,no
139857,941,West Northamptonshire,Kings Sutton Primary Academy,www.kingssuttonpa.co.uk/,Banbury,OX17 3RT,East Midlands,no
144683,941,West Northamptonshire,Kingsley Primary School,https://www.kingsleyprimary.net/,Northampton,NN2 7EE,East Midlands,no
138932,941,West Northamptonshire,Kingsthorpe College,http://www.kingsthorpecollege.org.uk,Northampton,NN2 7HR,East Midlands,no
121943,941,West Northamptonshire,Kingsthorpe Grove Primary School,www.kingsthorpegrove.northants.sch.uk,Northampton,NN2 7QL,East Midlands,no
133732,941,West Northamptonshire,Kingsthorpe Village Primary School,www.kingsthorpevps.co.uk,Northampton,NN2 6QL,East Midlands,no
145635,941,West Northamptonshire,Kislingbury Primary School,www.kislingburyschool.co.uk/,Northampton,NN7 4AQ,East Midlands,no
138955,941,West Northamptonshire,Lings Primary School,www.lings-primary.co.uk,Northampton,NN3 8NN,East Midlands,no
122025,941,West Northamptonshire,Little Houghton Church of England Primary,www.lhcep.co.uk/,Northampton,NN7 1AF,East Midlands,no
121844,941,West Northamptonshire,Long Buckby Infant School,www.longbuckbyinfantschool.org.uk/,Northampton,NN6 7RE,East Midlands,no
121843,941,West Northamptonshire,Long Buckby Junior School,www.longbuckbyjunior.co.uk/,Northampton,NN6 7PX,East Midlands,no
146366,941,West Northamptonshire,Lumbertubs Primary School,www.lumbertubs.co.uk,Northampton,NN3 8HZ,East Midlands,no
121922,941,West Northamptonshire,Lyncrest Primary School,www.lyncrestprimary.net/,Northampton,NN5 5PE,East Midlands,no
139158,941,West Northamptonshire,Magdalen College School,http://www.magdalen.northants.sch.uk/,Brackley,NN13 6FB,East Midlands,no
121845,941,West Northamptonshire,Maidwell Primary School,www.maidwellprimary.net,Northampton,NN6 9JF,East Midlands,no
136201,941,West Northamptonshire,Malcolm Arnold Academy,http://www.malcolmarnoldacademy.co.uk/,Northampton,NN2 6JW,East Midlands,no
140946,941,West Northamptonshire,Malcolm Arnold Preparatory School,http://www.malcolmarnoldprep.co.uk,Northampton,NN2 6JW,East Midlands,no
148571,941,West Northamptonshire,Marie Weller Primary School,https://www.mariewelleracademy.com/,Towcester,NN12 6LZ,East Midlands,no
139866,941,West Northamptonshire,Middleton Cheney Primary Academy,www.mcpa.org.uk,Banbury,OX17 2PD,East Midlands,no
122086,941,West Northamptonshire,Millway Primary School,www.millwayprimary.co.uk,Northampton,NN5 6ES,East Midlands,no
141725,941,West Northamptonshire,Milton Parochial Primary School,http://www.milton.northants.sch.uk,Northampton,NN7 3AT,East Midlands,no
146371,941,West Northamptonshire,Monksmoor Park Church of England Primary School,www.monksmoorceprimary.co.uk,Daventry,NN11 2PD,East Midlands,no
122102,941,West Northamptonshire,Moulton Primary School,http://www.moultonprimaryschool.co.uk,Northampton,NN3 7SW,East Midlands,no
137614,941,West Northamptonshire,Moulton School and Science College,http://www.moultonschool.co.uk,Northampton,NN3 7SD,East Midlands,no
140736,941,West Northamptonshire,Naseby Church of England Primary Academy,www.nasebyschool.co.uk/,Northampton,NN6 6BZ,East Midlands,no
150717,941,West Northamptonshire,New Horizons Academy,https://www.newhorizonsacademy.org.uk/,Northampton,NN1 2NE,East Midlands,no
122027,941,West Northamptonshire,Newbottle and Charlton Church of England Primary School,www.newbottleandcharlton.co.uk/,Banbury,OX17 3DN,East Midlands,no
140060,941,West Northamptonshire,Newnham Primary School,http://www.newnhamacademy.co.uk/,Daventry,NN11 3HG,East Midlands,no
136480,941,West Northamptonshire,Nicholas Hawksmoor Primary School,www.nicholashawksmooracademy.com,Towcester,NN12 6JA,East Midlands,no
142485,941,West Northamptonshire,Northampton International Academy,www.nia.emat.uk,Northampton,NN1 1AA,East Midlands,no
149782,941,West Northamptonshire,Northampton School,https://www.northamptonschool.co.uk/,Northampton,NN3 7TR,East Midlands,no
136299,941,West Northamptonshire,Northampton School for Boys,http://www.nsb.northants.sch.uk/,Northampton,NN1 5RT,East Midlands,no
140510,941,West Northamptonshire,Northampton School for Girls,http://www.nsg.northants.sch.uk,Northampton,NN3 6DG,East Midlands,no
137354,941,West Northamptonshire,Northgate School Academy Trust,www.northgateacademy.org.uk,Northampton,NN2 6LR,East Midlands,no
146009,941,West Northamptonshire,Old Stratford Primary School,www.oldstratfordschool.org.uk/,Milton Keynes,MK19 6AZ,East Midlands,no
121849,941,West Northamptonshire,Overstone Primary School,http://www.overstoneprimaryschool.org.uk/,Northampton,NN6 0AG,East Midlands,no
121788,941,West Northamptonshire,Parklands Nursery School,www.parklandsnurseryschool.co.uk,Northampton,NN3 6DW,East Midlands,no
146283,941,West Northamptonshire,Parklands Primary School,http://parklands.northants.sch.uk/,Northampton,NN3 6DW,East Midlands,no
121985,941,West Northamptonshire,Pattishall Church of England Primary School,www.pattishallschool.co.uk,Towcester,NN12 8NE,East Midlands,no
149281,941,West Northamptonshire,Paulerspury Church of England Primary School,www.paulerspuryschool.co.uk,Towcester,NN12 7NA,East Midlands,no
144758,941,West Northamptonshire,Pineham Barns Primary School,www.pinehambarns.sch.uk,,NN4 9FF,East Midlands,no
121850,941,West Northamptonshire,Pitsford Primary School,www.pitsfordprimary.org/,Northampton,NN6 9AU,East Midlands,no
139039,941,West Northamptonshire,Preston Hedges Primary School,http://www.prestonhedges.northants.sch.uk,Northampton,NN4 6BU,East Midlands,no
144759,941,West Northamptonshire,Purple Oaks Academy,www.purpleoaksacademy.org,Northampton,NN2 7RR,East Midlands,no
139650,941,West Northamptonshire,Queen Eleanor Primary Academy,www.queeneleanoracademy.org.uk,Northampton,NN4 8NN,East Midlands,no
143542,941,West Northamptonshire,Rectory Farm Primary School,www.rfps.org.uk,Northampton,NN3 5DD,East Midlands,no
121854,941,West Northamptonshire,Roade Primary School,http://www.roadeprimary.co.uk,Northampton,NN7 2NT,East Midlands,no
149282,941,West Northamptonshire,Rothersthorpe Church of England Primary School,www.rothersthorpeceprimary.net,Northampton,NN7 3HS,East Midlands,no
143614,941,West Northamptonshire,Silverstone Church of England Primary School,http://www.silverstoneprimary.org.uk,Towcester,NN12 8UB,East Midlands,no
139690,941,West Northamptonshire,Silverstone UTC,http://www.utc-silverstone.co.uk/,Towcester,NN12 8TL,East Midlands,no
141921,941,West Northamptonshire,Simon de Senlis Primary School,www.simondesenlis.org,Northampton,NN4 0PH,East Midlands,no
136488,941,West Northamptonshire,Sponne School,http://www.sponne.org.uk,Towcester,NN12 6DJ,East Midlands,no
145636,941,West Northamptonshire,Spratton Church of England Primary School,http://sprattonprimary.org.uk/#,Northampton,NN6 8HY,East Midlands,no
138493,941,West Northamptonshire,Spring Lane Primary School,www.springlaneprimaryschool.com,Northampton,NN1 2JW,East Midlands,no
122017,941,West Northamptonshire,St Andrew's Ceva Primary School,https://www.standrews.northants.sch.uk,Northampton,NN3 5EN,East Midlands,no
142733,941,West Northamptonshire,St Gregory's Catholic Primary School,http://www.stgregoryscatholicprimaryschool.org.uk/,Northampton,NN3 2AX,East Midlands,no
141724,941,West Northamptonshire,St James Church of England Primary School,www.stjames.northants.sch.uk,Northampton,NN5 7AG,East Midlands,no
144178,941,West Northamptonshire,St James Infant School,www.stjamesinfant.com,Daventry,NN11 4AG,East Midlands,no
140102,941,West Northamptonshire,"St Loys Church of England Primary Academy, Weedon Lois",www.stloys.co.uk,Towcester,NN12 8PP,East Midlands,no
143467,941,West Northamptonshire,St Luke's Church of England Primary School,http://stlukesprimaryschool.org.uk,Northampton,NN5 4UL,East Midlands,no
142738,941,West Northamptonshire,St Mary's Catholic Primary School,www.stmaryscatholicprimary.northants.sch.uk/,Northampton,NN5 7HX,East Midlands,no
122040,941,West Northamptonshire,"St Mary's Catholic Primary School, Aston-le-Walls",www.stmarysrc-astonlewalls.co.uk/,Daventry,NN11 6UF,East Midlands,no
144177,941,West Northamptonshire,Standens Barn Primary School,www.standens.northants.sch.uk,Northampton,NN3 9EH,East Midlands,no
141068,941,West Northamptonshire,Staverton Church of England Voluntary Primary School,www.stavertonceprimary.org,Daventry,NN11 6JF,East Midlands,no
140628,941,West Northamptonshire,Stimpson Avenue Academy,www.stimpson.emat.uk,Northampton,NN1 4LR,East Midlands,no
121992,941,West Northamptonshire,Stoke Bruerne Church of England Primary School,www.forestfederation.co.uk,Towcester,NN12 7SD,East Midlands,no
139113,941,West Northamptonshire,Sunnyside Primary Academy,www.sunnysideprimaryacademy.org/,Northampton,NN2 8QS,East Midlands,no
121993,941,West Northamptonshire,Syresham St James CofE Primary School and Nursery,www.syreshamprimaryschool.co.uk/,Brackley,NN13 5HL,East Midlands,no
144173,941,West Northamptonshire,The Abbey Primary School,www.abbeyprimary.co.uk,Northampton,NN4 8AZ,East Midlands,no
139061,941,West Northamptonshire,The Arbours Primary Academy,www.arboursacademy.co.uk,Northampton,NN3 3QF,East Midlands,no
121803,941,West Northamptonshire,The Bramptons Primary School,www.bramptons-primary-school.co.uk,Northampton,NN6 8AW,East Midlands,no
149432,941,West Northamptonshire,The CE Academy,https://www.ce-academy.org,Northampton,NN1 3EX,East Midlands,no
138214,941,West Northamptonshire,The Duston School,http://www.thedustonschool.org,Northampton,NN5 6XA,East Midlands,no
150242,941,West Northamptonshire,The Gateway School,https://www.thegatewayschool.co.uk/,Northampton,NN12 8AA,East Midlands,no
142742,941,West Northamptonshire,The Good Shepherd Catholic Primary School,www.thegoodshepherdcatholicprimaryschool.org.uk,Northampton,NN2 7BH,East Midlands,no
138235,941,West Northamptonshire,The Parker E-ACT Academy,https://theparkeracademy.e-act.org.uk/,Daventry,NN11 0QE,East Midlands,no
145903,941,West Northamptonshire,The Radstone Primary School,www.theradstoneacademy.com,Brackley,NN13 6GA,East Midlands,no
142747,941,West Northamptonshire,Thomas Becket Catholic School,http://www.thomasbecket.org.uk/,Northampton,NN3 6HT,East Midlands,no
139424,941,West Northamptonshire,Thorplands Primary School,https://www.thorplandsprimary.org.uk,Northampton,NN3 8AQ,East Midlands,no
122031,941,West Northamptonshire,Tiffield Church of England Voluntary Aided Primary School,www.forestfederation.co.uk,Towcester,NN12 8AB,East Midlands,no
142650,941,West Northamptonshire,Towcester Church of England Primary School,www.towcesterprimary.northants.sch.uk/,Towcester,NN12 6AU,East Midlands,no
145634,941,West Northamptonshire,Upton Meadows Primary School,www.uptonmeadowsprimary.org.uk,Northampton,NN5 4EZ,East Midlands,no
121920,941,West Northamptonshire,Vernon Terrace Primary School,www.vernonterrace.net/,Northampton,NN1 5HE,East Midlands,no
121864,941,West Northamptonshire,Walgrave Primary School,www.walgraveschool.org/,Northampton,NN6 9PH,East Midlands,no
121786,941,West Northamptonshire,Wallace Road Nursery School,www.wallaceroadnurseryschool.co.uk,Northampton,NN2 7EE,East Midlands,no
138056,941,West Northamptonshire,Waynflete Infants' School,http://www.waynfleteinfantsschool.co.uk,Brackley,NN13 6AF,East Midlands,no
141080,941,West Northamptonshire,Weedon Bec Primary School,www.weedonbecprimary.co.uk/,Northampton,NN7 4QU,East Midlands,no
144319,941,West Northamptonshire,Welford Sibbertoft and Sulby Endowed School,www.wsses.com,Northampton,NN6 6HU,East Midlands,no
138840,941,West Northamptonshire,Welton Church of England Academy,www.weltonacademy.co.uk/,Daventry,NN11 2JZ,East Midlands,no
122002,941,West Northamptonshire,West Haddon Endowed Church of England Primary School,www.westhaddonprimary.net/,Northampton,NN6 7AN,East Midlands,no
136948,941,West Northamptonshire,Weston Favell Academy,http://www.westonfavellacademy.org/,Northampton,NN3 3EZ,East Midlands,no
138956,941,West Northamptonshire,Weston Favell CofE Primary School,www.wfps.org.uk,Northampton,NN3 3HH,East Midlands,no
121787,941,West Northamptonshire,Whitehills Nursery School,www.whitehillsnurseryschool.org.uk,Northampton,NN2 8DF,East Midlands,no
121926,941,West Northamptonshire,Whitehills Primary School,http://www.whitehillsprimary.northants.sch.uk,Northampton,NN2 8DF,East Midlands,no
122003,941,West Northamptonshire,Whittlebury Church of England Primary School,https://www.forestfederation.co.uk/page/?title=Whittlebury+CE+Primary+School&pid=8,Towcester,NN12 8XH,East Midlands,no
141073,941,West Northamptonshire,Woodford Halse Church of England Primary Academy,https://www.woodfordhalseacademy.net/,Daventry,NN11 3RQ,East Midlands,no
137918,941,West Northamptonshire,Woodland View Primary School,www.wvps.northants.sch.uk,Northampton,NN4 5FZ,East Midlands,no
139112,941,West Northamptonshire,Woodvale Primary Academy,www.woodvaleprimaryacademy.org,Northampton,NN3 8JJ,East Midlands,no
142869,941,West Northamptonshire,Wootton Park School,www.woottonparkschool.org.uk,Northampton,NN4 0HZ,East Midlands,no
138822,941,West Northamptonshire,Wootton Primary School,http://www.wootton.northants.sch.uk/,Northampton,NN4 6HJ,East Midlands,no
122007,941,West Northamptonshire,Yardley Gobion Church of England Primary School,www.yardleygobionschool.co.uk/,Towcester,NN12 7UL,East Midlands,no
121876,941,West Northamptonshire,Yardley Hastings Primary School,,Northampton,NN7 1EL,East Midlands,no
121877,941,West Northamptonshire,Yelvertoft Primary School,www.yelvertoftprimary.com/,Northampton,NN6 6LH,East Midlands,no
131151,941,West Northamptonshire,Camrose Early Years Centre for Children & Families,www.ffcnschools.com,Northampton,NN5 7DE,East Midlands,yes
122013,941,West Northamptonshire,Clipston Endowed Voluntary Controlled Primary School,www.clipstonprimaryschool.org,Market Harborough,LE16 9RU,East Midlands,yes
134814,941,West Northamptonshire,Northampton Academy,http://www.northampton-academy.org,Northampton,NN3 8NH,East Midlands,yes
122048,941,West Northamptonshire,The Bliss Charity School,http://www.bliss.northants.sch.uk,Northampton,NN7 3LE,East Midlands,yes
